<?xml version="1.0" encoding="UTF-8"?>
<kml xmlns="http://www.opengis.net/kml/2.2"><Document>
<name>예수님 족보와 하나님이 보내신 사람들 — 지도 연표</name>
<description>1~74 시간 순서. 같은 번호 = 같은 시기의 여러 갈래. 금색=1기, 파랑=2기, 초록=3기, 보라=천사·선지자·사사, 회색=세계사, 빨강=BC 586 성전 불탐. 좌표는 근사값.</description>
<Style id="p5CC98A"><IconStyle><color>ff8AC95C</color><scale>0.9</scale><Icon><href>http://maps.google.com/mapfiles/kml/shapes/placemark_circle.png</href></Icon></IconStyle><LabelStyle><scale>0.8</scale></LabelStyle></Style>
<Style id="l5CC98A"><LineStyle><color>e68AC95C</color><width>3</width></LineStyle><PolyStyle><color>ff8AC95C</color><fill>1</fill><outline>0</outline></PolyStyle></Style>
<Style id="p9A9A9A"><IconStyle><color>ff9A9A9A</color><scale>0.9</scale><Icon><href>http://maps.google.com/mapfiles/kml/shapes/placemark_circle.png</href></Icon></IconStyle><LabelStyle><scale>0.8</scale></LabelStyle></Style>
<Style id="l9A9A9A"><LineStyle><color>e69A9A9A</color><width>3</width></LineStyle><PolyStyle><color>ff9A9A9A</color><fill>1</fill><outline>0</outline></PolyStyle></Style>
<Style id="pF2C14E"><IconStyle><color>ff4EC1F2</color><scale>0.9</scale><Icon><href>http://maps.google.com/mapfiles/kml/shapes/placemark_circle.png</href></Icon></IconStyle><LabelStyle><scale>0.8</scale></LabelStyle></Style>
<Style id="lF2C14E"><LineStyle><color>e64EC1F2</color><width>3</width></LineStyle><PolyStyle><color>ff4EC1F2</color><fill>1</fill><outline>0</outline></PolyStyle></Style>
<Style id="p4FA3E0"><IconStyle><color>ffE0A34F</color><scale>0.9</scale><Icon><href>http://maps.google.com/mapfiles/kml/shapes/placemark_circle.png</href></Icon></IconStyle><LabelStyle><scale>0.8</scale></LabelStyle></Style>
<Style id="l4FA3E0"><LineStyle><color>e6E0A34F</color><width>3</width></LineStyle><PolyStyle><color>ffE0A34F</color><fill>1</fill><outline>0</outline></PolyStyle></Style>
<Style id="pFF4D4D"><IconStyle><color>ff4D4DFF</color><scale>0.9</scale><Icon><href>http://maps.google.com/mapfiles/kml/shapes/placemark_circle.png</href></Icon></IconStyle><LabelStyle><scale>0.8</scale></LabelStyle></Style>
<Style id="lFF4D4D"><LineStyle><color>e64D4DFF</color><width>3</width></LineStyle><PolyStyle><color>ff4D4DFF</color><fill>1</fill><outline>0</outline></PolyStyle></Style>
<Style id="pC78BE8"><IconStyle><color>ffE88BC7</color><scale>0.9</scale><Icon><href>http://maps.google.com/mapfiles/kml/shapes/placemark_circle.png</href></Icon></IconStyle><LabelStyle><scale>0.8</scale></LabelStyle></Style>
<Style id="lC78BE8"><LineStyle><color>e6E88BC7</color><width>3</width></LineStyle><PolyStyle><color>ffE88BC7</color><fill>1</fill><outline>0</outline></PolyStyle></Style>
<Folder><name>1기 · 약속 (아브라함 → 다윗)</name>
<Placemark><name>1. 아브라함 출생 — 갈대아 우르</name><description>BC 2166년, 데라의 아들 아브람(훗날 아브라함)이 갈대아 우르에서 태어났다. 우르는 달신 '난나'를 섬기던 수메르의 큰 도시였다(수 24:2). (창 11:27-28)</description><styleUrl>#pF2C14E</styleUrl><Point><coordinates>46.10310,30.96260,0</coordinates></Point></Placemark>
<Placemark><name>2. 데라와 함께 하란으로</name><description>BC 2100년경, 아버지 데라가 아브람과 아내 사래, 조카 롯을 데리고 가나안으로 가려고 우르를 떠났으나 하란에 머물러 살다가 그곳에서 죽었다. (창 11:31)</description><styleUrl>#pF2C14E</styleUrl><Point><coordinates>39.03100,36.86500,0</coordinates></Point></Placemark>
<Placemark><name>3. 부르심 — 가나안으로</name><description>BC 2091년, 75세의 아브람이 '너의 고향과 친척과 아버지의 집을 떠나 내가 보여 줄 땅으로 가라'는 부르심을 받고 가나안 세겜의 모레 상수리나무에 이르러 제단을 쌓았다. (창 12:1-6 · 75세)</description><styleUrl>#pF2C14E</styleUrl><Point><coordinates>35.28200,32.21370,0</coordinates></Point></Placemark>
<Placemark><name>4. 기근으로 애굽에 내려감</name><description>BC 2090년경, 가나안에 기근이 들자 아브람이 애굽으로 내려갔고, 아내 사래를 누이라 속였다가 바로의 집에 재앙이 내렸다. (창 12:10)</description><styleUrl>#pF2C14E</styleUrl><Point><coordinates>31.25020,29.84460,0</coordinates></Point></Placemark>
<Placemark><name>5. 애굽에서 올라와 헤브론 마므레에 거주</name><description>BC 2089년경, 아브람이 애굽에서 나와 벧엘로 돌아와 롯과 갈라선 뒤 헤브론 마므레 상수리 숲에 장막을 치고 제단을 쌓았다. (창 13)</description><styleUrl>#pF2C14E</styleUrl><Point><coordinates>35.09980,31.53260,0</coordinates></Point></Placemark>
<Placemark><name>6. 롯을 구하러 단까지 추격</name><description>BC 2085년경, 그돌라오멜 연합군이 소돔을 쳐서 롯을 사로잡아 가자, 아브람이 집에서 길린 318명을 이끌고 단까지 쫓아가 롯과 재물을 되찾았다. (창 14:14)</description><styleUrl>#pF2C14E</styleUrl><Point><coordinates>35.65250,33.24860,0</coordinates></Point></Placemark>
<Placemark><name>6. 멜기세덱 — 살렘 왕, 지극히 높은 하나님의 제사장</name><description>BC 2085년경, 전쟁에서 돌아오는 아브람을 살렘 왕이자 지극히 높으신 하나님의 제사장 멜기세덱이 떡과 포도주로 맞아 축복했고, 아브람은 얻은 것의 십분의 일을 드렸다. 히브리서는 그를 그리스도의 모형으로 본다(히 7). (창 14:18-20; 히 7)</description><styleUrl>#pC78BE8</styleUrl><Point><coordinates>35.23540,31.77810,0</coordinates></Point></Placemark>
<Placemark><name>7. 횃불 언약</name><description>BC 2085년경, 하나님이 아브람에게 하늘의 별처럼 많은 자손과 땅을 약속하시고, 쪼갠 짐승 사이로 연기 나는 화로와 타는 횃불로 홀로 지나가셨다. 이때 후손이 400년 동안 이방에서 종살이할 것도 예고하셨다. (창 15 · 400년 종살이 예고)</description><styleUrl>#pF2C14E</styleUrl><Point><coordinates>35.06662,31.56300,0</coordinates></Point></Placemark>
<Placemark><name>8. 여호와의 사자 — 도망친 하갈을 만남</name><description>BC 2080년, 임신한 하갈이 사래의 학대를 피해 도망하다 술 길 샘물 곁에서 여호와의 사자를 만났다. 하갈은 '나를 살피시는 하나님(엘 로이)'이라 고백하고 돌아가 이스마엘을 낳았다. (창 16:7 · 술 길 샘물)</description><styleUrl>#pC78BE8</styleUrl><Point><coordinates>34.35000,30.85000,0</coordinates></Point></Placemark>
<Placemark><name>9. 이삭 출생</name><description>BC 2066년, 약속하신 지 25년 만에 100세 아브라함과 90세 사라 사이에서 약속의 아들 이삭('웃음')이 태어났다. (창 21 · 브엘세바 부근)</description><styleUrl>#pF2C14E</styleUrl><Point><coordinates>34.84000,31.24500,0</coordinates></Point></Placemark>
<Placemark><name>10. 모리아산 — 이삭을 바침, 여호와의 사자</name><description>BC 2050년경, 하나님이 아브라함에게 이삭을 모리아 땅 한 산에서 번제로 드리라 하셨고, 칼을 든 순간 여호와의 사자가 막아 숫양을 대신 준비하셨다(여호와 이레). 모리아는 훗날 솔로몬 성전 터가 된다(대하 3:1). (창 22 · 모리아 = 훗날 성전 터(대하 3:1))</description><styleUrl>#pC78BE8</styleUrl><Point><coordinates>35.20222,31.80850,0</coordinates></Point></Placemark>
<Placemark><name>11. 야곱, 에서를 피해 하란으로 (벧엘의 꿈)</name><description>BC 1929년경, 장자의 축복을 가로챈 야곱이 형 에서를 피해 외삼촌 라반이 있는 하란으로 도망했고, 가는 길에 벧엘에서 하늘에 닿은 사다리 꿈을 꾸었다. (창 28)</description><styleUrl>#pF2C14E</styleUrl><Point><coordinates>38.99782,36.89540,0</coordinates></Point></Placemark>
<Placemark><name>12. 야곱 귀향 — 브니엘에서 '이스라엘'</name><description>BC 1909년경, 하란에서 20년을 지낸 야곱이 가족과 함께 돌아오다 얍복 강 브니엘에서 밤새 씨름한 끝에 '이스라엘'이라는 새 이름을 받고, 형 에서와 화해했다. (창 32-33)</description><styleUrl>#pF2C14E</styleUrl><Point><coordinates>35.24882,32.24410,0</coordinates></Point></Placemark>
<Placemark><name>13. 유다와 다말 — 베레스·세라 출생</name><description>BC 1900년경, 야곱의 넷째 아들 유다가 아둘람에 머물 때 며느리 다말에게서 쌍둥이 베레스와 세라를 얻었다. 다말은 마태복음 족보에 이름이 오른 첫 여인이다. (창 38 · 족보 첫 여인)</description><styleUrl>#pF2C14E</styleUrl><Point><coordinates>34.99000,31.65000,0</coordinates></Point></Placemark>
<Placemark><name>14. 야곱 가족 70명 애굽 이주 (베레스·헤스론 포함)</name><description>BC 1876년, 총리가 된 요셉의 초청으로 130세 야곱과 가족 70명이 브엘세바에서 제사를 드린 뒤 애굽 고센 땅으로 이주했다. 명단에 유다의 손자 헤스론도 들어 있다(창 46:12). (창 46:12)</description><styleUrl>#pF2C14E</styleUrl><Point><coordinates>31.83400,30.79900,0</coordinates></Point></Placemark>
<Placemark><name>15. 400년 종살이 — 람·아미나답 세대</name><description>BC 1876~1446년, 요셉을 모르는 새 왕이 일어나 이스라엘 자손을 노예로 삼아 국고성 비돔과 라암셋을 짓게 했다. 람과 아미나답이 이 종살이 시대를 살았고, 창 15:13의 400년 예언이 이루어지고 있었다. (출 1 · 창 15:13 성취)</description><styleUrl>#pF2C14E</styleUrl><Point><coordinates>31.80082,30.82940,0</coordinates></Point></Placemark>
<Placemark><name>16. 떨기나무 — 여호와의 사자, 모세를 부르심</name><description>BC 1447년, 미디안 광야에서 양을 치던 80세 모세에게 호렙산 떨기나무 불꽃 가운데 여호와의 사자가 나타나 '나는 스스로 있는 자'라 이름을 알리시고 애굽으로 보내셨다. (출 3)</description><styleUrl>#pC78BE8</styleUrl><Point><coordinates>33.97500,28.53920,0</coordinates></Point></Placemark>
<Placemark><name>17. 출애굽 — 나손 세대</name><description>BC 1446년, 열 가지 재앙과 유월절 후 이스라엘 백성이 라암셋을 떠나 숙곳을 거쳐 홍해를 건너 시내산으로 향했다. 유다 지파 족장 나손이 이 세대이다. (출 12-14 · 홍해 도하 위치는 논쟁 중)</description><styleUrl>#pF2C14E</styleUrl><Point><coordinates>33.94182,28.56960,0</coordinates></Point></Placemark>
<Placemark><name>18. 시내산 언약 · 십계명 — 선지자 모세</name><description>BC 1446년, 출애굽 3개월째 시내산에서 하나님이 모세를 통해 십계명을 주시고 이스라엘과 언약을 맺으셨다. 선지자들은 이 언약을 '신혼 때의 사랑', 곧 결혼으로 회고한다(렘 2:2). (출 19-20)</description><styleUrl>#pC78BE8</styleUrl><Point><coordinates>33.98057,28.47580,0</coordinates></Point></Placemark>
<Placemark><name>19. 광야 40년</name><description>BC 1445~1406년, 가데스 바네아에서 정탐꾼의 부정적 보고를 믿고 원망한 출애굽 1세대가 광야에서 40년을 방황하다 죽고, 모세는 느보산에서 약속의 땅을 바라본 뒤 숨을 거두었다. (민수기)</description><styleUrl>#pF2C14E</styleUrl><Point><coordinates>35.72600,31.76800,0</coordinates></Point></Placemark>
<Placemark><name>20. 가나안 입성 — 여리고, 살몬과 라합</name><description>BC 1406년, 여호수아가 이끄는 이스라엘이 요단강을 건너 여리고를 무너뜨렸다. 정탐꾼을 숨겨 준 기생 라합이 구원받아 유다 지파 살몬과 결혼하고 보아스를 낳는다(마 1:5). (수 2, 6)</description><styleUrl>#pF2C14E</styleUrl><Point><coordinates>35.44400,31.87110,0</coordinates></Point></Placemark>
<Placemark><name>21. 사사 옷니엘</name><description>BC 1373~1334년, 갈렙의 조카 옷니엘이 메소보다미아 왕 구산 리사다임에게서 이스라엘을 구원한 첫 사사가 되어 40년간 평화를 이끌었다. (삿 1:13; 3:9)</description><styleUrl>#pC78BE8</styleUrl><Point><coordinates>34.96700,31.49900,0</coordinates></Point></Placemark>
<Placemark><name>22. 사사 에훗 — 모압 왕 에글론</name><description>BC 1316~1236년, 왼손잡이 에훗이 모압 왕 에글론을 찔러 죽이고 이스라엘을 구원해 80년간 평화가 이어졌다. 모압이 차지했던 '종려나무 성읍' 여리고 일대가 무대이다. (삿 3)</description><styleUrl>#pC78BE8</styleUrl><Point><coordinates>35.41082,31.90150,0</coordinates></Point></Placemark>
<Placemark><name>23. 사사 드보라·바락 — 다볼산</name><description>BC 1216~1176년, 여선지자이자 사사 드보라가 바락과 함께 다볼산에서 가나안 왕 야빈의 군대장관 시스라의 철병거 900대를 물리쳤다. (삿 4-5)</description><styleUrl>#pC78BE8</styleUrl><Point><coordinates>35.39000,32.68700,0</coordinates></Point></Placemark>
<Placemark><name>24. 사사 기드온 — 여호와의 사자가 부름</name><description>BC 1169년, 미디안의 압제로 포도주 틀에 숨어 밀을 타작하던 기드온을 여호와의 사자가 '큰 용사여'라 부르셨고, 기드온은 300명으로 미디안을 이겼다. (삿 6)</description><styleUrl>#pC78BE8</styleUrl><Point><coordinates>35.28900,32.60700,0</coordinates></Point></Placemark>
<Placemark><name>25. 룻이 나오미와 베들레헴으로 — 보아스·오벳</name><description>BC 1140년경, 사사 시대 흉년에 모압으로 갔다가 남편과 두 아들을 잃은 나오미가 며느리 룻과 베들레헴으로 돌아왔고, 룻은 기업 무를 자 보아스와 결혼해 다윗의 할아버지 오벳을 낳았다. (룻 1-4 · 모압 여인)</description><styleUrl>#pF2C14E</styleUrl><Point><coordinates>35.20240,31.70540,0</coordinates></Point></Placemark>
<Placemark><name>26. 제사장·사사 엘리 — 실로 성막</name><description>BC 1107~1067년, 제사장 엘리가 실로 성막에서 40년간 이스라엘을 다스렸으나, 아들 홉니와 비느하스의 죄로 언약궤를 블레셋에 빼앗기고 '이가봇(영광이 떠났다)'의 날을 맞았다. (삼상 1-4)</description><styleUrl>#pC78BE8</styleUrl><Point><coordinates>35.28970,32.05560,0</coordinates></Point></Placemark>
<Placemark><name>27. 여호와의 사자 — 삼손의 부모</name><description>BC 1095년경, 소라의 마노아 아내에게 여호와의 사자가 나타나 블레셋에게서 이스라엘을 구원하기 시작할 나실인 아들 삼손의 출생을 알렸다. (삿 13)</description><styleUrl>#pC78BE8</styleUrl><Point><coordinates>34.98200,31.77600,0</coordinates></Point></Placemark>
<Placemark><name>28. 사사 입다</name><description>BC 1086~1080년, 기생의 아들로 쫓겨났던 길르앗 사람 입다가 사사로 세워져 암몬을 물리쳤으나, 경솔한 서원으로 외동딸을 잃는 비극을 겪었다. (삿 11)</description><styleUrl>#pC78BE8</styleUrl><Point><coordinates>35.80000,32.33000,0</coordinates></Point></Placemark>
<Placemark><name>29. 사사 삼손</name><description>BC 1075~1055년, 나실인 삼손이 20년간 사사로 블레셋과 싸웠고, 들릴라에게 비밀을 누설해 힘을 잃었다가 마지막에 다곤 신전을 무너뜨리며 죽었다. (삿 14-16)</description><styleUrl>#pC78BE8</styleUrl><Point><coordinates>34.94882,31.80640,0</coordinates></Point></Placemark>
<Placemark><name>30. 사무엘(마지막 사사·선지자)이 이새의 아들 다윗에게 기름부음</name><description>BC 1025년경, 마지막 사사이자 선지자 사무엘이 라마에서 베들레헴으로 가서, 사울 대신 이새의 막내아들 소년 다윗에게 기름을 부었다. '사람은 외모를 보거니와 여호와는 중심을 보느니라'(삼상 16:7). (삼상 16)</description><styleUrl>#pC78BE8</styleUrl><Point><coordinates>35.16922,31.73580,0</coordinates></Point></Placemark>
<Placemark><name>31. 다윗 — 헤브론에서 즉위, 예루살렘으로 / 나단의 다윗 언약</name><description>BC 1010년, 다윗이 헤브론에서 유다의 왕이 되고 7년 반 뒤 예루살렘을 정복해 수도로 삼았다. 선지자 나단을 통해 '네 왕위가 영원히 견고하리라'는 다윗 언약을 받았다. (삼하 2, 5, 7)</description><styleUrl>#pF2C14E</styleUrl><Point><coordinates>35.24097,31.71470,0</coordinates></Point></Placemark>
<Placemark><name>2 → 우르 → 하란</name><description>데라와 함께 하란으로</description><styleUrl>#lF2C14E</styleUrl><MultiGeometry><LineString><tessellate>1</tessellate><coordinates>46.10310,30.96260,0 45.81678,31.33834,0 45.52338,31.70560,0 45.22290,32.06437,0 44.91533,32.41465,0 44.60068,32.75644,0 44.27895,33.08975,0 43.95014,33.41458,0 43.61424,33.73091,0 43.27126,34.03876,0 42.92119,34.33813,0 42.56405,34.62900,0 42.19982,34.91139,0 41.82851,35.18530,0 41.45011,35.45071,0 41.06463,35.70764,0 40.67207,35.95609,0 40.27243,36.19605,0 39.86570,36.42752,0 39.45189,36.65050,0 39.03100,36.86500,0</coordinates></LineString><Polygon><outerBoundaryIs><LinearRing><coordinates>39.03100,36.86500,0 39.13929,36.70722,0 39.25505,36.84860,0 39.03100,36.86500,0</coordinates></LinearRing></outerBoundaryIs></Polygon></MultiGeometry></Placemark>
<Placemark><name>3 → 하란 → 세겜</name><description>부르심 — 가나안으로</description><styleUrl>#lF2C14E</styleUrl><MultiGeometry><LineString><tessellate>1</tessellate><coordinates>39.03100,36.86500,0 38.89657,36.58970,0 38.75657,36.31889,0 38.61098,36.05259,0 38.45981,35.79078,0 38.30306,35.53347,0 38.14073,35.28066,0 37.97281,35.03235,0 37.79931,34.78854,0 37.62024,34.54922,0 37.43558,34.31441,0 37.24534,34.08409,0 37.04951,33.85828,0 36.84811,33.63696,0 36.64113,33.42014,0 36.42856,33.20782,0 36.21041,33.00000,0 35.98668,32.79668,0 35.75737,32.59785,0 35.52247,32.40353,0 35.28200,32.21370,0</coordinates></LineString><Polygon><outerBoundaryIs><LinearRing><coordinates>35.28200,32.21370,0 35.48683,32.26236,0 35.34885,32.38458,0 35.28200,32.21370,0</coordinates></LinearRing></outerBoundaryIs></Polygon></MultiGeometry></Placemark>
<Placemark><name>4 → 세겜 → 벧엘 → 애굽(멤피스)</name><description>기근으로 애굽에 내려감</description><styleUrl>#lF2C14E</styleUrl><MultiGeometry><LineString><tessellate>1</tessellate><coordinates>35.28200,32.21370,0 35.27575,32.20020,0 35.26984,32.18663,0 35.26427,32.17299,0 35.25905,32.15928,0 35.25416,32.14549,0 35.24961,32.13163,0 35.24540,32.11770,0 35.24154,32.10369,0 35.23801,32.08962,0 35.23483,32.07547,0 35.23198,32.06125,0 35.22948,32.04695,0 35.22731,32.03259,0 35.22549,32.01815,0 35.22401,32.00364,0 35.22287,31.98906,0 35.22206,31.97440,0 35.22160,31.95967,0 35.22148,31.94487,0 35.22170,31.93000,0 34.99935,31.87101,0 34.77951,31.80724,0 34.56216,31.73872,0 34.34732,31.66543,0 34.13498,31.58737,0 33.92515,31.50454,0 33.71781,31.41695,0 33.51298,31.32460,0 33.31065,31.22748,0 33.11083,31.12559,0 32.91350,31.01894,0 32.71868,30.90752,0 32.52636,30.79133,0 32.33655,30.67038,0 32.14923,30.54467,0 31.96442,30.41419,0 31.78211,30.27894,0 31.60231,30.13892,0 31.42500,29.99415,0 31.25020,29.84460,0</coordinates></LineString><Polygon><outerBoundaryIs><LinearRing><coordinates>31.25020,29.84460,0 31.44974,29.89404,0 31.31453,30.01573,0 31.25020,29.84460,0</coordinates></LinearRing></outerBoundaryIs></Polygon></MultiGeometry></Placemark>
<Placemark><name>5 → 애굽(멤피스) → 헤브론</name><description>애굽에서 올라와 헤브론 마므레에 거주</description><styleUrl>#lF2C14E</styleUrl><MultiGeometry><LineString><tessellate>1</tessellate><coordinates>31.25020,29.84460,0 31.42344,29.97289,0 31.59870,30.09655,0 31.77599,30.21560,0 31.95530,30.33002,0 32.13664,30.43983,0 32.32000,30.54502,0 32.50540,30.64559,0 32.69281,30.74154,0 32.88225,30.83287,0 33.07372,30.91958,0 33.26721,31.00167,0 33.46273,31.07914,0 33.66028,31.15199,0 33.85984,31.22022,0 34.06144,31.28383,0 34.26506,31.34282,0 34.47071,31.39720,0 34.67838,31.44695,0 34.88808,31.49209,0 35.09980,31.53260,0</coordinates></LineString><Polygon><outerBoundaryIs><LinearRing><coordinates>35.09980,31.53260,0 34.89543,31.57794,0 34.94142,31.41354,0 35.09980,31.53260,0</coordinates></LinearRing></outerBoundaryIs></Polygon></MultiGeometry></Placemark>
<Placemark><name>6 → 헤브론 → 단</name><description>롯을 구하러 단까지 추격</description><styleUrl>#lF2C14E</styleUrl><MultiGeometry><LineString><tessellate>1</tessellate><coordinates>35.09980,31.53260,0 35.14700,31.61210,0 35.19214,31.69226,0 35.23521,31.77309,0 35.27623,31.85458,0 35.31520,31.93673,0 35.35210,32.01954,0 35.38694,32.10302,0 35.41972,32.18716,0 35.45045,32.27197,0 35.47911,32.35744,0 35.50572,32.44357,0 35.53026,32.53036,0 35.55275,32.61782,0 35.57318,32.70594,0 35.59155,32.79473,0 35.60785,32.88418,0 35.62210,32.97429,0 35.63430,33.06506,0 35.64443,33.15650,0 35.65250,33.24860,0</coordinates></LineString><Polygon><outerBoundaryIs><LinearRing><coordinates>35.65250,33.24860,0 35.59420,33.17278,0 35.69506,33.16578,0 35.65250,33.24860,0</coordinates></LinearRing></outerBoundaryIs></Polygon></MultiGeometry></Placemark>
<Placemark><name>6 → 단 → 예루살렘</name><description>멜기세덱 — 살렘 왕, 지극히 높은 하나님의 제사장</description><styleUrl>#lC78BE8</styleUrl><MultiGeometry><LineString><tessellate>1</tessellate><coordinates>35.65250,33.24860,0 35.64841,33.17032,0 35.64255,33.09254,0 35.63493,33.01526,0 35.62555,32.93848,0 35.61440,32.86221,0 35.60148,32.78643,0 35.58680,32.71115,0 35.57036,32.63638,0 35.55215,32.56210,0 35.53218,32.48832,0 35.51044,32.41505,0 35.48694,32.34228,0 35.46167,32.27000,0 35.43464,32.19823,0 35.40585,32.12696,0 35.37529,32.05618,0 35.34296,31.98591,0 35.30887,31.91614,0 35.27302,31.84687,0 35.23540,31.77810,0</coordinates></LineString><Polygon><outerBoundaryIs><LinearRing><coordinates>35.23540,31.77810,0 35.30658,31.82479,0 35.22967,31.85437,0 35.23540,31.77810,0</coordinates></LinearRing></outerBoundaryIs></Polygon></MultiGeometry></Placemark>
<Placemark><name>8 → 헤브론 → 술 길 샘</name><description>여호와의 사자 — 도망친 하갈을 만남</description><styleUrl>#lC78BE8</styleUrl><MultiGeometry><LineString><tessellate>1</tessellate><coordinates>35.09980,31.53260,0 35.07009,31.48992,0 35.03956,31.44814,0 35.00822,31.40727,0 34.97605,31.36729,0 34.94307,31.32821,0 34.90926,31.29003,0 34.87464,31.25275,0 34.83920,31.21637,0 34.80294,31.18089,0 34.76586,31.14631,0 34.72796,31.11263,0 34.68924,31.07985,0 34.64970,31.04797,0 34.60934,31.01699,0 34.56817,30.98691,0 34.52617,30.95773,0 34.48336,30.92945,0 34.43972,30.90206,0 34.39527,30.87558,0 34.35000,30.85000,0</coordinates></LineString><Polygon><outerBoundaryIs><LinearRing><coordinates>34.35000,30.85000,0 34.40872,30.85535,0 34.37767,30.89479,0 34.35000,30.85000,0</coordinates></LinearRing></outerBoundaryIs></Polygon></MultiGeometry></Placemark>
<Placemark><name>10 → 브엘세바 → 예루살렘</name><description>모리아산 — 이삭을 바침, 여호와의 사자</description><styleUrl>#lC78BE8</styleUrl><MultiGeometry><LineString><tessellate>1</tessellate><coordinates>34.84000,31.24500,0 34.85369,31.27616,0 34.86803,31.30685,0 34.88300,31.33706,0 34.89861,31.36680,0 34.91486,31.39607,0 34.93175,31.42486,0 34.94928,31.45317,0 34.96745,31.48102,0 34.98626,31.50838,0 35.00571,31.53527,0 35.02580,31.56169,0 35.04653,31.58764,0 35.06790,31.61310,0 35.08991,31.63810,0 35.11256,31.66262,0 35.13585,31.68666,0 35.15978,31.71023,0 35.18435,31.73333,0 35.20955,31.75595,0 35.23540,31.77810,0</coordinates></LineString><Polygon><outerBoundaryIs><LinearRing><coordinates>35.23540,31.77810,0 35.19622,31.76735,0 35.22397,31.74447,0 35.23540,31.77810,0</coordinates></LinearRing></outerBoundaryIs></Polygon></MultiGeometry></Placemark>
<Placemark><name>11 → 브엘세바 → 벧엘 → 하란</name><description>야곱, 에서를 피해 하란으로 (벧엘의 꿈)</description><styleUrl>#lF2C14E</styleUrl><MultiGeometry><LineString><tessellate>1</tessellate><coordinates>34.84000,31.24500,0 34.86689,31.27490,0 34.89297,31.30526,0 34.91822,31.33607,0 34.94264,31.36734,0 34.96625,31.39907,0 34.98903,31.43126,0 35.01100,31.46391,0 35.03214,31.49701,0 35.05245,31.53058,0 35.07195,31.56460,0 35.09062,31.59908,0 35.10848,31.63401,0 35.12551,31.66941,0 35.14171,31.70526,0 35.15710,31.74157,0 35.17166,31.77834,0 35.18541,31.81557,0 35.19833,31.85326,0 35.21042,31.89140,0 35.22170,31.93000,0 35.46842,32.13332,0 35.70923,32.34122,0 35.94411,32.55369,0 36.17306,32.77072,0 36.39610,32.99233,0 36.61321,33.21851,0 36.82441,33.44926,0 37.02968,33.68458,0 37.22902,33.92448,0 37.42245,34.16894,0 37.60995,34.41798,0 37.79154,34.67158,0 37.96720,34.92976,0 38.13693,35.19251,0 38.30075,35.45983,0 38.45864,35.73172,0 38.61062,36.00819,0 38.75667,36.28922,0 38.89679,36.57482,0 39.03100,36.86500,0</coordinates></LineString><Polygon><outerBoundaryIs><LinearRing><coordinates>39.03100,36.86500,0 38.86155,36.74659,0 39.05894,36.68639,0 39.03100,36.86500,0</coordinates></LinearRing></outerBoundaryIs></Polygon></MultiGeometry></Placemark>
<Placemark><name>12 → 하란 → 브니엘(얍복) → 세겜</name><description>야곱 귀향 — 브니엘에서 '이스라엘'</description><styleUrl>#lF2C14E</styleUrl><MultiGeometry><LineString><tessellate>1</tessellate><coordinates>39.03100,36.86500,0 38.91636,36.59243,0 38.79610,36.32390,0 38.67021,36.05940,0 38.53870,35.79894,0 38.40157,35.54250,0 38.25882,35.29011,0 38.11045,35.04174,0 37.95646,34.79741,0 37.79684,34.55711,0 37.63160,34.32084,0 37.46074,34.08861,0 37.28426,33.86041,0 37.10215,33.63624,0 36.91442,33.41611,0 36.72107,33.20001,0 36.52210,32.98794,0 36.31751,32.77990,0 36.10730,32.57590,0 35.89146,32.37593,0 35.67000,32.18000,0 35.65022,32.17726,0 35.63047,32.17499,0 35.61077,32.17318,0 35.59111,32.17184,0 35.57148,32.17097,0 35.55190,32.17055,0 35.53236,32.17061,0 35.51286,32.17113,0 35.49340,32.17212,0 35.47398,32.17357,0 35.45460,32.17549,0 35.43526,32.17787,0 35.41596,32.18072,0 35.39670,32.18403,0 35.37748,32.18782,0 35.35831,32.19206,0 35.33917,32.19677,0 35.32007,32.20195,0 35.30102,32.20759,0 35.28200,32.21370,0</coordinates></LineString><Polygon><outerBoundaryIs><LinearRing><coordinates>35.28200,32.21370,0 35.30966,32.18767,0 35.32297,32.21855,0 35.28200,32.21370,0</coordinates></LinearRing></outerBoundaryIs></Polygon></MultiGeometry></Placemark>
<Placemark><name>14 → 헤브론 → 브엘세바 → 고센(라암셋)</name><description>야곱 가족 70명 애굽 이주 (베레스·헤스론 포함)</description><styleUrl>#lF2C14E</styleUrl><MultiGeometry><LineString><tessellate>1</tessellate><coordinates>35.09980,31.53260,0 35.09009,31.51526,0 35.08003,31.49823,0 35.06963,31.48151,0 35.05888,31.46510,0 35.04779,31.44901,0 35.03636,31.43323,0 35.02457,31.41775,0 35.01245,31.40260,0 34.99997,31.38775,0 34.98716,31.37321,0 34.97399,31.35899,0 34.96049,31.34508,0 34.94663,31.33147,0 34.93244,31.31819,0 34.91789,31.30521,0 34.90300,31.29254,0 34.88777,31.28019,0 34.87219,31.26815,0 34.85627,31.25642,0 34.84000,31.24500,0 34.69478,31.18843,0 34.54903,31.13547,0 34.40275,31.08612,0 34.25593,31.04037,0 34.10857,30.99823,0 33.96068,30.95970,0 33.81225,30.92477,0 33.66329,30.89345,0 33.51379,30.86574,0 33.36376,30.84164,0 33.21319,30.82114,0 33.06209,30.80425,0 32.91045,30.79097,0 32.75828,30.78130,0 32.60557,30.77523,0 32.45233,30.77277,0 32.29855,30.77392,0 32.14423,30.77867,0 31.98938,30.78703,0 31.83400,30.79900,0</coordinates></LineString><Polygon><outerBoundaryIs><LinearRing><coordinates>31.83400,30.79900,0 31.98342,30.71767,0 31.99605,30.85992,0 31.83400,30.79900,0</coordinates></LinearRing></outerBoundaryIs></Polygon></MultiGeometry></Placemark>
<Placemark><name>17 → 고센(라암셋) → 숙곳 → 홍해 → 시내산(호렙)</name><description>출애굽 — 나손 세대</description><styleUrl>#lF2C14E</styleUrl><MultiGeometry><LineString><tessellate>1</tessellate><coordinates>31.83400,30.79900,0 31.84446,30.78373,0 31.85521,30.76878,0 31.86625,30.75414,0 31.87759,30.73982,0 31.88922,30.72582,0 31.90115,30.71214,0 31.91337,30.69878,0 31.92589,30.68574,0 31.93870,30.67301,0 31.95180,30.66060,0 31.96520,30.64851,0 31.97889,30.63674,0 31.99287,30.62528,0 32.00715,30.61414,0 32.02172,30.60332,0 32.03659,30.59282,0 32.05175,30.58264,0 32.06721,30.57278,0 32.08296,30.56323,0 32.09900,30.55400,0 32.11466,30.51866,0 32.13105,30.48386,0 32.14817,30.44960,0 32.16601,30.41588,0 32.18457,30.38270,0 32.20386,30.35007,0 32.22387,30.31798,0 32.24461,30.28642,0 32.26607,30.25541,0 32.28826,30.22494,0 32.31117,30.19501,0 32.33481,30.16562,0 32.35917,30.13678,0 32.38426,30.10847,0 32.41007,30.08071,0 32.43661,30.05348,0 32.46387,30.02680,0 32.49185,30.00066,0 32.52056,29.97506,0 32.55000,29.95000,0 32.60517,29.86321,0 32.66203,29.77814,0 32.72058,29.69477,0 32.78083,29.61312,0 32.84276,29.53317,0 32.90640,29.45494,0 32.97172,29.37841,0 33.03874,29.30360,0 33.10745,29.23050,0 33.17785,29.15910,0 33.24995,29.08942,0 33.32374,29.02144,0 33.39922,28.95518,0 33.47640,28.89062,0 33.55526,28.82777,0 33.63583,28.76664,0 33.71808,28.70721,0 33.80203,28.64950,0 33.88767,28.59350,0 33.97500,28.53920,0</coordinates></LineString><Polygon><outerBoundaryIs><LinearRing><coordinates>33.97500,28.53920,0 33.92492,28.62930,0 33.86197,28.55311,0 33.97500,28.53920,0</coordinates></LinearRing></outerBoundaryIs></Polygon></MultiGeometry></Placemark>
<Placemark><name>19 → 시내산(호렙) → 가데스 바네아 → 느보산</name><description>광야 40년</description><styleUrl>#lF2C14E</styleUrl><MultiGeometry><LineString><tessellate>1</tessellate><coordinates>33.97500,28.53920,0 34.02141,28.63938,0 34.06529,28.74010,0 34.10664,28.84136,0 34.14546,28.94316,0 34.18176,29.04549,0 34.21553,29.14836,0 34.24678,29.25177,0 34.27549,29.35572,0 34.30168,29.46020,0 34.32535,29.56522,0 34.34648,29.67078,0 34.36509,29.77688,0 34.38118,29.88351,0 34.39473,29.99068,0 34.40576,30.09839,0 34.41426,30.20664,0 34.42024,30.31542,0 34.42369,30.42474,0 34.42461,30.53460,0 34.42300,30.64500,0 34.50095,30.68630,0 34.57756,30.72916,0 34.65281,30.77358,0 34.72672,30.81956,0 34.79929,30.86711,0 34.87050,30.91623,0 34.94037,30.96691,0 35.00888,31.01915,0 35.07606,31.07295,0 35.14188,31.12832,0 35.20636,31.18525,0 35.26948,31.24375,0 35.33127,31.30381,0 35.39170,31.36543,0 35.45078,31.42862,0 35.50852,31.49336,0 35.56491,31.55968,0 35.61996,31.62756,0 35.67365,31.69700,0 35.72600,31.76800,0</coordinates></LineString><Polygon><outerBoundaryIs><LinearRing><coordinates>35.72600,31.76800,0 35.63778,31.72591,0 35.71771,31.68228,0 35.72600,31.76800,0</coordinates></LinearRing></outerBoundaryIs></Polygon></MultiGeometry></Placemark>
<Placemark><name>20 → 느보산 → 여리고</name><description>가나안 입성 — 여리고, 살몬과 라합</description><styleUrl>#lF2C14E</styleUrl><MultiGeometry><LineString><tessellate>1</tessellate><coordinates>35.72600,31.76800,0 35.71072,31.76994,0 35.69557,31.77222,0 35.68055,31.77484,0 35.66564,31.77779,0 35.65086,31.78109,0 35.63620,31.78472,0 35.62167,31.78869,0 35.60726,31.79300,0 35.59298,31.79764,0 35.57881,31.80263,0 35.56478,31.80795,0 35.55086,31.81362,0 35.53707,31.81962,0 35.52340,31.82596,0 35.50986,31.83264,0 35.49644,31.83965,0 35.48315,31.84701,0 35.46997,31.85470,0 35.45692,31.86273,0 35.44400,31.87110,0</coordinates></LineString><Polygon><outerBoundaryIs><LinearRing><coordinates>35.44400,31.87110,0 35.46166,31.83947,0 35.48475,31.86585,0 35.44400,31.87110,0</coordinates></LinearRing></outerBoundaryIs></Polygon></MultiGeometry></Placemark>
<Placemark><name>25 → 모압 → 베들레헴</name><description>룻이 나오미와 베들레헴으로 — 보아스·오벳</description><styleUrl>#lF2C14E</styleUrl><MultiGeometry><LineString><tessellate>1</tessellate><coordinates>35.70000,31.18000,0 35.68111,31.21194,0 35.66159,31.24329,0 35.64144,31.27404,0 35.62066,31.30419,0 35.59924,31.33374,0 35.57720,31.36270,0 35.55453,31.39106,0 35.53122,31.41882,0 35.50729,31.44599,0 35.48272,31.47256,0 35.45753,31.49853,0 35.43170,31.52390,0 35.40525,31.54868,0 35.37816,31.57286,0 35.35044,31.59644,0 35.32210,31.61943,0 35.29312,31.64182,0 35.26351,31.66361,0 35.23327,31.68480,0 35.20240,31.70540,0</coordinates></LineString><Polygon><outerBoundaryIs><LinearRing><coordinates>35.20240,31.70540,0 35.21916,31.67215,0 35.24418,31.69862,0 35.20240,31.70540,0</coordinates></LinearRing></outerBoundaryIs></Polygon></MultiGeometry></Placemark>
<Placemark><name>30 → 라마 → 베들레헴</name><description>사무엘(마지막 사사·선지자)이 이새의 아들 다윗에게 기름부음</description><styleUrl>#lC78BE8</styleUrl><MultiGeometry><LineString><tessellate>1</tessellate><coordinates>35.20200,31.85300,0 35.20370,31.84562,0 35.20523,31.83825,0 35.20658,31.83087,0 35.20775,31.82350,0 35.20874,31.81612,0 35.20956,31.80874,0 35.21020,31.80136,0 35.21066,31.79398,0 35.21095,31.78660,0 35.21106,31.77922,0 35.21099,31.77184,0 35.21074,31.76446,0 35.21032,31.75708,0 35.20972,31.74970,0 35.20894,31.74232,0 35.20799,31.73494,0 35.20686,31.72755,0 35.20555,31.72017,0 35.20406,31.71278,0 35.20240,31.70540,0</coordinates></LineString><Polygon><outerBoundaryIs><LinearRing><coordinates>35.20240,31.70540,0 35.22789,31.73288,0 35.18988,31.73874,0 35.20240,31.70540,0</coordinates></LinearRing></outerBoundaryIs></Polygon></MultiGeometry></Placemark>
<Placemark><name>31 → 헤브론 → 예루살렘</name><description>다윗 — 헤브론에서 즉위, 예루살렘으로 / 나단의 다윗 언약</description><styleUrl>#lF2C14E</styleUrl><MultiGeometry><LineString><tessellate>1</tessellate><coordinates>35.09980,31.53260,0 35.10938,31.54333,0 35.11866,31.55422,0 35.12765,31.56528,0 35.13635,31.57649,0 35.14475,31.58787,0 35.15285,31.59942,0 35.16066,31.61112,0 35.16818,31.62299,0 35.17540,31.63502,0 35.18233,31.64721,0 35.18896,31.65957,0 35.19530,31.67209,0 35.20134,31.68477,0 35.20709,31.69762,0 35.21255,31.71062,0 35.21771,31.72379,0 35.22257,31.73713,0 35.22714,31.75062,0 35.23142,31.76428,0 35.23540,31.77810,0</coordinates></LineString><Polygon><outerBoundaryIs><LinearRing><coordinates>35.23540,31.77810,0 35.20768,31.75223,0 35.24513,31.74409,0 35.23540,31.77810,0</coordinates></LinearRing></outerBoundaryIs></Polygon></MultiGeometry></Placemark>
</Folder>
<Folder><name>2기 · 왕국과 몰락 (다윗 → 바벨론 포로)</name>
<Placemark><name>32. 솔로몬 성전 완공 — 하늘에서 불</name><description>BC 959년, 다윗의 아들 솔로몬이 7년 공사 끝에 모리아산에 성전을 완공했다. 봉헌 기도를 마치자 하늘에서 불이 내려 제물을 태우고 여호와의 영광이 성전에 가득했다(대하 7:1). (왕상 8; 대하 7:1)</description><styleUrl>#p4FA3E0</styleUrl><Point><coordinates>35.28282,31.83996,0</coordinates></Point></Placemark>
<Placemark><name>33. 왕국 분열 — 르호보암이 세겜에 갔다가 거절당함</name><description>BC 931년, 솔로몬이 죽은 뒤 아들 르호보암이 세겜에서 왕으로 세워지려 했으나, 멍에를 가볍게 해 달라는 백성의 요구를 '전갈 채찍'으로 거절해 북쪽 10지파가 떨어져 나갔다. (왕상 12:1-19)</description><styleUrl>#p4FA3E0</styleUrl><Point><coordinates>35.28757,32.15030,0</coordinates></Point></Placemark>
<Placemark><name>33. 여로보암 — 벧엘의 금송아지 (남쪽 끝)</name><description>BC 931년, 북이스라엘의 첫 왕 여로보암이 백성이 예루살렘 성전으로 가면 마음이 돌아설까 두려워 남쪽 끝 벧엘에 금송아지를 세우고 '이스라엘아 너희를 애굽에서 인도한 신이라' 했다. (왕상 12:28-29)</description><styleUrl>#p4FA3E0</styleUrl><Point><coordinates>35.22170,31.93000,0</coordinates></Point></Placemark>
<Placemark><name>33. 여로보암 — 단의 금송아지 (북쪽 끝)</name><description>BC 931년, 여로보암이 북쪽 끝 단에도 금송아지를 세우고 레위인이 아닌 제사장과 임의의 절기를 만들었다. 이후 북이스라엘 왕들은 모두 '여로보암의 죄'에서 떠나지 않았다. (왕상 12:29-30)</description><styleUrl>#p4FA3E0</styleUrl><Point><coordinates>35.61932,33.27900,0</coordinates></Point></Placemark>
<Placemark><name>34. 남유다 아비야·아사·여호사밧</name><description>BC 913~848년, 남유다에서 아비야에 이어 아사가 우상을 제거하는 개혁을 했고, 여호사밧은 백성에게 율법을 가르쳤으나 북이스라엘 아합 집안과 혼인 동맹을 맺었다. (왕상 15, 22)</description><styleUrl>#p4FA3E0</styleUrl><Point><coordinates>35.14678,31.76241,0</coordinates></Point></Placemark>
<Placemark><name>35. 엘리야 — 갈멜산 대결</name><description>BC 860년경, 선지자 엘리야가 3년 반의 가뭄 끝에 갈멜산에서 바알 선지자 450명과 대결해, 하늘에서 내린 불로 여호와가 참 하나님이심을 증명했다. (왕상 18)</description><styleUrl>#pC78BE8</styleUrl><Point><coordinates>35.05000,32.67000,0</coordinates></Point></Placemark>
<Placemark><name>36. 엘리야 도피 — 로뎀나무 아래 천사, 호렙산</name><description>BC 860년경, 이세벨의 살해 위협을 피해 도망한 엘리야가 브엘세바 광야 로뎀나무 아래서 죽기를 구했으나 천사가 떡과 물로 먹였고, 40일을 걸어 호렙산에서 세미한 소리로 하나님을 만났다. (왕상 19)</description><styleUrl>#pC78BE8</styleUrl><Point><coordinates>34.02242,28.60106,0</coordinates></Point></Placemark>
<Placemark><name>37. 요람 — 아합의 딸 아달랴와 결혼</name><description>BC 853~841년, 남유다 왕 요람이 아합과 이세벨의 딸 아달랴와 결혼해 바알 숭배가 남유다에까지 들어왔다. 훗날 아달랴는 다윗 왕족을 죽이고 왕위를 빼앗는다. (왕하 8:16-18)</description><styleUrl>#p4FA3E0</styleUrl><Point><coordinates>35.32031,31.72411,0</coordinates></Point></Placemark>
<Placemark><name>37. 엘리사 — 사마리아·도단</name><description>BC 848~797년, 엘리야의 뒤를 이은 엘리사가 사마리아를 중심으로 활동했고, 도단에서 아람 군대에 포위되었을 때 사환의 눈을 열어 산에 가득한 불말과 불병거를 보게 했다(왕하 6). (왕하 2-13)</description><styleUrl>#pC78BE8</styleUrl><Point><coordinates>35.23800,32.41300,0</coordinates></Point></Placemark>
<Placemark><name>38. 요나 — 니느웨로</name><description>BC 785년경, 여로보암 2세 시대의 선지자 요나가 욥바에서 다시스로 도망했다가 큰 물고기 뱃속에서 돌이켜 앗수르의 수도 니느웨에 회개를 외쳤고, 니느웨가 회개했다. (욘 1-4)</description><styleUrl>#pC78BE8</styleUrl><Point><coordinates>43.15200,36.35900,0</coordinates></Point></Placemark>
<Placemark><name>39. 아모스 — 드고아에서 벧엘로</name><description>BC 760년, 드고아의 목자 아모스가 북이스라엘 벧엘에 가서 '정의를 물 같이, 공의를 마르지 않는 강 같이 흐르게 하라'고 외쳤으나 제사장 아마샤에게 쫓겨났다. (암 1:1; 7:10-13)</description><styleUrl>#pC78BE8</styleUrl><Point><coordinates>35.18852,31.96040,0</coordinates></Point></Placemark>
<Placemark><name>39. 호세아 — 북이스라엘</name><description>BC 755~715년, 선지자 호세아가 음란한 아내 고멜을 끝까지 사랑하는 삶으로, 바알을 따라간 북이스라엘을 포기하지 않으시는 하나님의 사랑을 보여 주었다. (호 1)</description><styleUrl>#pC78BE8</styleUrl><Point><coordinates>35.19700,32.27600,0</coordinates></Point></Placemark>
<Placemark><name>40. 이사야 소명 — 웃시야 왕이 죽던 해 (웃시야·요담)</name><description>BC 740년, 웃시야 왕이 죽던 해 이사야가 성전에서 높이 들린 보좌와 스랍들을 보고 '내가 여기 있나이다 나를 보내소서'라고 응답했다. 웃시야의 아들 요담이 뒤를 이었다. (사 6)</description><styleUrl>#pC78BE8</styleUrl><Point><coordinates>35.20676,31.88454,0</coordinates></Point></Placemark>
<Placemark><name>40. 미가 — 모레셋</name><description>BC 735~700년, 모레셋 출신 선지자 미가가 예루살렘의 불의를 책망하며 '베들레헴 에브라다야… 네게서 이스라엘을 다스릴 자가 나오리라'(미 5:2)고 메시아의 탄생지를 예언했다. (미 1:1)</description><styleUrl>#pC78BE8</styleUrl><Point><coordinates>34.89000,31.60000,0</coordinates></Point></Placemark>
<Placemark><name>41. 북이스라엘 멸망 — 앗수르로 포로 (아하스 재위 중)</name><description>BC 722년, 앗수르가 3년 포위 끝에 사마리아를 함락하고 북이스라엘 백성을 하볼 강가 고산과 메대 성읍들로 끌어갔다. 남유다는 아하스 왕 시대였다. (왕하 17:6)</description><styleUrl>#p4FA3E0</styleUrl><Point><coordinates>40.75000,36.50000,0</coordinates></Point></Placemark>
<Placemark><name>42. 산헤립 — 라기스 함락 후 예루살렘 포위 (히스기야)</name><description>BC 701년, 앗수르 왕 산헤립이 유다의 성읍 46개를 치고 라기스를 함락한 뒤 예루살렘을 포위했다. 히스기야 왕은 이사야와 함께 성전에서 기도했다. (왕하 18-19)</description><styleUrl>#p4FA3E0</styleUrl><Point><coordinates>35.18055,31.67243,0</coordinates></Point></Placemark>
<Placemark><name>42. 여호와의 사자 — 앗수르 군대 18만 5천</name><description>BC 701년, 그 밤에 여호와의 사자가 앗수르 진영에서 18만 5천 명을 쳤고, 산헤립은 니느웨로 돌아가 자기 신전에서 아들들에게 죽임을 당했다. (왕하 19:35)</description><styleUrl>#pC78BE8</styleUrl><Point><coordinates>35.35494,31.82180,0</coordinates></Point></Placemark>
<Placemark><name>43. 므낫세 — 바벨론으로 끌려갔다가 회개하고 돌아옴 (아몬)</name><description>BC 697~642년, 히스기야의 아들 므낫세가 55년간 다스리며 성전에 아세라 목상을 세우고 자녀를 불에 태우는 최악의 죄를 지었다. 역대기는 그가 바벨론으로 끌려가 회개하고 돌아왔다고 전한다. 아들 아몬도 악을 행했다. (왕하 21; 대하 33:11-13)</description><styleUrl>#p4FA3E0</styleUrl><Point><coordinates>35.11060,31.82957,0</coordinates></Point></Placemark>
<Placemark><name>44. 나훔 — 니느웨 멸망 예언 / 스바냐</name><description>BC 650~630년, 선지자 나훔이 한때 회개했던 니느웨가 다시 교만해져 멸망할 것을 예언했고(BC 612 성취), 스바냐는 요시야 시대에 '여호와의 날'을 경고했다. (나 1; 습 1)</description><styleUrl>#pC78BE8</styleUrl><Point><coordinates>43.11882,36.38940,0</coordinates></Point></Placemark>
<Placemark><name>45. 예레미야 소명 — 아나돗</name><description>BC 627년, 아나돗 제사장 가문의 청년 예레미야가 '나는 아이라'며 주저했으나, 하나님이 그 입에 말씀을 두시고 40년간 유다의 멸망과 회복을 전하게 하셨다. (렘 1)</description><styleUrl>#pC78BE8</styleUrl><Point><coordinates>35.26400,31.81300,0</coordinates></Point></Placemark>
<Placemark><name>46. 요시야 — 율법책 발견, 대개혁</name><description>BC 622년, 요시야 왕이 성전을 수리하다 발견한 율법책을 듣고 옷을 찢으며 회개한 뒤, 온 나라의 우상을 제거하고 유월절을 성대하게 지켰다. (왕하 22-23)</description><styleUrl>#p4FA3E0</styleUrl><Point><coordinates>35.29576,31.64923,0</coordinates></Point></Placemark>
<Placemark><name>47. 요시야 전사 — 므깃도</name><description>BC 609년, 요시야가 앗수르를 도우러 올라가던 애굽 왕 느고를 므깃도에서 막다가 화살에 맞아 전사했다. 유다의 마지막 선한 왕의 죽음이었다. (왕하 23:29)</description><styleUrl>#p4FA3E0</styleUrl><Point><coordinates>35.18500,32.58500,0</coordinates></Point></Placemark>
<Placemark><name>48. 하박국</name><description>BC 607년경, 선지자 하박국이 '어찌하여 악인이 형통합니까'라고 하나님께 질문했고, '의인은 그의 믿음으로 말미암아 살리라'(합 2:4)는 응답을 받았다. (합 1-3)</description><styleUrl>#pC78BE8</styleUrl><Point><coordinates>35.28001,31.92053,0</coordinates></Point></Placemark>
<Placemark><name>49. 1차 포로 — 다니엘</name><description>BC 605년, 바벨론 느부갓네살이 갈그미스에서 애굽을 이긴 뒤 예루살렘을 쳐서 다니엘과 세 친구 등 왕족과 귀족 청년들을 1차 포로로 끌어갔다. (단 1)</description><styleUrl>#pC78BE8</styleUrl><Point><coordinates>44.42090,32.53640,0</coordinates></Point></Placemark>
<Placemark><name>50. 여고냐(여호야긴)와 에스겔 포로</name><description>BC 597년, 느부갓네살이 예루살렘을 다시 쳐서 18세 왕 여고냐(여호야긴)와 왕족, 용사, 기술자 1만 명을 바벨론으로 끌고 갔다. 제사장 에스겔도 이때 함께 끌려갔다. (왕하 24:12-16)</description><styleUrl>#p4FA3E0</styleUrl><Point><coordinates>44.38772,32.56680,0</coordinates></Point></Placemark>
<Placemark><name>51. 에스겔 — 그발 강가의 환상</name><description>BC 593년, 포로 된 지 5년째 에스겔이 그발 강가에서 하나님의 영광의 보좌 환상을 보고 선지자로 부름받았다. 그는 성전에서 하나님의 영광이 떠나는 모습도 보았다(겔 10). (겔 1:1-3)</description><styleUrl>#pC78BE8</styleUrl><Point><coordinates>45.23000,32.13000,0</coordinates></Point></Placemark>
<Placemark><name>52. ★ 성전 불탐 — 예루살렘 멸망 (10/18 본문)</name><description>BC 586년, 18개월 포위 끝에 바벨론 시위대장 느부사라단이 여호와의 성전과 왕궁과 예루살렘의 모든 집을 불사르고 성벽을 헐었다. 솔로몬 성전이 선 지 약 370년 만이었다. (10/18 설교 본문) (왕하 25:8-10)</description><styleUrl>#pFF4D4D</styleUrl><Point><coordinates>35.10056,31.69988,0</coordinates></Point></Placemark>
<Placemark><name>52. 시드기야 도주 — 여리고에서 잡혀 립나로</name><description>BC 586년, 성벽이 뚫리자 시드기야 왕이 밤에 도망했으나 여리고 평지에서 붙잡혀 립나로 끌려갔고, 눈앞에서 아들들이 죽임을 당한 뒤 두 눈이 뽑혔다. (왕하 25:4-7)</description><styleUrl>#pFF4D4D</styleUrl><Point><coordinates>36.38000,34.48000,0</coordinates></Point></Placemark>
<Placemark><name>52. 백성 포로 — 바벨론으로</name><description>BC 586년, 시드기야와 남은 백성이 쇠사슬에 묶여 바벨론으로 끌려갔다. '이와 같이 유다가 사로잡혀 본토에서 떠났더라'(왕하 25:21). (왕하 25:11, 21)</description><styleUrl>#pFF4D4D</styleUrl><Point><coordinates>44.42647,32.47300,0</coordinates></Point></Placemark>
<Placemark><name>33 → 예루살렘 → 세겜</name><description>왕국 분열 — 르호보암이 세겜에 갔다가 거절당함</description><styleUrl>#l4FA3E0</styleUrl><MultiGeometry><LineString><tessellate>1</tessellate><coordinates>35.23540,31.77810,0 35.24270,31.79935,0 35.24947,31.82065,0 35.25572,31.84201,0 35.26145,31.86343,0 35.26665,31.88490,0 35.27133,31.90643,0 35.27549,31.92802,0 35.27913,31.94966,0 35.28224,31.97135,0 35.28484,31.99310,0 35.28690,32.01491,0 35.28845,32.03678,0 35.28947,32.05870,0 35.28997,32.08067,0 35.28995,32.10270,0 35.28941,32.12479,0 35.28834,32.14693,0 35.28675,32.16913,0 35.28464,32.19139,0 35.28200,32.21370,0</coordinates></LineString><Polygon><outerBoundaryIs><LinearRing><coordinates>35.28200,32.21370,0 35.26594,32.18145,0 35.30462,32.18440,0 35.28200,32.21370,0</coordinates></LinearRing></outerBoundaryIs></Polygon></MultiGeometry></Placemark>
<Placemark><name>33 → 세겜 → 벧엘</name><description>여로보암 — 벧엘의 금송아지 (남쪽 끝)</description><styleUrl>#l4FA3E0</styleUrl><MultiGeometry><LineString><tessellate>1</tessellate><coordinates>35.28200,32.21370,0 35.28222,32.19883,0 35.28210,32.18403,0 35.28164,32.16930,0 35.28083,32.15464,0 35.27969,32.14006,0 35.27821,32.12555,0 35.27639,32.11111,0 35.27422,32.09675,0 35.27172,32.08245,0 35.26887,32.06823,0 35.26569,32.05408,0 35.26216,32.04001,0 35.25830,32.02600,0 35.25409,32.01207,0 35.24954,31.99821,0 35.24465,31.98442,0 35.23943,31.97071,0 35.23386,31.95707,0 35.22795,31.94350,0 35.22170,31.93000,0</coordinates></LineString><Polygon><outerBoundaryIs><LinearRing><coordinates>35.22170,31.93000,0 35.25276,31.95302,0 35.21658,31.96473,0 35.22170,31.93000,0</coordinates></LinearRing></outerBoundaryIs></Polygon></MultiGeometry></Placemark>
<Placemark><name>33 → 세겜 → 단</name><description>여로보암 — 단의 금송아지 (북쪽 끝)</description><styleUrl>#l4FA3E0</styleUrl><MultiGeometry><LineString><tessellate>1</tessellate><coordinates>35.28200,32.21370,0 35.31232,32.26122,0 35.34140,32.30919,0 35.36924,32.35760,0 35.39584,32.40645,0 35.42120,32.45575,0 35.44531,32.50550,0 35.46818,32.55569,0 35.48981,32.60632,0 35.51020,32.65740,0 35.52934,32.70892,0 35.54725,32.76089,0 35.56391,32.81330,0 35.57933,32.86616,0 35.59351,32.91946,0 35.60645,32.97320,0 35.61814,33.02739,0 35.62859,33.08203,0 35.63780,33.13711,0 35.64577,33.19263,0 35.65250,33.24860,0</coordinates></LineString><Polygon><outerBoundaryIs><LinearRing><coordinates>35.65250,33.24860,0 35.61547,33.20319,0 35.67681,33.19754,0 35.65250,33.24860,0</coordinates></LinearRing></outerBoundaryIs></Polygon></MultiGeometry></Placemark>
<Placemark><name>36 → 갈멜산 → 브엘세바 → 시내산(호렙)</name><description>엘리야 도피 — 로뎀나무 아래 천사, 호렙산</description><styleUrl>#lC78BE8</styleUrl><MultiGeometry><LineString><tessellate>1</tessellate><coordinates>35.05000,32.67000,0 35.05574,32.59636,0 35.05978,32.52296,0 35.06211,32.44982,0 35.06272,32.37694,0 35.06162,32.30430,0 35.05882,32.23192,0 35.05430,32.15978,0 35.04808,32.08790,0 35.04015,32.01628,0 35.03050,31.94490,0 35.01915,31.87378,0 35.00608,31.80290,0 34.99130,31.73228,0 34.97482,31.66192,0 34.95663,31.59180,0 34.93672,31.52194,0 34.91510,31.45232,0 34.89178,31.38296,0 34.86675,31.31386,0 34.84000,31.24500,0 34.82760,31.09985,0 34.81195,30.95574,0 34.79305,30.81266,0 34.77090,30.67062,0 34.74551,30.52962,0 34.71687,30.38966,0 34.68499,30.25074,0 34.64985,30.11286,0 34.61147,29.97601,0 34.56985,29.84020,0 34.52497,29.70543,0 34.47685,29.57170,0 34.42549,29.43900,0 34.37087,29.30734,0 34.31301,29.17673,0 34.25190,29.04714,0 34.18755,28.91860,0 34.11995,28.79110,0 34.04910,28.66463,0 33.97500,28.53920,0</coordinates></LineString><Polygon><outerBoundaryIs><LinearRing><coordinates>33.97500,28.53920,0 34.10714,28.62104,0 33.97166,28.68120,0 33.97500,28.53920,0</coordinates></LinearRing></outerBoundaryIs></Polygon></MultiGeometry></Placemark>
<Placemark><name>37 → 사마리아 → 도단</name><description>엘리사 — 사마리아·도단</description><styleUrl>#lC78BE8</styleUrl><MultiGeometry><LineString><tessellate>1</tessellate><coordinates>35.19700,32.27600,0 35.19749,32.28332,0 35.19814,32.29059,0 35.19896,32.29780,0 35.19994,32.30497,0 35.20109,32.31209,0 35.20240,32.31917,0 35.20387,32.32619,0 35.20551,32.33316,0 35.20731,32.34009,0 35.20928,32.34696,0 35.21141,32.35379,0 35.21371,32.36056,0 35.21617,32.36729,0 35.21880,32.37397,0 35.22159,32.38059,0 35.22454,32.38717,0 35.22766,32.39370,0 35.23094,32.40019,0 35.23439,32.40662,0 35.23800,32.41300,0</coordinates></LineString><Polygon><outerBoundaryIs><LinearRing><coordinates>35.23800,32.41300,0 35.20491,32.39191,0 35.24021,32.37805,0 35.23800,32.41300,0</coordinates></LinearRing></outerBoundaryIs></Polygon></MultiGeometry></Placemark>
<Placemark><name>38 → 욥바 → 니느웨</name><description>요나 — 니느웨로</description><styleUrl>#lC78BE8</styleUrl><MultiGeometry><LineString><tessellate>1</tessellate><coordinates>34.75200,32.05300,0 35.22109,32.17254,0 35.68501,32.30216,0 36.14376,32.44186,0 36.59735,32.59164,0 37.04577,32.75150,0 37.48902,32.92144,0 37.92711,33.10146,0 38.36003,33.29156,0 38.78778,33.49174,0 39.21036,33.70200,0 39.62778,33.92234,0 40.04003,34.15276,0 40.44711,34.39326,0 40.84902,34.64384,0 41.24577,34.90450,0 41.63735,35.17524,0 42.02376,35.45606,0 42.40501,35.74696,0 42.78109,36.04794,0 43.15200,36.35900,0</coordinates></LineString><Polygon><outerBoundaryIs><LinearRing><coordinates>43.15200,36.35900,0 42.93882,36.30489,0 43.08850,36.18642,0 43.15200,36.35900,0</coordinates></LinearRing></outerBoundaryIs></Polygon></MultiGeometry></Placemark>
<Placemark><name>39 → 드고아 → 벧엘</name><description>아모스 — 드고아에서 벧엘로</description><styleUrl>#lC78BE8</styleUrl><MultiGeometry><LineString><tessellate>1</tessellate><coordinates>35.22600,31.61400,0 35.22218,31.62975,0 35.21874,31.64551,0 35.21569,31.66127,0 35.21301,31.67703,0 35.21071,31.69281,0 35.20878,31.70858,0 35.20724,31.72437,0 35.20608,31.74015,0 35.20529,31.75594,0 35.20489,31.77174,0 35.20486,31.78754,0 35.20522,31.80335,0 35.20595,31.81917,0 35.20706,31.83498,0 35.20855,31.85081,0 35.21043,31.86663,0 35.21268,31.88247,0 35.21530,31.89831,0 35.21831,31.91415,0 35.22170,31.93000,0</coordinates></LineString><Polygon><outerBoundaryIs><LinearRing><coordinates>35.22170,31.93000,0 35.19647,31.90231,0 35.23464,31.89677,0 35.22170,31.93000,0</coordinates></LinearRing></outerBoundaryIs></Polygon></MultiGeometry></Placemark>
<Placemark><name>41 → 사마리아 → 하볼 강(고산)</name><description>북이스라엘 멸망 — 앗수르로 포로 (아하스 재위 중)</description><styleUrl>#l4FA3E0</styleUrl><MultiGeometry><LineString><tessellate>1</tessellate><coordinates>35.19700,32.27600,0 35.42650,32.55050,0 35.66106,32.81834,0 35.90070,33.07952,0 36.14540,33.33404,0 36.39517,33.58188,0 36.65001,33.82307,0 36.90992,34.05759,0 37.17490,34.28545,0 37.44494,34.50665,0 37.72006,34.72118,0 38.00024,34.92905,0 38.28550,35.13025,0 38.57582,35.32479,0 38.87121,35.51267,0 39.17167,35.69389,0 39.47720,35.86844,0 39.78780,36.03632,0 40.10346,36.19754,0 40.42420,36.35210,0 40.75000,36.50000,0</coordinates></LineString><Polygon><outerBoundaryIs><LinearRing><coordinates>40.75000,36.50000,0 40.52624,36.49310,0 40.63200,36.34702,0 40.75000,36.50000,0</coordinates></LinearRing></outerBoundaryIs></Polygon></MultiGeometry></Placemark>
<Placemark><name>42 → 니느웨 → 라기스 → 예루살렘</name><description>산헤립 — 라기스 함락 후 예루살렘 포위 (히스기야)</description><styleUrl>#l4FA3E0</styleUrl><MultiGeometry><LineString><tessellate>1</tessellate><coordinates>43.15200,36.35900,0 42.68220,36.21395,0 42.21815,36.05894,0 41.75985,35.89397,0 41.30731,35.71904,0 40.86052,35.53414,0 40.41948,35.33927,0 39.98420,35.13444,0 39.55467,34.91965,0 39.13089,34.69490,0 38.71286,34.46018,0 38.30059,34.21550,0 37.89407,33.96085,0 37.49330,33.69624,0 37.09828,33.42167,0 36.70902,33.13714,0 36.32551,32.84264,0 35.94775,32.53817,0 35.57575,32.22374,0 35.20950,31.89935,0 34.84900,31.56500,0 34.87075,31.57125,0 34.89224,31.57796,0 34.91348,31.58514,0 34.93446,31.59278,0 34.95519,31.60089,0 34.97566,31.60946,0 34.99588,31.61849,0 35.01583,31.62798,0 35.03554,31.63794,0 35.05499,31.64837,0 35.07418,31.65925,0 35.09311,31.67060,0 35.11180,31.68242,0 35.13022,31.69470,0 35.14839,31.70744,0 35.16630,31.72064,0 35.18396,31.73431,0 35.20136,31.74844,0 35.21851,31.76304,0 35.23540,31.77810,0</coordinates></LineString><Polygon><outerBoundaryIs><LinearRing><coordinates>35.23540,31.77810,0 35.19618,31.76746,0 35.22385,31.74451,0 35.23540,31.77810,0</coordinates></LinearRing></outerBoundaryIs></Polygon></MultiGeometry></Placemark>
<Placemark><name>43 → 예루살렘 → 바벨론 → 예루살렘</name><description>므낫세 — 바벨론으로 끌려갔다가 회개하고 돌아옴 (아몬)</description><styleUrl>#l4FA3E0</styleUrl><MultiGeometry><LineString><tessellate>1</tessellate><coordinates>35.23540,31.77810,0 35.70332,31.71130,0 36.17033,31.65552,0 36.63643,31.61077,0 37.10162,31.57704,0 37.56590,31.55433,0 38.02927,31.54264,0 38.49173,31.54198,0 38.95328,31.55234,0 39.41392,31.57372,0 39.87365,31.60612,0 40.33247,31.64955,0 40.79038,31.70400,0 41.24738,31.76947,0 41.70347,31.84596,0 42.15865,31.93348,0 42.61292,32.03202,0 43.06628,32.14158,0 43.51873,32.26216,0 43.97027,32.39377,0 44.42090,32.53640,0 43.95298,32.60320,0 43.48597,32.65898,0 43.01987,32.70373,0 42.55468,32.73746,0 42.09040,32.76017,0 41.62703,32.77186,0 41.16457,32.77252,0 40.70302,32.76216,0 40.24238,32.74078,0 39.78265,32.70838,0 39.32383,32.66495,0 38.86592,32.61050,0 38.40892,32.54503,0 37.95283,32.46854,0 37.49765,32.38102,0 37.04338,32.28248,0 36.59002,32.17292,0 36.13757,32.05234,0 35.68603,31.92073,0 35.23540,31.77810,0</coordinates></LineString><Polygon><outerBoundaryIs><LinearRing><coordinates>35.23540,31.77810,0 35.44491,31.75204,0 35.37797,31.91118,0 35.23540,31.77810,0</coordinates></LinearRing></outerBoundaryIs></Polygon></MultiGeometry></Placemark>
<Placemark><name>47 → 예루살렘 → 므깃도</name><description>요시야 전사 — 므깃도</description><styleUrl>#l4FA3E0</styleUrl><MultiGeometry><LineString><tessellate>1</tessellate><coordinates>35.23540,31.77810,0 35.24208,31.81902,0 35.24779,31.85988,0 35.25253,31.90068,0 35.25630,31.94142,0 35.25911,31.98209,0 35.26095,32.02271,0 35.26182,32.06327,0 35.26172,32.10376,0 35.26065,32.14420,0 35.25861,32.18457,0 35.25561,32.22489,0 35.25164,32.26514,0 35.24670,32.30534,0 35.24079,32.34547,0 35.23391,32.38554,0 35.22606,32.42556,0 35.21725,32.46551,0 35.20747,32.50540,0 35.19672,32.54523,0 35.18500,32.58500,0</coordinates></LineString><Polygon><outerBoundaryIs><LinearRing><coordinates>35.18500,32.58500,0 35.17289,32.54589,0 35.21671,32.55467,0 35.18500,32.58500,0</coordinates></LinearRing></outerBoundaryIs></Polygon></MultiGeometry></Placemark>
<Placemark><name>49 → 예루살렘 → 바벨론</name><description>1차 포로 — 다니엘</description><styleUrl>#lC78BE8</styleUrl><MultiGeometry><LineString><tessellate>1</tessellate><coordinates>35.23540,31.77810,0 35.70332,31.71130,0 36.17033,31.65552,0 36.63643,31.61077,0 37.10162,31.57704,0 37.56590,31.55433,0 38.02927,31.54264,0 38.49173,31.54198,0 38.95328,31.55234,0 39.41392,31.57372,0 39.87365,31.60612,0 40.33247,31.64955,0 40.79038,31.70400,0 41.24738,31.76947,0 41.70347,31.84596,0 42.15865,31.93348,0 42.61292,32.03202,0 43.06628,32.14158,0 43.51873,32.26216,0 43.97027,32.39377,0 44.42090,32.53640,0</coordinates></LineString><Polygon><outerBoundaryIs><LinearRing><coordinates>44.42090,32.53640,0 44.20956,32.56199,0 44.27756,32.40300,0 44.42090,32.53640,0</coordinates></LinearRing></outerBoundaryIs></Polygon></MultiGeometry></Placemark>
<Placemark><name>50 → 예루살렘 → 바벨론</name><description>여고냐(여호야긴)와 에스겔 포로</description><styleUrl>#l4FA3E0</styleUrl><MultiGeometry><LineString><tessellate>1</tessellate><coordinates>35.23540,31.77810,0 35.68603,31.92073,0 36.13757,32.05234,0 36.59002,32.17292,0 37.04338,32.28248,0 37.49765,32.38102,0 37.95283,32.46854,0 38.40892,32.54503,0 38.86592,32.61050,0 39.32383,32.66495,0 39.78265,32.70838,0 40.24238,32.74078,0 40.70302,32.76216,0 41.16457,32.77252,0 41.62703,32.77186,0 42.09040,32.76017,0 42.55468,32.73746,0 43.01987,32.70373,0 43.48597,32.65898,0 43.95298,32.60320,0 44.42090,32.53640,0</coordinates></LineString><Polygon><outerBoundaryIs><LinearRing><coordinates>44.42090,32.53640,0 44.25002,32.64432,0 44.21922,32.47732,0 44.42090,32.53640,0</coordinates></LinearRing></outerBoundaryIs></Polygon></MultiGeometry></Placemark>
<Placemark><name>51 → 바벨론 → 그발 강(델아빕)</name><description>에스겔 — 그발 강가의 환상</description><styleUrl>#lC78BE8</styleUrl><MultiGeometry><LineString><tessellate>1</tessellate><coordinates>44.42090,32.53640,0 44.45672,32.50686,0 44.49303,32.47828,0 44.52983,32.45068,0 44.56711,32.42405,0 44.60489,32.39839,0 44.64315,32.37370,0 44.68190,32.34998,0 44.72113,32.32724,0 44.76085,32.30546,0 44.80107,32.28465,0 44.84176,32.26482,0 44.88295,32.24596,0 44.92463,32.22806,0 44.96679,32.21114,0 45.00944,32.19519,0 45.05257,32.18021,0 45.09620,32.16620,0 45.14031,32.15316,0 45.18491,32.14110,0 45.23000,32.13000,0</coordinates></LineString><Polygon><outerBoundaryIs><LinearRing><coordinates>45.23000,32.13000,0 45.19217,32.16199,0 45.17753,32.12133,0 45.23000,32.13000,0</coordinates></LinearRing></outerBoundaryIs></Polygon></MultiGeometry></Placemark>
<Placemark><name>52 → 예루살렘 → 여리고 → 립나</name><description>시드기야 도주 — 여리고에서 잡혀 립나로</description><styleUrl>#lFF4D4D</styleUrl><MultiGeometry><LineString><tessellate>1</tessellate><coordinates>35.23540,31.77810,0 35.24689,31.78037,0 35.25827,31.78289,0 35.26954,31.78567,0 35.28069,31.78869,0 35.29173,31.79196,0 35.30267,31.79549,0 35.31349,31.79926,0 35.32420,31.80328,0 35.33479,31.80756,0 35.34528,31.81208,0 35.35565,31.81686,0 35.36592,31.82188,0 35.37607,31.82716,0 35.38611,31.83269,0 35.39603,31.83846,0 35.40585,31.84449,0 35.41556,31.85077,0 35.42515,31.85729,0 35.43463,31.86407,0 35.44400,31.87110,0 35.52054,31.99087,0 35.59395,32.11177,0 35.66423,32.23379,0 35.73138,32.35694,0 35.79540,32.48121,0 35.85629,32.60660,0 35.91405,32.73311,0 35.96867,32.86075,0 36.02017,32.98951,0 36.06853,33.11939,0 36.11377,33.25040,0 36.15587,33.38253,0 36.19485,33.51578,0 36.23069,33.65016,0 36.26340,33.78566,0 36.29298,33.92228,0 36.31943,34.06002,0 36.34275,34.19889,0 36.36294,34.33888,0 36.38000,34.48000,0</coordinates></LineString><Polygon><outerBoundaryIs><LinearRing><coordinates>36.38000,34.48000,0 36.28542,34.36542,0 36.44234,34.35129,0 36.38000,34.48000,0</coordinates></LinearRing></outerBoundaryIs></Polygon></MultiGeometry></Placemark>
<Placemark><name>52 → 립나 → 바벨론</name><description>백성 포로 — 바벨론으로</description><styleUrl>#lFF4D4D</styleUrl><MultiGeometry><LineString><tessellate>1</tessellate><coordinates>36.38000,34.48000,0 36.80420,34.47449,0 37.22607,34.45932,0 37.64561,34.43451,0 38.06281,34.40005,0 38.47769,34.35594,0 38.89023,34.30218,0 39.30044,34.23877,0 39.70831,34.16572,0 40.11385,34.08301,0 40.51707,33.99065,0 40.91794,33.88865,0 41.31649,33.77700,0 41.71271,33.65569,0 42.10659,33.52474,0 42.49814,33.38414,0 42.88735,33.23389,0 43.27424,33.07399,0 43.65879,32.90444,0 44.04101,32.72525,0 44.42090,32.53640,0</coordinates></LineString><Polygon><outerBoundaryIs><LinearRing><coordinates>44.42090,32.53640,0 44.30714,32.68872,0 44.20750,32.54207,0 44.42090,32.53640,0</coordinates></LinearRing></outerBoundaryIs></Polygon></MultiGeometry></Placemark>
</Folder>
<Folder><name>3기 · 회복 (포로 → 그리스도)</name>
<Placemark><name>53. 예레미야 — 애굽 다바네스로 끌려감</name><description>BC 582년경, 총독 그달리야가 암살된 뒤 바벨론의 보복을 두려워한 유다의 남은 무리가 예레미야의 경고를 무시하고 그를 강제로 데리고 애굽 다바네스로 내려갔다. (렘 43:7)</description><styleUrl>#pC78BE8</styleUrl><Point><coordinates>32.20000,30.97200,0</coordinates></Point></Placemark>
<Placemark><name>54. 여고냐 석방 — 왕의 식탁 (스알디엘 출생은 포로기)</name><description>BC 561년, 바벨론 왕 에윌므로닥이 즉위하던 해, 포로 37년째인 여고냐를 감옥에서 풀어 주고 평생 왕의 식탁에서 먹게 했다. 그의 아들 스알디엘은 포로기에 바벨론에서 태어났다. (왕하 25:27-30)</description><styleUrl>#p5CC98A</styleUrl><Point><coordinates>44.46832,32.59826,0</coordinates></Point></Placemark>
<Placemark><name>55. 가브리엘 — 다니엘에게 환상 해석 (수산 환상)</name><description>BC 551~539년, 천사 가브리엘이 수산 성 환상과 70이레 예언을 다니엘에게 해석해 주었다. '기름 부음을 받은 자'가 올 때까지의 시간표가 담겨 있다(단 9:24-27). (단 8:2, 16; 9:21)</description><styleUrl>#pC78BE8</styleUrl><Point><coordinates>48.25800,32.18900,0</coordinates></Point></Placemark>
<Placemark><name>56. 고레스 — 바벨론 정복, 귀환 칙령(538)</name><description>BC 539년, 페르시아 왕 고레스가 바벨론을 점령하고, 이듬해 '여호와의 성전을 건축하라'며 유다 포로들의 귀환을 명령했다. 이사야가 약 150년 전에 그 이름까지 예언했다(사 45:1). (스 1:1-4; 사 45:1)</description><styleUrl>#p9A9A9A</styleUrl><Point><coordinates>44.33228,32.52071,0</coordinates></Point></Placemark>
<Placemark><name>57. 미가엘 — 힛데겔 강가의 다니엘</name><description>BC 536년, 고레스 3년에 다니엘이 21일 동안 금식하며 기도할 때, 힛데겔 강가에서 천사가 나타나 '너희 군주 미가엘'이 바사 군주와 싸우며 자신을 도왔다고 알려 주었다. (단 10:4, 13, 21)</description><styleUrl>#pC78BE8</styleUrl><Point><coordinates>44.40000,33.30000,0</coordinates></Point></Placemark>
<Placemark><name>58. 1차 귀환 — 스룹바벨·예수아</name><description>BC 538년, 여고냐의 손자 스룹바벨과 대제사장 예수아가 약 5만 명을 이끌고 바벨론에서 예루살렘으로 1차 귀환해 제단을 쌓고 성전 기초를 놓았다. (스 1-2)</description><styleUrl>#p5CC98A</styleUrl><Point><coordinates>35.39388,31.74334,0</coordinates></Point></Placemark>
<Placemark><name>59. 학개·스가랴 — 성전 재건 완공(516)</name><description>BC 520~516년, 방해로 멈췄던 성전 공사를 선지자 학개와 스가랴가 다시 일으켜, 다리오 왕 6년(BC 516)에 제2성전이 완공되었다. 성전이 불탄 지 약 70년 만이었다. (스 5-6; 학 1-2)</description><styleUrl>#pC78BE8</styleUrl><Point><coordinates>35.13849,31.91579,0</coordinates></Point></Placemark>
<Placemark><name>60. 에스더·모르드개 — 수산 궁 (아비훗 세대 추정)</name><description>BC 486~465년, 페르시아 왕 아하수에로 때 수산 궁에서 왕비가 된 에스더와 사촌 모르드개가 하만의 유대인 학살 음모를 막아 냈다. 모르드개 집안은 여고냐와 함께 끌려간 사람들이었다(에 2:6). (에 2:5-6)</description><styleUrl>#p5CC98A</styleUrl><Point><coordinates>48.22482,32.21940,0</coordinates></Point></Placemark>
<Placemark><name>61. 에스라 귀환</name><description>BC 458년, 제사장이자 학사 에스라가 아닥사스다 왕의 허락을 받아 2차 귀환을 이끌고 예루살렘에 와서 율법을 가르치고 이방 혼인을 회개시켰다. (스 7-8)</description><styleUrl>#p5CC98A</styleUrl><Point><coordinates>35.21310,31.60525,0</coordinates></Point></Placemark>
<Placemark><name>62. 느헤미야 — 수산에서 예루살렘으로, 성벽 52일</name><description>BC 445년, 수산 궁에서 왕의 술 맡은 관원이던 느헤미야가 예루살렘 성벽이 무너졌다는 소식에 울며 기도한 뒤 총독으로 가서 52일 만에 성벽을 재건했다. (느 1-2, 6:15)</description><styleUrl>#p5CC98A</styleUrl><Point><coordinates>35.37297,31.89418,0</coordinates></Point></Placemark>
<Placemark><name>63. 말라기 — 구약 마지막 선지자</name><description>BC 430년경, 구약의 마지막 선지자 말라기가 형식적인 예배를 책망하며 '내 사자를 보내리니 그가 내 앞에서 길을 준비할 것이요'(말 3:1)라고 예언했다. 이후 약 400년간 선지자가 없었다. (말 3:1; 4:5)</description><styleUrl>#pC78BE8</styleUrl><Point><coordinates>35.05001,31.78565,0</coordinates></Point></Placemark>
<Placemark><name>64. 알렉산더 대왕 — 동방 원정 (사독 세대 추정)</name><description>BC 334~332년, 마케도니아의 알렉산더 대왕이 페르시아를 무너뜨리고 두로를 함락한 뒤 애굽에 알렉산드리아를 세웠다(요세푸스는 그가 예루살렘에 들렀다고 전함). 이후 헬라어가 세계 공용어가 된다. (단 8:5-8 해석 참고)</description><styleUrl>#p9A9A9A</styleUrl><Point><coordinates>29.91870,31.20010,0</coordinates></Point></Placemark>
<Placemark><name>65. 프톨레미 왕조 — 알렉산드리아에서 70인역 번역 (엘리웃 세대 추정)</name><description>BC 3세기, 알렉산더 사후 애굽을 차지한 프톨레미 왕조 아래 알렉산드리아에서 구약성경이 헬라어로 번역되었다(70인역). 신약 저자들이 자주 인용한 번역본이다. (성경 밖 역사)</description><styleUrl>#p9A9A9A</styleUrl><Point><coordinates>29.88552,31.23050,0</coordinates></Point></Placemark>
<Placemark><name>66. 안티오쿠스 4세 — 성전 모독 (엘르아살 세대 추정)</name><description>BC 167년, 시리아 셀류시드 왕 안티오쿠스 4세 에피파네스가 예루살렘 성전에 제우스 제단을 세우고 부정한 제물을 바쳐 성전을 더럽히고 율법을 금지했다. (단 11:31 해석 참고)</description><styleUrl>#p9A9A9A</styleUrl><Point><coordinates>35.37082,31.64352,0</coordinates></Point></Placemark>
<Placemark><name>67. 마카비 — 성전 정화, 수전절(하누카)</name><description>BC 164년, 모데인의 제사장 맛디아의 아들 유다 마카비가 예루살렘을 되찾아 성전을 정결하게 하고 다시 봉헌했다. 이것이 수전절(하누카)의 기원이다(요 10:22). (요 10:22)</description><styleUrl>#p9A9A9A</styleUrl><Point><coordinates>35.22620,31.97403,0</coordinates></Point></Placemark>
<Placemark><name>68. 로마 폼페이우스 — 예루살렘 점령 (야곱 세대 추정)</name><description>BC 63년, 로마 장군 폼페이우스가 하스몬 왕조의 내분을 틈타 예루살렘을 점령하고 지성소에까지 들어갔다. 이때부터 유대는 로마의 지배를 받는다. (성경 밖 역사)</description><styleUrl>#p9A9A9A</styleUrl><Point><coordinates>35.10657,31.62349,0</coordinates></Point></Placemark>
<Placemark><name>69. 헤롯 대왕 — 성전 증축 (요셉 세대)</name><description>BC 37~4년, 로마가 세운 에돔 출신 헤롯 대왕이 BC 20년경부터 성전을 대대적으로 증축했다. 예수님 시대의 '46년 동안 지은 성전'이 바로 이것이다(요 2:20). (요 2:20)</description><styleUrl>#p5CC98A</styleUrl><Point><coordinates>35.43975,31.80576,0</coordinates></Point></Placemark>
<Placemark><name>70. 가브리엘 — 성전의 사가랴에게</name><description>BC 7년경, 성전에서 분향하던 제사장 사가랴에게 천사 가브리엘이 나타나, 늙은 아내 엘리사벳이 엘리야의 심령으로 주의 길을 예비할 아들 요한을 낳을 것이라 알렸다. (눅 1:11-19)</description><styleUrl>#pC78BE8</styleUrl><Point><coordinates>35.06205,31.89851,0</coordinates></Point></Placemark>
<Placemark><name>71. 가브리엘 — 나사렛의 마리아에게</name><description>BC 6년경, 천사 가브리엘이 갈릴리 나사렛의 처녀 마리아에게 나타나 '성령이 네게 임하시고… 나실 바 거룩한 이는 하나님의 아들이라'며 예수님의 잉태를 알렸다. (눅 1:26-38)</description><styleUrl>#pC78BE8</styleUrl><Point><coordinates>35.30350,32.69960,0</coordinates></Point></Placemark>
<Placemark><name>72. 요셉과 마리아, 베들레헴으로 — 예수 탄생</name><description>BC 6~4년, 아우구스투스의 호적 명령으로 다윗의 자손 요셉이 약혼자 마리아와 나사렛에서 베들레헴으로 내려갔고, 그곳 구유에서 예수님이 태어나셨다(미 5:2 성취). (눅 2:1-7; 마 1:18-25)</description><styleUrl>#p5CC98A</styleUrl><Point><coordinates>35.20797,31.64200,0</coordinates></Point></Placemark>
<Placemark><name>73. 세례 요한 — 요단강에서 주의 길을 예비</name><description>AD 28~29년경, 사가랴의 아들 세례 요한이 요단강 건너편 베다니에서 회개의 세례를 베풀며 '보라 세상 죄를 지고 가는 하나님의 어린 양이로다'라고 예수님을 가리켰다. (마 3; 요 1:28)</description><styleUrl>#pC78BE8</styleUrl><Point><coordinates>35.55100,31.83700,0</coordinates></Point></Placemark>
<Placemark><name>74. 예수 그리스도 — 예루살렘, 십자가와 부활</name><description>AD 30~33년경, 나사렛에서 자라신 예수님이 예루살렘에 올라가 유월절에 십자가에 못 박히시고 사흘 만에 부활하셨다. 그 순간 성소 휘장이 위에서 아래로 찢어졌다(마 27:51). (마 26-28)</description><styleUrl>#p5CC98A</styleUrl><Point><coordinates>35.28294,31.56759,0</coordinates></Point></Placemark>
<Placemark><name>53 → 예루살렘 → 다바네스</name><description>예레미야 — 애굽 다바네스로 끌려감</description><styleUrl>#lC78BE8</styleUrl><MultiGeometry><LineString><tessellate>1</tessellate><coordinates>35.23540,31.77810,0 35.07444,31.77240,0 34.91445,31.76305,0 34.75542,31.75007,0 34.59737,31.73344,0 34.44028,31.71317,0 34.28415,31.68925,0 34.12900,31.66170,0 33.97481,31.63050,0 33.82159,31.59566,0 33.66933,31.55717,0 33.51805,31.51505,0 33.36773,31.46928,0 33.21838,31.41987,0 33.06999,31.36681,0 32.92258,31.31012,0 32.77613,31.24978,0 32.63064,31.18580,0 32.48613,31.11817,0 32.34258,31.04691,0 32.20000,30.97200,0</coordinates></LineString><Polygon><outerBoundaryIs><LinearRing><coordinates>32.20000,30.97200,0 32.38293,30.97964,0 32.29491,31.10630,0 32.20000,30.97200,0</coordinates></LinearRing></outerBoundaryIs></Polygon></MultiGeometry></Placemark>
<Placemark><name>56 → 바사(파사르가대) → 바벨론</name><description>고레스 — 바벨론 정복, 귀환 칙령(538)</description><styleUrl>#l9A9A9A</styleUrl><MultiGeometry><LineString><tessellate>1</tessellate><coordinates>53.17900,30.20200,0 52.71448,30.21888,0 52.25277,30.24627,0 51.79385,30.28416,0 51.33774,30.33257,0 50.88443,30.39149,0 50.43392,30.46091,0 49.98621,30.54085,0 49.54130,30.63129,0 49.09919,30.73225,0 48.65989,30.84371,0 48.22338,30.96569,0 47.78968,31.09817,0 47.35878,31.24117,0 46.93068,31.39467,0 46.50538,31.55869,0 46.08288,31.73321,0 45.66318,31.91824,0 45.24629,32.11379,0 44.83219,32.31984,0 44.42090,32.53640,0</coordinates></LineString><Polygon><outerBoundaryIs><LinearRing><coordinates>44.42090,32.53640,0 44.53000,32.38167,0 44.63406,32.52613,0 44.42090,32.53640,0</coordinates></LinearRing></outerBoundaryIs></Polygon></MultiGeometry></Placemark>
<Placemark><name>58 → 바벨론 → 예루살렘</name><description>1차 귀환 — 스룹바벨·예수아</description><styleUrl>#l5CC98A</styleUrl><MultiGeometry><LineString><tessellate>1</tessellate><coordinates>44.42090,32.53640,0 43.97027,32.39377,0 43.51873,32.26216,0 43.06628,32.14158,0 42.61292,32.03202,0 42.15865,31.93348,0 41.70347,31.84596,0 41.24738,31.76947,0 40.79038,31.70400,0 40.33247,31.64955,0 39.87365,31.60612,0 39.41392,31.57372,0 38.95328,31.55234,0 38.49173,31.54198,0 38.02927,31.54264,0 37.56590,31.55433,0 37.10162,31.57704,0 36.63643,31.61077,0 36.17033,31.65552,0 35.70332,31.71130,0 35.23540,31.77810,0</coordinates></LineString><Polygon><outerBoundaryIs><LinearRing><coordinates>35.23540,31.77810,0 35.40502,31.67036,0 35.43532,31.83739,0 35.23540,31.77810,0</coordinates></LinearRing></outerBoundaryIs></Polygon></MultiGeometry></Placemark>
<Placemark><name>61 → 바벨론 → 예루살렘</name><description>에스라 귀환</description><styleUrl>#l5CC98A</styleUrl><MultiGeometry><LineString><tessellate>1</tessellate><coordinates>44.42090,32.53640,0 43.95298,32.60320,0 43.48597,32.65898,0 43.01987,32.70373,0 42.55468,32.73746,0 42.09040,32.76017,0 41.62703,32.77186,0 41.16457,32.77252,0 40.70302,32.76216,0 40.24238,32.74078,0 39.78265,32.70838,0 39.32383,32.66495,0 38.86592,32.61050,0 38.40892,32.54503,0 37.95283,32.46854,0 37.49765,32.38102,0 37.04338,32.28248,0 36.59002,32.17292,0 36.13757,32.05234,0 35.68603,31.92073,0 35.23540,31.77810,0</coordinates></LineString><Polygon><outerBoundaryIs><LinearRing><coordinates>35.23540,31.77810,0 35.44491,31.75204,0 35.37797,31.91118,0 35.23540,31.77810,0</coordinates></LinearRing></outerBoundaryIs></Polygon></MultiGeometry></Placemark>
<Placemark><name>62 → 수산 → 예루살렘</name><description>느헤미야 — 수산에서 예루살렘으로, 성벽 52일</description><styleUrl>#l5CC98A</styleUrl><MultiGeometry><LineString><tessellate>1</tessellate><coordinates>48.25800,32.18900,0 47.61155,32.02000,0 46.96462,31.86662,0 46.31718,31.72887,0 45.66926,31.60675,0 45.02084,31.50026,0 44.37193,31.40939,0 43.72253,31.33415,0 43.07263,31.27454,0 42.42224,31.23055,0 41.77135,31.20219,0 41.11998,31.18946,0 40.46811,31.19236,0 39.81575,31.21088,0 39.16289,31.24503,0 38.50954,31.29481,0 37.85570,31.36021,0 37.20136,31.44124,0 36.54654,31.53790,0 35.89121,31.65019,0 35.23540,31.77810,0</coordinates></LineString><Polygon><outerBoundaryIs><LinearRing><coordinates>35.23540,31.77810,0 35.39722,31.66201,0 35.43910,31.82723,0 35.23540,31.77810,0</coordinates></LinearRing></outerBoundaryIs></Polygon></MultiGeometry></Placemark>
<Placemark><name>64 → 펠라(마케도니아) → 예루살렘 → 알렉산드리아</name><description>알렉산더 대왕 — 동방 원정 (사독 세대 추정)</description><styleUrl>#l9A9A9A</styleUrl><MultiGeometry><LineString><tessellate>1</tessellate><coordinates>22.52500,40.76000,0 23.26291,40.45580,0 23.99005,40.13635,0 24.70641,39.80165,0 25.41198,39.45170,0 26.10679,39.08649,0 26.79081,38.70603,0 27.46405,38.31032,0 28.12652,37.89936,0 28.77820,37.47314,0 29.41911,37.03167,0 30.04924,36.57495,0 30.66860,36.10298,0 31.27717,35.61575,0 31.87497,35.11327,0 32.46199,34.59554,0 33.03822,34.06256,0 33.60369,33.51432,0 34.15837,32.95083,0 34.70227,32.37209,0 35.23540,31.77810,0 34.97615,31.68859,0 34.71621,31.60546,0 34.45558,31.52871,0 34.19426,31.45834,0 33.93224,31.39435,0 33.66952,31.33674,0 33.40611,31.28551,0 33.14201,31.24066,0 32.87722,31.20219,0 32.61173,31.17010,0 32.34555,31.14439,0 32.07867,31.12506,0 31.81110,31.11211,0 31.54284,31.10554,0 31.27388,31.10535,0 31.00424,31.11154,0 30.73389,31.12411,0 30.46285,31.14306,0 30.19112,31.16839,0 29.91870,31.20010,0</coordinates></LineString><Polygon><outerBoundaryIs><LinearRing><coordinates>29.91870,31.20010,0 30.09111,31.09689,0 30.11514,31.26465,0 29.91870,31.20010,0</coordinates></LinearRing></outerBoundaryIs></Polygon></MultiGeometry></Placemark>
<Placemark><name>66 → 안디옥 → 예루살렘</name><description>안티오쿠스 4세 — 성전 모독 (엘르아살 세대 추정)</description><styleUrl>#l9A9A9A</styleUrl><MultiGeometry><LineString><tessellate>1</tessellate><coordinates>36.16040,36.20210,0 36.16458,35.97035,0 36.16346,35.73972,0 36.15702,35.51019,0 36.14528,35.28178,0 36.12823,35.05447,0 36.10587,34.82828,0 36.07820,34.60319,0 36.04522,34.37922,0 36.00694,34.15636,0 35.96334,33.93460,0 35.91444,33.71395,0 35.86022,33.49442,0 35.80070,33.27600,0 35.73587,33.05868,0 35.66573,32.84248,0 35.59028,32.62738,0 35.50952,32.41339,0 35.42346,32.20052,0 35.33208,31.98876,0 35.23540,31.77810,0</coordinates></LineString><Polygon><outerBoundaryIs><LinearRing><coordinates>35.23540,31.77810,0 35.39455,31.89683,0 35.20860,31.95665,0 35.23540,31.77810,0</coordinates></LinearRing></outerBoundaryIs></Polygon></MultiGeometry></Placemark>
<Placemark><name>67 → 모데인 → 예루살렘</name><description>마카비 — 성전 정화, 수전절(하누카)</description><styleUrl>#l9A9A9A</styleUrl><MultiGeometry><LineString><tessellate>1</tessellate><coordinates>34.96000,31.93000,0 34.97204,31.91927,0 34.98426,31.90886,0 34.99666,31.89879,0 35.00925,31.88904,0 35.02201,31.87963,0 35.03496,31.87055,0 35.04810,31.86180,0 35.06141,31.85338,0 35.07491,31.84529,0 35.08859,31.83753,0 35.10245,31.83010,0 35.11649,31.82300,0 35.13072,31.81623,0 35.14512,31.80979,0 35.15971,31.80368,0 35.17449,31.79790,0 35.18944,31.79246,0 35.20458,31.78734,0 35.21990,31.78256,0 35.23540,31.77810,0</coordinates></LineString><Polygon><outerBoundaryIs><LinearRing><coordinates>35.23540,31.77810,0 35.20755,31.80388,0 35.19469,31.77288,0 35.23540,31.77810,0</coordinates></LinearRing></outerBoundaryIs></Polygon></MultiGeometry></Placemark>
<Placemark><name>68 → 로마 → 예루살렘</name><description>로마 폼페이우스 — 예루살렘 점령 (야곱 세대 추정)</description><styleUrl>#l9A9A9A</styleUrl><MultiGeometry><LineString><tessellate>1</tessellate><coordinates>12.49220,41.89020,0 13.74464,41.64387,0 14.98494,41.37024,0 16.21311,41.06933,0 17.42914,40.74112,0 18.63304,40.38562,0 19.82481,40.00283,0 21.00444,39.59274,0 22.17194,39.15537,0 23.32730,38.69070,0 24.47053,38.19874,0 25.60162,37.67949,0 26.72058,37.13295,0 27.82740,36.55911,0 28.92209,35.95799,0 30.00464,35.32957,0 31.07506,34.67386,0 32.13335,33.99086,0 33.17950,33.28056,0 34.21352,32.54298,0 35.23540,31.77810,0</coordinates></LineString><Polygon><outerBoundaryIs><LinearRing><coordinates>35.23540,31.77810,0 35.15843,31.94579,0 35.02883,31.81763,0 35.23540,31.77810,0</coordinates></LinearRing></outerBoundaryIs></Polygon></MultiGeometry></Placemark>
<Placemark><name>72 → 나사렛 → 베들레헴</name><description>요셉과 마리아, 베들레헴으로 — 예수 탄생</description><styleUrl>#l5CC98A</styleUrl><MultiGeometry><LineString><tessellate>1</tessellate><coordinates>35.30350,32.69960,0 35.30978,32.64874,0 35.31486,32.59800,0 35.31876,32.54738,0 35.32146,32.49688,0 35.32296,32.44650,0 35.32328,32.39624,0 35.32240,32.34611,0 35.32033,32.29610,0 35.31706,32.24620,0 35.31260,32.19643,0 35.30695,32.14678,0 35.30011,32.09726,0 35.29207,32.04785,0 35.28284,31.99856,0 35.27241,31.94940,0 35.26080,31.90036,0 35.24799,31.85144,0 35.23398,31.80264,0 35.21879,31.75396,0 35.20240,31.70540,0</coordinates></LineString><Polygon><outerBoundaryIs><LinearRing><coordinates>35.20240,31.70540,0 35.24279,31.74168,0 35.18964,31.75417,0 35.20240,31.70540,0</coordinates></LinearRing></outerBoundaryIs></Polygon></MultiGeometry></Placemark>
<Placemark><name>74 → 나사렛 → 예루살렘</name><description>예수 그리스도 — 예루살렘, 십자가와 부활</description><styleUrl>#l5CC98A</styleUrl><MultiGeometry><LineString><tessellate>1</tessellate><coordinates>35.30350,32.69960,0 35.31060,32.65275,0 35.31659,32.60598,0 35.32148,32.55929,0 35.32527,32.51268,0 35.32794,32.46616,0 35.32951,32.41972,0 35.32998,32.37336,0 35.32934,32.32708,0 35.32759,32.28088,0 35.32474,32.23476,0 35.32078,32.18873,0 35.31572,32.14278,0 35.30955,32.09691,0 35.30227,32.05112,0 35.29389,32.00541,0 35.28441,31.95978,0 35.27381,31.91424,0 35.26211,31.86878,0 35.24931,31.82340,0 35.23540,31.77810,0</coordinates></LineString><Polygon><outerBoundaryIs><LinearRing><coordinates>35.23540,31.77810,0 35.27181,31.81240,0 35.22231,31.82294,0 35.23540,31.77810,0</coordinates></LinearRing></outerBoundaryIs></Polygon></MultiGeometry></Placemark>
</Folder>
</Document></kml>