<?xml version="1.0" encoding="UTF-8"?>
<kml xmlns="http://www.opengis.net/kml/2.2"><Document>
<name>유다 멸망 지도 연표 (1–38) — 왕하 24–25 · 렘 39–43 · 52</name>
<description>BC 605~561, 38개 사건. 날짜는 Thiele/Parker-Dubberstein 환산(함락 586년설), 율리우스력 근사. 좌표는 근사값.</description>
<Style id="p4FA3E0"><IconStyle><color>ffE0A34F</color><scale>0.9</scale><Icon><href>http://maps.google.com/mapfiles/kml/shapes/placemark_circle.png</href></Icon></IconStyle><LabelStyle><scale>0.8</scale></LabelStyle></Style>
<Style id="l4FA3E0"><LineStyle><color>e6E0A34F</color><width>3</width></LineStyle><PolyStyle><color>ffE0A34F</color><fill>1</fill><outline>0</outline></PolyStyle></Style>
<Style id="p5CC98A"><IconStyle><color>ff8AC95C</color><scale>0.9</scale><Icon><href>http://maps.google.com/mapfiles/kml/shapes/placemark_circle.png</href></Icon></IconStyle><LabelStyle><scale>0.8</scale></LabelStyle></Style>
<Style id="l5CC98A"><LineStyle><color>e68AC95C</color><width>3</width></LineStyle><PolyStyle><color>ff8AC95C</color><fill>1</fill><outline>0</outline></PolyStyle></Style>
<Style id="pC78BE8"><IconStyle><color>ffE88BC7</color><scale>0.9</scale><Icon><href>http://maps.google.com/mapfiles/kml/shapes/placemark_circle.png</href></Icon></IconStyle><LabelStyle><scale>0.8</scale></LabelStyle></Style>
<Style id="lC78BE8"><LineStyle><color>e6E88BC7</color><width>3</width></LineStyle><PolyStyle><color>ffE88BC7</color><fill>1</fill><outline>0</outline></PolyStyle></Style>
<Style id="pE8955F"><IconStyle><color>ff5F95E8</color><scale>0.9</scale><Icon><href>http://maps.google.com/mapfiles/kml/shapes/placemark_circle.png</href></Icon></IconStyle><LabelStyle><scale>0.8</scale></LabelStyle></Style>
<Style id="lE8955F"><LineStyle><color>e65F95E8</color><width>3</width></LineStyle><PolyStyle><color>ff5F95E8</color><fill>1</fill><outline>0</outline></PolyStyle></Style>
<Style id="pFF4D4D"><IconStyle><color>ff4D4DFF</color><scale>0.9</scale><Icon><href>http://maps.google.com/mapfiles/kml/shapes/placemark_circle.png</href></Icon></IconStyle><LabelStyle><scale>0.8</scale></LabelStyle></Style>
<Style id="lFF4D4D"><LineStyle><color>e64D4DFF</color><width>3</width></LineStyle><PolyStyle><color>ff4D4DFF</color><fill>1</fill><outline>0</outline></PolyStyle></Style>
<Folder><name>바벨론 (침공·포로)</name>
<Placemark><name>1. 갈그미스 전투 — 애굽의 몰락</name><description>BC 605 5~6월경 · BC 605년 여름, 바벨론 왕세자 느부갓네살이 유프라테스 강가 갈그미스에서 애굽 바로 느고의 군대를 격파했다. 이후 애굽은 다시는 국경 밖으로 나오지 못했다. (왕하 24:7; 렘 46:2 · 바벨론 연대기) / 📍 갈그미스: 카르케미시 유적(튀르키예–시리아 국경, 유프라테스 강가) 기준 — 확실</description><styleUrl>#pE8955F</styleUrl><Point><coordinates>38.01440,36.82960,0</coordinates></Point></Placemark>
<Placemark><name>2. 느부갓네살, 바벨론 왕으로 즉위</name><description>BC 605.9.7 (엘룰월 1일) · BC 605년 9월 7일, 아버지 나보폴라살이 죽었다는 소식에 느부갓네살이 급히 돌아가 바벨론 왕으로 즉위했다. 이후 43년 동안 다스린다. (바벨론 연대기) / 📍 바벨론: 바빌론 유적(이라크 힐라 인근) 기준 — 확실</description><styleUrl>#pE8955F</styleUrl><Point><coordinates>44.42090,32.53640,0</coordinates></Point></Placemark>
<Placemark><name>5. 바벨론 군대가 유다를 침</name><description>BC 599~598 · BC 599~598년, 하나님이 선지자들을 통해 말씀하신 대로 바벨론·아람·모압·암몬의 군대를 보내 유다를 치게 하셨다. 므낫세의 모든 죄, 특히 무죄한 피로 예루살렘을 가득 채운 죄 때문이었다. (왕하 24:2-4) / 📍 예루살렘: 성전산(모리아산) 기준 — 같은 곳의 여러 사건은 조금씩 흩어 표시</description><styleUrl>#pE8955F</styleUrl><Point><coordinates>35.22213,31.79026,0</coordinates></Point></Placemark>
<Placemark><name>5. 아람 약탈대</name><description>BC 599~598 · 아람(다메섹) 쪽 약탈대가 북쪽에서 유다를 쳤다. (왕하 24:2) / 📍 예루살렘: 성전산(모리아산) 기준 — 같은 곳의 여러 사건은 조금씩 흩어 표시</description><styleUrl>#pE8955F</styleUrl><Point><coordinates>35.23763,31.75274,0</coordinates></Point></Placemark>
<Placemark><name>5. 모압 약탈대</name><description>BC 599~598 · 모압 약탈대가 요단 동편에서 쳐들어왔다. (왕하 24:2) / 📍 예루살렘: 성전산(모리아산) 기준 — 같은 곳의 여러 사건은 조금씩 흩어 표시</description><styleUrl>#pE8955F</styleUrl><Point><coordinates>35.25437,31.80284,0</coordinates></Point></Placemark>
<Placemark><name>5. 암몬 약탈대</name><description>BC 599~598 · 암몬 약탈대도 함께 유다를 쳤다. (왕하 24:2) / 📍 예루살렘: 성전산(모리아산) 기준 — 같은 곳의 여러 사건은 조금씩 흩어 표시</description><styleUrl>#pE8955F</styleUrl><Point><coordinates>35.19995,31.77182,0</coordinates></Point></Placemark>
<Placemark><name>8. 1차 대규모 포로 — 여호야긴과 1만 명</name><description>BC 597 봄 (4.22경) · BC 597년 봄, 바벨론이 성전과 왕궁의 보물을 가져가고 솔로몬이 만든 금그릇을 깨뜨렸다. 여호야긴과 왕실, 용사 7천, 기술자 1천 등 1만 명이 끌려갔다(렘 52:28은 3,023명으로 기록). 제사장 에스겔도 이때 끌려갔다. (왕하 24:13-16; 렘 52:28) / 📍 바벨론: 바빌론 유적(이라크 힐라 인근) 기준 — 확실</description><styleUrl>#pE8955F</styleUrl><Point><coordinates>44.40763,32.54856,0</coordinates></Point></Placemark>
<Placemark><name>18. 성전 기구 약탈 — 놋기둥·놋바다·놋소</name><description>BC 586.8월 · 솔로몬이 만든 놋기둥 두 개(높이 8.1m, 둘레 5.4m, 속이 빈 기둥, 석류 장식 각 100개), 놋바다와 그것을 받친 놋소 열두 마리, 놋받침을 깨뜨려 가져갔다. 놋이 너무 많아 무게를 달 수 없었다. 기둥머리 높이는 왕하 3규빗, 렘 5규빗으로 다르게 적혀 있다. (왕하 25:13-17; 렘 52:17-23) / 📍 바벨론: 바빌론 유적(이라크 힐라 인근) 기준 — 확실</description><styleUrl>#pE8955F</styleUrl><Point><coordinates>44.43987,32.56114,0</coordinates></Point></Placemark>
<Placemark><name>36. 3차 포로 — 745명</name><description>BC 582/581 (느부갓네살 23년) · BC 582년, 느부사라단이 유다 사람 745명을 또 잡아갔다. 세 차례 포로 합계 4,600명(렘 52:28-30). 그달랴 암살에 대한 바벨론의 보복으로 보는 견해가 있다. (렘 52:30) / 📍 바벨론: 바빌론 유적(이라크 힐라 인근) 기준 — 확실</description><styleUrl>#pE8955F</styleUrl><Point><coordinates>44.45486,32.51480,0</coordinates></Point></Placemark>
<Placemark><name>37. 예언 성취 — 느부갓네살의 애굽 원정</name><description>BC 568/567 (느부갓네살 37년) · BC 568/567년, 느부갓네살이 애굽을 침공했다는 기록이 바벨론 토판 조각(BM 33041)에 남아 있다. 다바네스에서 한 예레미야의 예언과 연결된다. (렘 43:10-13; 겔 29:19 · BM 33041) / 📍 애굽(멤피스): 고대 수도 멤피스(현 미트 라히나) — '애굽'을 대표하는 지점으로 선택</description><styleUrl>#pE8955F</styleUrl><Point><coordinates>31.25020,29.84460,0</coordinates></Point></Placemark>
<Placemark><name>1 → 바벨론 → 마리(유프라테스) → 갈그미스</name><description>갈그미스 전투 — 애굽의 몰락</description><styleUrl>#lE8955F</styleUrl><MultiGeometry><LineString><tessellate>1</tessellate><coordinates>44.42090,32.53640,0 44.22136,32.59677,0 44.02424,32.66137,0 43.82953,32.73021,0 43.63724,32.80330,0 43.44736,32.88061,0 43.25989,32.96217,0 43.07485,33.04797,0 42.89221,33.13800,0 42.71200,33.23228,0 42.53419,33.33079,0 42.35881,33.43354,0 42.18583,33.54052,0 42.01528,33.65175,0 41.84713,33.76721,0 41.68141,33.88691,0 41.51810,34.01086,0 41.35720,34.13903,0 41.19872,34.27145,0 41.04265,34.40811,0 40.88900,34.54900,0 40.71927,34.63026,0 40.55228,34.71497,0 40.38802,34.80313,0 40.22650,34.89474,0 40.06772,34.98979,0 39.91168,35.08830,0 39.75837,35.19026,0 39.60780,35.29566,0 39.45996,35.40452,0 39.31486,35.51682,0 39.17250,35.63258,0 39.03288,35.75178,0 38.89599,35.87444,0 38.76184,36.00054,0 38.63042,36.13009,0 38.50174,36.26310,0 38.37580,36.39955,0 38.25260,36.53945,0 38.13213,36.68280,0 38.01440,36.82960,0</coordinates></LineString><Polygon><outerBoundaryIs><LinearRing><coordinates>38.01440,36.82960,0 38.02134,36.76986,0 38.08016,36.80079,0 38.01440,36.82960,0</coordinates></LinearRing></outerBoundaryIs></Polygon></MultiGeometry></Placemark>
<Placemark><name>2 → 갈그미스 → 다드몰(사막길) → 바벨론</name><description>느부갓네살, 바벨론 왕으로 즉위</description><styleUrl>#lE8955F</styleUrl><MultiGeometry><LineString><tessellate>1</tessellate><coordinates>38.01440,36.82960,0 38.00110,36.71278,0 37.99054,36.59626,0 37.98271,36.48005,0 37.97762,36.36414,0 37.97526,36.24854,0 37.97564,36.13324,0 37.97875,36.01824,0 37.98459,35.90355,0 37.99317,35.78917,0 38.00448,35.67508,0 38.01853,35.56131,0 38.03531,35.44783,0 38.05483,35.33466,0 38.07708,35.22180,0 38.10206,35.10924,0 38.12978,34.99698,0 38.16023,34.88503,0 38.19342,34.77338,0 38.22934,34.66204,0 38.26800,34.55100,0 38.55268,34.38013,0 38.83977,34.21664,0 39.12929,34.06053,0 39.42122,33.91181,0 39.71557,33.77047,0 40.01233,33.63651,0 40.31152,33.50994,0 40.61312,33.39075,0 40.91714,33.27895,0 41.22357,33.17453,0 41.53243,33.07749,0 41.84370,32.98783,0 42.15739,32.90556,0 42.47349,32.83067,0 42.79202,32.76317,0 43.11296,32.70305,0 43.43632,32.65031,0 43.76209,32.60496,0 44.09029,32.56699,0 44.42090,32.53640,0</coordinates></LineString><Polygon><outerBoundaryIs><LinearRing><coordinates>44.42090,32.53640,0 44.36263,32.57085,0 44.35444,32.51493,0 44.42090,32.53640,0</coordinates></LinearRing></outerBoundaryIs></Polygon></MultiGeometry></Placemark>
<Placemark><name>5 → 바벨론 → 마리(유프라테스) → 갈그미스 → 하맛 → 립나 → 하솔 → 예루살렘</name><description>바벨론 군대가 유다를 침</description><styleUrl>#lE8955F</styleUrl><MultiGeometry><LineString><tessellate>1</tessellate><coordinates>44.42090,32.53640,0 44.22136,32.59677,0 44.02424,32.66137,0 43.82953,32.73021,0 43.63724,32.80330,0 43.44736,32.88061,0 43.25989,32.96217,0 43.07485,33.04797,0 42.89221,33.13800,0 42.71200,33.23228,0 42.53419,33.33079,0 42.35881,33.43354,0 42.18583,33.54052,0 42.01528,33.65175,0 41.84713,33.76721,0 41.68141,33.88691,0 41.51810,34.01086,0 41.35720,34.13903,0 41.19872,34.27145,0 41.04265,34.40811,0 40.88900,34.54900,0 40.71927,34.63026,0 40.55228,34.71497,0 40.38802,34.80313,0 40.22650,34.89474,0 40.06772,34.98979,0 39.91168,35.08830,0 39.75837,35.19026,0 39.60780,35.29566,0 39.45996,35.40452,0 39.31486,35.51682,0 39.17250,35.63258,0 39.03288,35.75178,0 38.89599,35.87444,0 38.76184,36.00054,0 38.63042,36.13009,0 38.50174,36.26310,0 38.37580,36.39955,0 38.25260,36.53945,0 38.13213,36.68280,0 38.01440,36.82960,0 37.97089,36.73034,0 37.92535,36.63258,0 37.87777,36.53633,0 37.82815,36.44160,0 37.77649,36.34837,0 37.72279,36.25665,0 37.66705,36.16644,0 37.60928,36.07773,0 37.54947,35.99054,0 37.48762,35.90486,0 37.42373,35.82068,0 37.35780,35.73801,0 37.28983,35.65686,0 37.21983,35.57721,0 37.14779,35.49907,0 37.07371,35.42244,0 36.99759,35.34731,0 36.91943,35.27370,0 36.83923,35.20160,0 36.75700,35.13100,0 36.74557,35.09415,0 36.73336,35.05776,0 36.72037,35.02181,0 36.70660,34.98632,0 36.69205,34.95128,0 36.67671,34.91670,0 36.66059,34.88257,0 36.64370,34.84888,0 36.62602,34.81566,0 36.60756,34.78288,0 36.58832,34.75056,0 36.56830,34.71868,0 36.54749,34.68727,0 36.52591,34.65630,0 36.50355,34.62579,0 36.48040,34.59572,0 36.45647,34.56611,0 36.43176,34.53696,0 36.40627,34.50825,0 36.38000,34.48000,0 36.35608,34.39759,0 36.33040,34.31616,0 36.30297,34.23570,0 36.27378,34.15622,0 36.24283,34.07771,0 36.21014,34.00018,0 36.17568,33.92361,0 36.13947,33.84803,0 36.10150,33.77342,0 36.06178,33.69978,0 36.02030,33.62712,0 35.97707,33.55543,0 35.93208,33.48471,0 35.88534,33.41498,0 35.83683,33.34621,0 35.78658,33.27842,0 35.73457,33.21160,0 35.68080,33.14576,0 35.62528,33.08089,0 35.56800,33.01700,0 35.56549,32.95126,0 35.56150,32.88593,0 35.55602,32.82099,0 35.54905,32.75645,0 35.54060,32.69231,0 35.53066,32.62857,0 35.51923,32.56523,0 35.50632,32.50228,0 35.49192,32.43974,0 35.47603,32.37759,0 35.45866,32.31585,0 35.43980,32.25450,0 35.41945,32.19356,0 35.39762,32.13301,0 35.37430,32.07286,0 35.34949,32.01311,0 35.32320,31.95376,0 35.29542,31.89481,0 35.26615,31.83625,0 35.23540,31.77810,0</coordinates></LineString><Polygon><outerBoundaryIs><LinearRing><coordinates>35.23540,31.77810,0 35.25906,31.79403,0 35.23309,31.80368,0 35.23540,31.77810,0</coordinates></LinearRing></outerBoundaryIs></Polygon></MultiGeometry></Placemark>
<Placemark><name>5 → 다메섹(아람) → 하솔 → 예루살렘</name><description>아람 약탈대</description><styleUrl>#lE8955F</styleUrl><MultiGeometry><LineString><tessellate>1</tessellate><coordinates>36.29200,33.51300,0 36.25015,33.49645,0 36.20889,33.47904,0 36.16822,33.46075,0 36.12815,33.44160,0 36.08868,33.42158,0 36.04980,33.40069,0 36.01152,33.37893,0 35.97383,33.35630,0 35.93674,33.33281,0 35.90024,33.30844,0 35.86434,33.28321,0 35.82903,33.25710,0 35.79432,33.23013,0 35.76020,33.20229,0 35.72668,33.17358,0 35.69375,33.14400,0 35.66142,33.11355,0 35.62969,33.08224,0 35.59855,33.05005,0 35.56800,33.01700,0 35.53725,32.95885,0 35.50798,32.90029,0 35.48020,32.84134,0 35.45391,32.78199,0 35.42910,32.72224,0 35.40578,32.66209,0 35.38395,32.60154,0 35.36360,32.54060,0 35.34474,32.47925,0 35.32737,32.41751,0 35.31148,32.35536,0 35.29708,32.29282,0 35.28417,32.22987,0 35.27274,32.16653,0 35.26280,32.10279,0 35.25435,32.03865,0 35.24738,31.97411,0 35.24190,31.90917,0 35.23791,31.84384,0 35.23540,31.77810,0</coordinates></LineString><Polygon><outerBoundaryIs><LinearRing><coordinates>35.23540,31.77810,0 35.25068,31.80022,0 35.22237,31.80124,0 35.23540,31.77810,0</coordinates></LinearRing></outerBoundaryIs></Polygon></MultiGeometry></Placemark>
<Placemark><name>5 → 모압 → 예루살렘</name><description>모압 약탈대</description><styleUrl>#lE8955F</styleUrl><MultiGeometry><LineString><tessellate>1</tessellate><coordinates>35.70000,31.18000,0 35.66995,31.20461,0 35.64062,31.22977,0 35.61201,31.25550,0 35.58411,31.28178,0 35.55694,31.30862,0 35.53048,31.33601,0 35.50473,31.36397,0 35.47971,31.39248,0 35.45540,31.42155,0 35.43181,31.45117,0 35.40894,31.48136,0 35.38679,31.51210,0 35.36535,31.54340,0 35.34464,31.57525,0 35.32464,31.60767,0 35.30535,31.64064,0 35.28679,31.67417,0 35.26894,31.70825,0 35.25181,31.74290,0 35.23540,31.77810,0</coordinates></LineString><Polygon><outerBoundaryIs><LinearRing><coordinates>35.23540,31.77810,0 35.23360,31.76303,0 35.24909,31.76841,0 35.23540,31.77810,0</coordinates></LinearRing></outerBoundaryIs></Polygon></MultiGeometry></Placemark>
<Placemark><name>5 → 암몬(랍바) → 예루살렘</name><description>암몬 약탈대</description><styleUrl>#lE8955F</styleUrl><MultiGeometry><LineString><tessellate>1</tessellate><coordinates>35.93400,31.95400,0 35.89706,31.95317,0 35.86034,31.95150,0 35.82383,31.94899,0 35.78753,31.94565,0 35.75143,31.94146,0 35.71555,31.93644,0 35.67989,31.93058,0 35.64443,31.92388,0 35.60918,31.91634,0 35.57415,31.90797,0 35.53932,31.89875,0 35.50471,31.88870,0 35.47031,31.87781,0 35.43611,31.86608,0 35.40213,31.85351,0 35.36837,31.84011,0 35.33481,31.82586,0 35.30146,31.81078,0 35.26832,31.79486,0 35.23540,31.77810,0</coordinates></LineString><Polygon><outerBoundaryIs><LinearRing><coordinates>35.23540,31.77810,0 35.25234,31.77865,0 35.24433,31.79034,0 35.23540,31.77810,0</coordinates></LinearRing></outerBoundaryIs></Polygon></MultiGeometry></Placemark>
<Placemark><name>8 → 예루살렘 → 하솔 → 립나 → 하맛 → 갈그미스 → 마리(유프라테스) → 바벨론</name><description>1차 대규모 포로 — 여호야긴과 1만 명</description><styleUrl>#lE8955F</styleUrl><MultiGeometry><LineString><tessellate>1</tessellate><coordinates>35.23540,31.77810,0 35.23791,31.84384,0 35.24190,31.90917,0 35.24738,31.97411,0 35.25435,32.03865,0 35.26280,32.10279,0 35.27274,32.16653,0 35.28417,32.22987,0 35.29708,32.29282,0 35.31148,32.35536,0 35.32737,32.41751,0 35.34474,32.47925,0 35.36360,32.54060,0 35.38395,32.60154,0 35.40578,32.66209,0 35.42910,32.72224,0 35.45391,32.78199,0 35.48020,32.84134,0 35.50798,32.90029,0 35.53725,32.95885,0 35.56800,33.01700,0 35.59192,33.09941,0 35.61760,33.18084,0 35.64503,33.26130,0 35.67422,33.34078,0 35.70517,33.41929,0 35.73786,33.49682,0 35.77232,33.57339,0 35.80853,33.64897,0 35.84650,33.72358,0 35.88622,33.79722,0 35.92770,33.86988,0 35.97093,33.94157,0 36.01592,34.01229,0 36.06266,34.08202,0 36.11116,34.15079,0 36.16142,34.21858,0 36.21343,34.28540,0 36.26720,34.35124,0 36.32272,34.41611,0 36.38000,34.48000,0 36.39143,34.51685,0 36.40364,34.55324,0 36.41663,34.58919,0 36.43040,34.62468,0 36.44496,34.65971,0 36.46029,34.69430,0 36.47641,34.72843,0 36.49330,34.76212,0 36.51098,34.79534,0 36.52944,34.82812,0 36.54868,34.86044,0 36.56870,34.89232,0 36.58951,34.92373,0 36.61109,34.95470,0 36.63345,34.98521,0 36.65660,35.01528,0 36.68053,35.04489,0 36.70524,35.07404,0 36.73073,35.10275,0 36.75700,35.13100,0 36.80051,35.23026,0 36.84605,35.32802,0 36.89363,35.42427,0 36.94325,35.51900,0 36.99491,35.61223,0 37.04861,35.70395,0 37.10435,35.79416,0 37.16212,35.88287,0 37.22193,35.97006,0 37.28378,36.05574,0 37.34767,36.13992,0 37.41360,36.22259,0 37.48157,36.30374,0 37.55157,36.38339,0 37.62361,36.46153,0 37.69769,36.53816,0 37.77381,36.61329,0 37.85197,36.68690,0 37.93217,36.75900,0 38.01440,36.82960,0 38.18413,36.74834,0 38.35112,36.66363,0 38.51538,36.57547,0 38.67690,36.48386,0 38.83568,36.38881,0 38.99172,36.29030,0 39.14503,36.18834,0 39.29560,36.08294,0 39.44344,35.97408,0 39.58854,35.86178,0 39.73090,35.74602,0 39.87052,35.62682,0 40.00741,35.50416,0 40.14156,35.37806,0 40.27298,35.24851,0 40.40166,35.11550,0 40.52760,34.97905,0 40.65080,34.83915,0 40.77127,34.69580,0 40.88900,34.54900,0 41.08854,34.48863,0 41.28566,34.42403,0 41.48037,34.35519,0 41.67266,34.28210,0 41.86254,34.20479,0 42.05001,34.12323,0 42.23505,34.03743,0 42.41769,33.94740,0 42.59790,33.85312,0 42.77571,33.75461,0 42.95109,33.65186,0 43.12407,33.54488,0 43.29462,33.43365,0 43.46277,33.31819,0 43.62849,33.19849,0 43.79180,33.07454,0 43.95270,32.94637,0 44.11118,32.81395,0 44.26725,32.67729,0 44.42090,32.53640,0</coordinates></LineString><Polygon><outerBoundaryIs><LinearRing><coordinates>44.42090,32.53640,0 44.40218,32.59429,0 44.35351,32.55568,0 44.42090,32.53640,0</coordinates></LinearRing></outerBoundaryIs></Polygon></MultiGeometry></Placemark>
<Placemark><name>18 → 예루살렘 → 하솔 → 립나 → 하맛 → 갈그미스 → 마리(유프라테스) → 바벨론</name><description>성전 기구 약탈 — 놋기둥·놋바다·놋소</description><styleUrl>#lE8955F</styleUrl><MultiGeometry><LineString><tessellate>1</tessellate><coordinates>35.23540,31.77810,0 35.26615,31.83625,0 35.29542,31.89481,0 35.32320,31.95376,0 35.34949,32.01311,0 35.37430,32.07286,0 35.39762,32.13301,0 35.41945,32.19356,0 35.43980,32.25450,0 35.45866,32.31585,0 35.47603,32.37759,0 35.49192,32.43974,0 35.50632,32.50228,0 35.51923,32.56523,0 35.53066,32.62857,0 35.54060,32.69231,0 35.54905,32.75645,0 35.55602,32.82099,0 35.56150,32.88593,0 35.56549,32.95126,0 35.56800,33.01700,0 35.62528,33.08089,0 35.68080,33.14576,0 35.73457,33.21160,0 35.78658,33.27842,0 35.83684,33.34621,0 35.88534,33.41498,0 35.93208,33.48471,0 35.97707,33.55543,0 36.02030,33.62712,0 36.06178,33.69978,0 36.10150,33.77342,0 36.13947,33.84803,0 36.17568,33.92361,0 36.21014,34.00018,0 36.24283,34.07771,0 36.27378,34.15622,0 36.30297,34.23570,0 36.33040,34.31616,0 36.35608,34.39759,0 36.38000,34.48000,0 36.40627,34.50825,0 36.43176,34.53696,0 36.45647,34.56611,0 36.48040,34.59572,0 36.50354,34.62579,0 36.52591,34.65630,0 36.54749,34.68727,0 36.56830,34.71868,0 36.58832,34.75056,0 36.60756,34.78288,0 36.62602,34.81566,0 36.64370,34.84888,0 36.66059,34.88257,0 36.67671,34.91670,0 36.69205,34.95128,0 36.70660,34.98632,0 36.72037,35.02181,0 36.73336,35.05776,0 36.74557,35.09415,0 36.75700,35.13100,0 36.83923,35.20160,0 36.91943,35.27370,0 36.99759,35.34731,0 37.07371,35.42244,0 37.14779,35.49907,0 37.21983,35.57721,0 37.28983,35.65686,0 37.35780,35.73801,0 37.42373,35.82068,0 37.48762,35.90486,0 37.54947,35.99054,0 37.60928,36.07773,0 37.66705,36.16644,0 37.72279,36.25665,0 37.77649,36.34837,0 37.82815,36.44160,0 37.87777,36.53633,0 37.92535,36.63258,0 37.97089,36.73034,0 38.01440,36.82960,0 38.13213,36.68280,0 38.25260,36.53945,0 38.37580,36.39955,0 38.50174,36.26310,0 38.63042,36.13009,0 38.76184,36.00054,0 38.89599,35.87444,0 39.03288,35.75178,0 39.17250,35.63258,0 39.31486,35.51682,0 39.45996,35.40452,0 39.60780,35.29566,0 39.75837,35.19026,0 39.91168,35.08830,0 40.06772,34.98979,0 40.22650,34.89474,0 40.38802,34.80313,0 40.55228,34.71497,0 40.71927,34.63026,0 40.88900,34.54900,0 41.04265,34.40811,0 41.19872,34.27145,0 41.35720,34.13903,0 41.51810,34.01086,0 41.68141,33.88691,0 41.84713,33.76721,0 42.01528,33.65175,0 42.18583,33.54052,0 42.35881,33.43354,0 42.53419,33.33079,0 42.71200,33.23228,0 42.89221,33.13800,0 43.07485,33.04797,0 43.25989,32.96217,0 43.44736,32.88061,0 43.63724,32.80330,0 43.82953,32.73021,0 44.02424,32.66137,0 44.22136,32.59677,0 44.42090,32.53640,0</coordinates></LineString><Polygon><outerBoundaryIs><LinearRing><coordinates>44.42090,32.53640,0 44.37373,32.58133,0 44.35034,32.52856,0 44.42090,32.53640,0</coordinates></LinearRing></outerBoundaryIs></Polygon></MultiGeometry></Placemark>
<Placemark><name>36 → 예루살렘 → 하솔 → 립나 → 하맛 → 갈그미스 → 마리(유프라테스) → 바벨론</name><description>3차 포로 — 745명</description><styleUrl>#lE8955F</styleUrl><MultiGeometry><LineString><tessellate>1</tessellate><coordinates>35.23540,31.77810,0 35.26615,31.83625,0 35.29542,31.89481,0 35.32320,31.95376,0 35.34949,32.01311,0 35.37430,32.07286,0 35.39762,32.13301,0 35.41945,32.19356,0 35.43980,32.25450,0 35.45866,32.31585,0 35.47603,32.37759,0 35.49192,32.43974,0 35.50632,32.50228,0 35.51923,32.56523,0 35.53066,32.62857,0 35.54060,32.69231,0 35.54905,32.75645,0 35.55602,32.82099,0 35.56150,32.88593,0 35.56549,32.95126,0 35.56800,33.01700,0 35.62528,33.08089,0 35.68080,33.14576,0 35.73457,33.21160,0 35.78658,33.27842,0 35.83684,33.34621,0 35.88534,33.41498,0 35.93208,33.48471,0 35.97707,33.55543,0 36.02030,33.62712,0 36.06178,33.69978,0 36.10150,33.77342,0 36.13947,33.84803,0 36.17568,33.92361,0 36.21014,34.00018,0 36.24283,34.07771,0 36.27378,34.15622,0 36.30297,34.23570,0 36.33040,34.31616,0 36.35608,34.39759,0 36.38000,34.48000,0 36.40627,34.50825,0 36.43176,34.53696,0 36.45647,34.56611,0 36.48040,34.59572,0 36.50354,34.62579,0 36.52591,34.65630,0 36.54749,34.68727,0 36.56830,34.71868,0 36.58832,34.75056,0 36.60756,34.78288,0 36.62602,34.81566,0 36.64370,34.84888,0 36.66059,34.88257,0 36.67671,34.91670,0 36.69205,34.95128,0 36.70660,34.98632,0 36.72037,35.02181,0 36.73336,35.05776,0 36.74557,35.09415,0 36.75700,35.13100,0 36.83923,35.20160,0 36.91943,35.27370,0 36.99759,35.34731,0 37.07371,35.42244,0 37.14779,35.49907,0 37.21983,35.57721,0 37.28983,35.65686,0 37.35780,35.73801,0 37.42373,35.82068,0 37.48762,35.90486,0 37.54947,35.99054,0 37.60928,36.07773,0 37.66705,36.16644,0 37.72279,36.25665,0 37.77649,36.34837,0 37.82815,36.44160,0 37.87777,36.53633,0 37.92535,36.63258,0 37.97089,36.73034,0 38.01440,36.82960,0 38.13213,36.68280,0 38.25260,36.53945,0 38.37580,36.39955,0 38.50174,36.26310,0 38.63042,36.13009,0 38.76184,36.00054,0 38.89599,35.87444,0 39.03288,35.75178,0 39.17250,35.63258,0 39.31486,35.51682,0 39.45996,35.40452,0 39.60780,35.29566,0 39.75837,35.19026,0 39.91168,35.08830,0 40.06772,34.98979,0 40.22650,34.89474,0 40.38802,34.80313,0 40.55228,34.71497,0 40.71927,34.63026,0 40.88900,34.54900,0 41.04265,34.40811,0 41.19872,34.27145,0 41.35720,34.13903,0 41.51810,34.01086,0 41.68141,33.88691,0 41.84713,33.76721,0 42.01528,33.65175,0 42.18583,33.54052,0 42.35881,33.43354,0 42.53419,33.33079,0 42.71200,33.23228,0 42.89221,33.13800,0 43.07485,33.04797,0 43.25989,32.96217,0 43.44736,32.88061,0 43.63724,32.80330,0 43.82953,32.73021,0 44.02424,32.66137,0 44.22136,32.59677,0 44.42090,32.53640,0</coordinates></LineString><Polygon><outerBoundaryIs><LinearRing><coordinates>44.42090,32.53640,0 44.37373,32.58133,0 44.35034,32.52856,0 44.42090,32.53640,0</coordinates></LinearRing></outerBoundaryIs></Polygon></MultiGeometry></Placemark>
<Placemark><name>37 → 바벨론 → 마리(유프라테스) → 갈그미스 → 하맛 → 립나 → 하솔 → 가사 → 애굽 국경(펠루시움) → 애굽(멤피스)</name><description>예언 성취 — 느부갓네살의 애굽 원정</description><styleUrl>#lE8955F</styleUrl><MultiGeometry><LineString><tessellate>1</tessellate><coordinates>44.42090,32.53640,0 44.22136,32.59677,0 44.02424,32.66137,0 43.82953,32.73021,0 43.63724,32.80330,0 43.44736,32.88061,0 43.25989,32.96217,0 43.07485,33.04797,0 42.89221,33.13800,0 42.71200,33.23228,0 42.53419,33.33079,0 42.35881,33.43354,0 42.18583,33.54052,0 42.01528,33.65175,0 41.84713,33.76721,0 41.68141,33.88691,0 41.51810,34.01086,0 41.35720,34.13903,0 41.19872,34.27145,0 41.04265,34.40811,0 40.88900,34.54900,0 40.71927,34.63026,0 40.55228,34.71497,0 40.38802,34.80313,0 40.22650,34.89474,0 40.06772,34.98979,0 39.91168,35.08830,0 39.75837,35.19026,0 39.60780,35.29566,0 39.45996,35.40452,0 39.31486,35.51682,0 39.17250,35.63258,0 39.03288,35.75178,0 38.89599,35.87444,0 38.76184,36.00054,0 38.63042,36.13009,0 38.50174,36.26310,0 38.37580,36.39955,0 38.25260,36.53945,0 38.13213,36.68280,0 38.01440,36.82960,0 37.97089,36.73034,0 37.92535,36.63258,0 37.87777,36.53633,0 37.82815,36.44160,0 37.77649,36.34837,0 37.72279,36.25665,0 37.66705,36.16644,0 37.60928,36.07773,0 37.54947,35.99054,0 37.48762,35.90486,0 37.42373,35.82068,0 37.35780,35.73801,0 37.28983,35.65686,0 37.21983,35.57721,0 37.14779,35.49907,0 37.07371,35.42244,0 36.99759,35.34731,0 36.91943,35.27370,0 36.83923,35.20160,0 36.75700,35.13100,0 36.74557,35.09415,0 36.73336,35.05776,0 36.72037,35.02181,0 36.70660,34.98632,0 36.69205,34.95128,0 36.67671,34.91670,0 36.66059,34.88257,0 36.64370,34.84888,0 36.62602,34.81566,0 36.60756,34.78288,0 36.58832,34.75056,0 36.56830,34.71868,0 36.54749,34.68727,0 36.52591,34.65630,0 36.50355,34.62579,0 36.48040,34.59572,0 36.45647,34.56611,0 36.43176,34.53696,0 36.40627,34.50825,0 36.38000,34.48000,0 36.35608,34.39759,0 36.33040,34.31616,0 36.30297,34.23570,0 36.27378,34.15622,0 36.24283,34.07771,0 36.21014,34.00018,0 36.17568,33.92361,0 36.13947,33.84803,0 36.10150,33.77342,0 36.06178,33.69978,0 36.02030,33.62712,0 35.97707,33.55543,0 35.93208,33.48471,0 35.88534,33.41498,0 35.83683,33.34621,0 35.78658,33.27842,0 35.73457,33.21160,0 35.68080,33.14576,0 35.62528,33.08089,0 35.56800,33.01700,0 35.53005,32.92876,0 35.49028,32.84185,0 35.44870,32.75627,0 35.40530,32.67201,0 35.36008,32.58907,0 35.31306,32.50746,0 35.26421,32.42717,0 35.21355,32.34821,0 35.16107,32.27057,0 35.10678,32.19426,0 35.05067,32.11927,0 34.99275,32.04561,0 34.93301,31.97327,0 34.87146,31.90226,0 34.80808,31.83257,0 34.74290,31.76421,0 34.67590,31.69717,0 34.60708,31.63145,0 34.53645,31.56706,0 34.46400,31.50400,0 34.37332,31.45902,0 34.28208,31.41635,0 34.19029,31.37598,0 34.09794,31.33791,0 34.00504,31.30215,0 33.91158,31.26868,0 33.81758,31.23752,0 33.72301,31.20867,0 33.62789,31.18211,0 33.53222,31.15786,0 33.43599,31.13591,0 33.33921,31.11627,0 33.24188,31.09892,0 33.14398,31.08388,0 33.04554,31.07115,0 32.94654,31.06071,0 32.84699,31.05258,0 32.74688,31.04675,0 32.64622,31.04322,0 32.54500,31.04200,0 32.49391,30.96737,0 32.44138,30.89429,0 32.38742,30.82277,0 32.33202,30.75280,0 32.27518,30.68438,0 32.21691,30.61752,0 32.15720,30.55221,0 32.09605,30.48846,0 32.03347,30.42626,0 31.96944,30.36561,0 31.90399,30.30652,0 31.83709,30.24898,0 31.76876,30.19299,0 31.69899,30.13856,0 31.62778,30.08568,0 31.55514,30.03436,0 31.48106,29.98459,0 31.40554,29.93637,0 31.32859,29.88971,0 31.25020,29.84460,0</coordinates></LineString><Polygon><outerBoundaryIs><LinearRing><coordinates>31.25020,29.84460,0 31.29062,29.84845,0 31.26913,29.87582,0 31.25020,29.84460,0</coordinates></LinearRing></outerBoundaryIs></Polygon></MultiGeometry></Placemark>
</Folder>
<Folder><name>유다 왕실</name>
<Placemark><name>3. 여호야김 항복 — 3년 조공</name><description>BC 604 겨울 · BC 604년 겨울, 블레셋의 아스글론을 함락한 느부갓네살 앞에 유다 왕 여호야김이 항복하고 3년 동안 조공을 바쳤다. (왕하 24:1) / 📍 예루살렘: 성전산(모리아산) 기준 — 같은 곳의 여러 사건은 조금씩 흩어 표시</description><styleUrl>#p4FA3E0</styleUrl><Point><coordinates>35.23540,31.77810,0</coordinates></Point></Placemark>
<Placemark><name>4. 바벨론–애굽 충돌, 여호야김의 배반</name><description>BC 601 11~12월 · BC 601년 겨울, 바벨론과 애굽이 국경에서 맞붙어 양쪽 모두 큰 손실을 입었다. 이 틈에 여호야김이 바벨론을 배반했다. (왕하 24:1 · 바벨론 연대기) / 📍 애굽 국경(펠루시움): 펠루시움(텔 엘-파라마) — 애굽 동쪽 관문, BC 601 충돌 지점 대표(정확 위치 미상)</description><styleUrl>#p4FA3E0</styleUrl><Point><coordinates>32.54500,31.04200,0</coordinates></Point></Placemark>
<Placemark><name>6. 여호야김 사망, 여호야긴 즉위</name><description>BC 598.12월 · BC 598년 12월, 느부갓네살이 다시 출정했고 그 무렵(12월 9일경) 여호야김이 죽었다. 18세 아들 여호야긴이 왕이 되어 석 달을 다스렸다. (왕하 24:6-9 · 바벨론 연대기) / 📍 예루살렘: 성전산(모리아산) 기준 — 같은 곳의 여러 사건은 조금씩 흩어 표시</description><styleUrl>#p4FA3E0</styleUrl><Point><coordinates>35.26936,31.75650,0</coordinates></Point></Placemark>
<Placemark><name>7. 여호야긴 항복</name><description>BC 597.3.16 (아달월 2일) · BC 597년 3월 16일, 포위된 예루살렘에 느부갓네살이 직접 오자 여호야긴이 어머니 느후스다와 신하들과 함께 나가 항복했다. 이 날짜는 바벨론 연대기에 그대로 기록되어 있다. (왕하 24:10-12 · 바벨론 연대기) / 📍 예루살렘: 성전산(모리아산) 기준 — 같은 곳의 여러 사건은 조금씩 흩어 표시</description><styleUrl>#p4FA3E0</styleUrl><Point><coordinates>35.22394,31.82068,0</coordinates></Point></Placemark>
<Placemark><name>9. 시드기야(21세) 즉위</name><description>BC 597 봄 · 느부갓네살이 여호야긴의 삼촌 맛다니야의 이름을 시드기야로 바꿔 21세에 왕으로 세웠다. 어머니는 립나 사람 하무달. 그도 여호와 보시기에 악을 행했다. (왕하 24:17-19; 렘 52:1-2) / 📍 예루살렘: 성전산(모리아산) 기준 — 같은 곳의 여러 사건은 조금씩 흩어 표시</description><styleUrl>#p4FA3E0</styleUrl><Point><coordinates>35.21346,31.73583,0</coordinates></Point></Placemark>
<Placemark><name>10. 시드기야의 배반</name><description>BC 589경 · BC 589년경, 시드기야가 하나님의 이름으로 한 맹세를 깨고 애굽을 의지해 바벨론을 배반했다. (왕하 24:20; 렘 52:3; 겔 17:13-19) / 📍 예루살렘: 성전산(모리아산) 기준 — 같은 곳의 여러 사건은 조금씩 흩어 표시</description><styleUrl>#p4FA3E0</styleUrl><Point><coordinates>35.28322,31.79558,0</coordinates></Point></Placemark>
<Placemark><name>38. 여호야긴 석방 — 왕의 식탁</name><description>BC 561 3월 말~4월 초 (12월 27일 · 렘은 25일) · 새 왕 에윌므로닥이 즉위하던 해, 포로 37년째인 여호야긴을 감옥에서 풀어 주었다. 다른 포로 왕들보다 높은 자리를 주었고, 그는 죄수복을 벗고 죽는 날까지 왕의 식탁에서 먹었다. 바벨론 궁정 토판에도 '유다 왕 야우킨'의 식량 배급이 기록되어 있다. (왕하 25:27-30; 렘 52:31-34) / 📍 바벨론: 바빌론 유적(이라크 힐라 인근) 기준 — 확실</description><styleUrl>#p4FA3E0</styleUrl><Point><coordinates>44.40944,32.57898,0</coordinates></Point></Placemark>
<Placemark><name>3 → 바벨론 → 마리(유프라테스) → 갈그미스 → 하맛 → 립나 → 하솔 → 아스글론 → 예루살렘</name><description>여호야김 항복 — 3년 조공</description><styleUrl>#l4FA3E0</styleUrl><MultiGeometry><LineString><tessellate>1</tessellate><coordinates>44.42090,32.53640,0 44.22136,32.59677,0 44.02424,32.66137,0 43.82953,32.73021,0 43.63724,32.80330,0 43.44736,32.88061,0 43.25989,32.96217,0 43.07485,33.04797,0 42.89221,33.13800,0 42.71200,33.23228,0 42.53419,33.33079,0 42.35881,33.43354,0 42.18583,33.54052,0 42.01528,33.65175,0 41.84713,33.76721,0 41.68141,33.88691,0 41.51810,34.01086,0 41.35720,34.13903,0 41.19872,34.27145,0 41.04265,34.40811,0 40.88900,34.54900,0 40.71927,34.63026,0 40.55228,34.71497,0 40.38802,34.80313,0 40.22650,34.89474,0 40.06772,34.98979,0 39.91168,35.08830,0 39.75837,35.19026,0 39.60780,35.29566,0 39.45996,35.40452,0 39.31486,35.51682,0 39.17250,35.63258,0 39.03288,35.75178,0 38.89599,35.87444,0 38.76184,36.00054,0 38.63042,36.13009,0 38.50174,36.26310,0 38.37580,36.39955,0 38.25260,36.53945,0 38.13213,36.68280,0 38.01440,36.82960,0 37.97089,36.73034,0 37.92535,36.63258,0 37.87777,36.53633,0 37.82815,36.44160,0 37.77649,36.34837,0 37.72279,36.25665,0 37.66705,36.16644,0 37.60928,36.07773,0 37.54947,35.99054,0 37.48762,35.90486,0 37.42373,35.82068,0 37.35780,35.73801,0 37.28983,35.65686,0 37.21983,35.57721,0 37.14779,35.49907,0 37.07371,35.42244,0 36.99759,35.34731,0 36.91943,35.27370,0 36.83923,35.20160,0 36.75700,35.13100,0 36.74557,35.09415,0 36.73336,35.05776,0 36.72037,35.02181,0 36.70660,34.98632,0 36.69205,34.95128,0 36.67671,34.91670,0 36.66059,34.88257,0 36.64370,34.84888,0 36.62602,34.81566,0 36.60756,34.78288,0 36.58832,34.75056,0 36.56830,34.71868,0 36.54749,34.68727,0 36.52591,34.65630,0 36.50355,34.62579,0 36.48040,34.59572,0 36.45647,34.56611,0 36.43176,34.53696,0 36.40627,34.50825,0 36.38000,34.48000,0 36.35608,34.39759,0 36.33040,34.31616,0 36.30297,34.23570,0 36.27378,34.15622,0 36.24283,34.07771,0 36.21014,34.00018,0 36.17568,33.92361,0 36.13947,33.84803,0 36.10150,33.77342,0 36.06178,33.69978,0 36.02030,33.62712,0 35.97707,33.55543,0 35.93208,33.48471,0 35.88534,33.41498,0 35.83683,33.34621,0 35.78658,33.27842,0 35.73457,33.21160,0 35.68080,33.14576,0 35.62528,33.08089,0 35.56800,33.01700,0 35.53273,32.93787,0 35.49583,32.85997,0 35.45731,32.78327,0 35.41717,32.70780,0 35.37541,32.63354,0 35.33203,32.56049,0 35.28703,32.48867,0 35.24040,32.41806,0 35.19215,32.34866,0 35.14228,32.28048,0 35.09079,32.21352,0 35.03768,32.14778,0 34.98295,32.08325,0 34.92659,32.01993,0 34.86861,31.95784,0 34.80901,31.89696,0 34.74779,31.83729,0 34.68495,31.77885,0 34.62049,31.72161,0 34.55440,31.66560,0 34.58717,31.67899,0 34.62007,31.69156,0 34.65311,31.70331,0 34.68628,31.71425,0 34.71959,31.72437,0 34.75303,31.73367,0 34.78661,31.74216,0 34.82032,31.74983,0 34.85417,31.75668,0 34.88815,31.76271,0 34.92227,31.76793,0 34.95652,31.77233,0 34.99091,31.77591,0 35.02543,31.77867,0 35.06009,31.78062,0 35.09488,31.78175,0 35.12981,31.78206,0 35.16487,31.78156,0 35.20007,31.78024,0 35.23540,31.77810,0</coordinates></LineString><Polygon><outerBoundaryIs><LinearRing><coordinates>35.23540,31.77810,0 35.22152,31.78527,0 35.22065,31.77233,0 35.23540,31.77810,0</coordinates></LinearRing></outerBoundaryIs></Polygon></MultiGeometry></Placemark>
<Placemark><name>4 → 바벨론 → 마리(유프라테스) → 갈그미스 → 하맛 → 립나 → 하솔 → 가사 → 애굽 국경(펠루시움)</name><description>바벨론–애굽 충돌, 여호야김의 배반</description><styleUrl>#l4FA3E0</styleUrl><MultiGeometry><LineString><tessellate>1</tessellate><coordinates>44.42090,32.53640,0 44.26725,32.67729,0 44.11118,32.81395,0 43.95270,32.94637,0 43.79180,33.07454,0 43.62849,33.19849,0 43.46277,33.31819,0 43.29462,33.43365,0 43.12407,33.54488,0 42.95109,33.65186,0 42.77571,33.75461,0 42.59790,33.85312,0 42.41769,33.94740,0 42.23505,34.03743,0 42.05001,34.12323,0 41.86254,34.20479,0 41.67266,34.28210,0 41.48037,34.35519,0 41.28566,34.42403,0 41.08854,34.48863,0 40.88900,34.54900,0 40.77127,34.69580,0 40.65080,34.83915,0 40.52760,34.97905,0 40.40166,35.11550,0 40.27298,35.24851,0 40.14156,35.37806,0 40.00741,35.50416,0 39.87052,35.62682,0 39.73090,35.74602,0 39.58854,35.86178,0 39.44344,35.97408,0 39.29560,36.08294,0 39.14503,36.18834,0 38.99172,36.29030,0 38.83568,36.38881,0 38.67690,36.48386,0 38.51538,36.57547,0 38.35112,36.66363,0 38.18413,36.74834,0 38.01440,36.82960,0 37.93217,36.75900,0 37.85197,36.68690,0 37.77381,36.61329,0 37.69769,36.53816,0 37.62361,36.46153,0 37.55157,36.38339,0 37.48157,36.30374,0 37.41360,36.22259,0 37.34767,36.13992,0 37.28378,36.05574,0 37.22193,35.97006,0 37.16212,35.88287,0 37.10435,35.79416,0 37.04861,35.70395,0 36.99491,35.61223,0 36.94325,35.51900,0 36.89363,35.42427,0 36.84605,35.32802,0 36.80051,35.23026,0 36.75700,35.13100,0 36.73073,35.10275,0 36.70524,35.07404,0 36.68053,35.04489,0 36.65660,35.01528,0 36.63345,34.98521,0 36.61109,34.95470,0 36.58951,34.92373,0 36.56870,34.89232,0 36.54868,34.86044,0 36.52944,34.82812,0 36.51098,34.79534,0 36.49330,34.76212,0 36.47641,34.72843,0 36.46029,34.69430,0 36.44496,34.65971,0 36.43040,34.62468,0 36.41663,34.58919,0 36.40364,34.55324,0 36.39143,34.51685,0 36.38000,34.48000,0 36.32272,34.41611,0 36.26720,34.35124,0 36.21343,34.28540,0 36.16142,34.21858,0 36.11116,34.15079,0 36.06266,34.08202,0 36.01592,34.01229,0 35.97093,33.94157,0 35.92770,33.86988,0 35.88622,33.79722,0 35.84650,33.72358,0 35.80853,33.64897,0 35.77232,33.57339,0 35.73786,33.49682,0 35.70517,33.41929,0 35.67422,33.34078,0 35.64503,33.26130,0 35.61760,33.18084,0 35.59192,33.09941,0 35.56800,33.01700,0 35.49555,32.95394,0 35.42492,32.88955,0 35.35610,32.82383,0 35.28910,32.75679,0 35.22391,32.68843,0 35.16054,32.61874,0 35.09899,32.54773,0 35.03925,32.47539,0 34.98133,32.40173,0 34.92522,32.32674,0 34.87093,32.25043,0 34.81845,32.17279,0 34.76779,32.09383,0 34.71894,32.01354,0 34.67191,31.93193,0 34.62670,31.84899,0 34.58330,31.76473,0 34.54172,31.67915,0 34.50195,31.59224,0 34.46400,31.50400,0 34.36278,31.50278,0 34.26212,31.49925,0 34.16201,31.49342,0 34.06246,31.48529,0 33.96346,31.47486,0 33.86502,31.46212,0 33.76712,31.44708,0 33.66979,31.42973,0 33.57301,31.41009,0 33.47678,31.38814,0 33.38111,31.36389,0 33.28599,31.33733,0 33.19142,31.30848,0 33.09742,31.27732,0 33.00396,31.24386,0 32.91106,31.20809,0 32.81871,31.17002,0 32.72692,31.12965,0 32.63568,31.08698,0 32.54500,31.04200,0</coordinates></LineString><Polygon><outerBoundaryIs><LinearRing><coordinates>32.54500,31.04200,0 32.59106,31.04293,0 32.56986,31.07524,0 32.54500,31.04200,0</coordinates></LinearRing></outerBoundaryIs></Polygon></MultiGeometry></Placemark>
<Placemark><name>6 → 바벨론 → 마리(유프라테스) → 갈그미스 → 하맛 → 립나 → 하솔 → 예루살렘</name><description>여호야김 사망, 여호야긴 즉위</description><styleUrl>#l4FA3E0</styleUrl><MultiGeometry><LineString><tessellate>1</tessellate><coordinates>44.42090,32.53640,0 44.22136,32.59677,0 44.02424,32.66137,0 43.82953,32.73021,0 43.63724,32.80330,0 43.44736,32.88061,0 43.25989,32.96217,0 43.07485,33.04797,0 42.89221,33.13800,0 42.71200,33.23228,0 42.53419,33.33079,0 42.35881,33.43354,0 42.18583,33.54052,0 42.01528,33.65175,0 41.84713,33.76721,0 41.68141,33.88691,0 41.51810,34.01086,0 41.35720,34.13903,0 41.19872,34.27145,0 41.04265,34.40811,0 40.88900,34.54900,0 40.71927,34.63026,0 40.55228,34.71497,0 40.38802,34.80313,0 40.22650,34.89474,0 40.06772,34.98979,0 39.91168,35.08830,0 39.75837,35.19026,0 39.60780,35.29566,0 39.45996,35.40452,0 39.31486,35.51682,0 39.17250,35.63258,0 39.03288,35.75178,0 38.89599,35.87444,0 38.76184,36.00054,0 38.63042,36.13009,0 38.50174,36.26310,0 38.37580,36.39955,0 38.25260,36.53945,0 38.13213,36.68280,0 38.01440,36.82960,0 37.97089,36.73034,0 37.92535,36.63258,0 37.87777,36.53633,0 37.82815,36.44160,0 37.77649,36.34837,0 37.72279,36.25665,0 37.66705,36.16644,0 37.60928,36.07773,0 37.54947,35.99054,0 37.48762,35.90486,0 37.42373,35.82068,0 37.35780,35.73801,0 37.28983,35.65686,0 37.21983,35.57721,0 37.14779,35.49907,0 37.07371,35.42244,0 36.99759,35.34731,0 36.91943,35.27370,0 36.83923,35.20160,0 36.75700,35.13100,0 36.74557,35.09415,0 36.73336,35.05776,0 36.72037,35.02181,0 36.70660,34.98632,0 36.69205,34.95128,0 36.67671,34.91670,0 36.66059,34.88257,0 36.64370,34.84888,0 36.62602,34.81566,0 36.60756,34.78288,0 36.58832,34.75056,0 36.56830,34.71868,0 36.54749,34.68727,0 36.52591,34.65630,0 36.50355,34.62579,0 36.48040,34.59572,0 36.45647,34.56611,0 36.43176,34.53696,0 36.40627,34.50825,0 36.38000,34.48000,0 36.35608,34.39759,0 36.33040,34.31616,0 36.30297,34.23570,0 36.27378,34.15622,0 36.24283,34.07771,0 36.21014,34.00018,0 36.17568,33.92361,0 36.13947,33.84803,0 36.10150,33.77342,0 36.06178,33.69978,0 36.02030,33.62712,0 35.97707,33.55543,0 35.93208,33.48471,0 35.88534,33.41498,0 35.83683,33.34621,0 35.78658,33.27842,0 35.73457,33.21160,0 35.68080,33.14576,0 35.62528,33.08089,0 35.56800,33.01700,0 35.56549,32.95126,0 35.56150,32.88593,0 35.55602,32.82099,0 35.54905,32.75645,0 35.54060,32.69231,0 35.53066,32.62857,0 35.51923,32.56523,0 35.50632,32.50228,0 35.49192,32.43974,0 35.47603,32.37759,0 35.45866,32.31585,0 35.43980,32.25450,0 35.41945,32.19356,0 35.39762,32.13301,0 35.37430,32.07286,0 35.34949,32.01311,0 35.32320,31.95376,0 35.29542,31.89481,0 35.26615,31.83625,0 35.23540,31.77810,0</coordinates></LineString><Polygon><outerBoundaryIs><LinearRing><coordinates>35.23540,31.77810,0 35.25906,31.79403,0 35.23309,31.80368,0 35.23540,31.77810,0</coordinates></LinearRing></outerBoundaryIs></Polygon></MultiGeometry></Placemark>
</Folder>
<Folder><name>★ 10/18 본문 (왕하 25:1-12, 21)</name>
<Placemark><name>11. 예루살렘 포위 시작</name><description>BC 588.1.15 (시드기야 9년 10월 10일) · BC 588년 1월 15일, 느부갓네살이 모든 군대를 이끌고 와서 예루살렘 둘레에 토성을 쌓고 포위했다. 바벨론의 에스겔도 같은 날을 기록했다. 왕은 시리아의 립나에 본진을 두었다. (왕하 25:1; 렘 39:1; 52:4; 겔 24:1-2) / 📍 예루살렘: 성전산(모리아산) 기준 — 같은 곳의 여러 사건은 조금씩 흩어 표시</description><styleUrl>#pFF4D4D</styleUrl><Point><coordinates>35.18548,31.79869,0</coordinates></Point></Placemark>
<Placemark><name>13. 기근, 그리고 성벽이 뚫림</name><description>BC 586.7.18 (11년 4월 9일) · BC 586년 7월 18일, 18개월 포위 끝에 성 안의 식량이 다 떨어지고 성벽이 뚫렸다. 바벨론 대신들이 들어와 중문에 앉았다—네르갈사레셀, 삼갈느보, 살스김(이 이름이 새겨진 바벨론 토판이 2007년 확인됨). (왕하 25:2-4; 렘 39:2-3; 52:5-7) / 📍 예루살렘: 성전산(모리아산) 기준 — 같은 곳의 여러 사건은 조금씩 흩어 표시</description><styleUrl>#pFF4D4D</styleUrl><Point><coordinates>35.25324,31.83507,0</coordinates></Point></Placemark>
<Placemark><name>14. 유다 군대의 야간 도주 — 시드기야도 함께</name><description>BC 586.7.18 밤 · 그날 밤, 바벨론 군대가 성을 에워싸고 있는데도 유다 군대가 왕의 동산 곁 '두 성벽 사이의 문'으로 빠져나가 요단 계곡(아라바) 쪽으로 도망했다. 시드기야 왕도 함께였다(렘 39:4). (왕하 25:4; 렘 39:4; 52:7) / 📍 아라바 길(광야): 예루살렘에서 여리고·요단 계곡으로 내려가는 광야 길 위 임의 지점 — 도주 방향 표시용</description><styleUrl>#pFF4D4D</styleUrl><Point><coordinates>35.34000,31.81000,0</coordinates></Point></Placemark>
<Placemark><name>15. 여리고 평지에서 시드기야 생포</name><description>BC 586.7월 하순 · 바벨론 군대가 뒤쫓아와 여리고 평지에서 시드기야를 사로잡았고, 그의 군대는 뿔뿔이 흩어졌다. 여리고는 이스라엘이 처음 가나안에 들어와 무너뜨린 성이었다. (왕하 25:5; 렘 39:5; 52:8) / 📍 여리고 평지: 여리고 남동쪽 요단 평지 — 시드기야가 붙잡힌 곳(대략)</description><styleUrl>#pFF4D4D</styleUrl><Point><coordinates>35.50500,31.84000,0</coordinates></Point></Placemark>
<Placemark><name>16. 립나의 심판 — 아들들의 죽음, 두 눈이 뽑힘</name><description>BC 586.7~8월 · 시드기야는 하맛 땅 립나로 끌려가 느부갓네살 앞에서 심문을 받았다. 그의 눈앞에서 아들들과 유다의 대신들이 처형되었고, 그 후 그의 두 눈이 뽑혔다. (왕하 25:6-7; 렘 39:5-7; 52:9-11) / 📍 립나: 시리아 립나(리블라) 유적 기준 — 확실</description><styleUrl>#pFF4D4D</styleUrl><Point><coordinates>36.38000,34.48000,0</coordinates></Point></Placemark>
<Placemark><name>16. 시드기야, 바벨론 감옥에서 죽을 때까지</name><description>BC 586 이후 · 쇠사슬에 묶인 시드기야는 바벨론으로 끌려가 죽는 날까지 감옥에 갇혔다. '바벨론 왕의 눈을 보리라'(렘 34:3)와 '그 땅을 보지 못하리라'(겔 12:13)가 둘 다 이루어졌다. (렘 52:11; 34:3; 겔 12:13) / 📍 바벨론: 바빌론 유적(이라크 힐라 인근) 기준 — 확실</description><styleUrl>#pFF4D4D</styleUrl><Point><coordinates>44.42313,32.51104,0</coordinates></Point></Placemark>
<Placemark><name>17. ★ 성전이 불타던 날</name><description>BC 586.8.14 (19년 5월 7일 · 렘 52:12은 10일=8.17) · 경호대장 느부사라단이 예루살렘에 와서 여호와의 성전과 왕궁, 모든 집과 큰 건물을 불사르고 성벽을 헐었다. 렘 52:12은 10일로 기록(7일 도착·10일 방화로 보기도 함). 솔로몬 성전이 선 지 약 370년 만이었고, 유대인은 지금도 아브월 9일에 금식하며 이날을 기억한다. (왕하 25:8-10; 렘 39:8; 52:12-14) / 📍 예루살렘: 성전산(모리아산) 기준 — 같은 곳의 여러 사건은 조금씩 흩어 표시</description><styleUrl>#pFF4D4D</styleUrl><Point><coordinates>35.18146,31.74681,0</coordinates></Point></Placemark>
<Placemark><name>19. 남은 백성 포로 — 가장 가난한 자만 남음</name><description>BC 586.8월 · 느부사라단이 성에 남은 백성과 항복한 사람들을 포로로 끌고 갔다. 포로들은 예루살렘 북쪽 라마에 모였다가 떠났다(렘 40:1). 가장 가난한 사람들만 남겨 포도원과 밭을 맡겼다. 렘 52:29은 이때 예루살렘 사람 832명이라고 기록한다. (왕하 25:11-12; 렘 39:9-10; 52:15-16, 29) / 📍 바벨론: 바빌론 유적(이라크 힐라 인근) 기준 — 확실</description><styleUrl>#pFF4D4D</styleUrl><Point><coordinates>44.38545,32.53012,0</coordinates></Point></Placemark>
<Placemark><name>22. 지도자들 처형 — '유다가 본토에서 떠났더라'</name><description>BC 586.8월 · 대제사장 스라야, 부제사장 스바냐, 성전 문지기 세 명, 군 지휘관, 왕의 보좌관(왕하 5명·렘 7명), 징집 서기관, 백성 60명이 립나로 끌려가 처형되었다. '이와 같이 유다가 사로잡혀 본토에서 떠났더라'(왕하 25:21). (왕하 25:18-21; 렘 52:24-27) / 📍 립나: 시리아 립나(리블라) 유적 기준 — 확실</description><styleUrl>#pFF4D4D</styleUrl><Point><coordinates>36.36673,34.49216,0</coordinates></Point></Placemark>
<Placemark><name>11 → 바벨론 → 마리(유프라테스) → 갈그미스 → 하맛 → 립나 → 하솔 → 예루살렘</name><description>예루살렘 포위 시작</description><styleUrl>#lFF4D4D</styleUrl><MultiGeometry><LineString><tessellate>1</tessellate><coordinates>44.42090,32.53640,0 44.26725,32.67729,0 44.11118,32.81395,0 43.95270,32.94637,0 43.79180,33.07454,0 43.62849,33.19849,0 43.46277,33.31819,0 43.29462,33.43365,0 43.12407,33.54488,0 42.95109,33.65186,0 42.77571,33.75461,0 42.59790,33.85312,0 42.41769,33.94740,0 42.23505,34.03743,0 42.05001,34.12323,0 41.86254,34.20479,0 41.67266,34.28210,0 41.48037,34.35519,0 41.28566,34.42403,0 41.08854,34.48863,0 40.88900,34.54900,0 40.77127,34.69580,0 40.65080,34.83915,0 40.52760,34.97905,0 40.40166,35.11550,0 40.27298,35.24851,0 40.14156,35.37806,0 40.00741,35.50416,0 39.87052,35.62682,0 39.73090,35.74602,0 39.58854,35.86178,0 39.44344,35.97408,0 39.29560,36.08294,0 39.14503,36.18834,0 38.99172,36.29030,0 38.83568,36.38881,0 38.67690,36.48386,0 38.51538,36.57547,0 38.35112,36.66363,0 38.18413,36.74834,0 38.01440,36.82960,0 37.93217,36.75900,0 37.85197,36.68690,0 37.77381,36.61329,0 37.69769,36.53816,0 37.62361,36.46153,0 37.55157,36.38339,0 37.48157,36.30374,0 37.41360,36.22259,0 37.34767,36.13992,0 37.28378,36.05574,0 37.22193,35.97006,0 37.16212,35.88287,0 37.10435,35.79416,0 37.04861,35.70395,0 36.99491,35.61223,0 36.94325,35.51900,0 36.89363,35.42427,0 36.84605,35.32802,0 36.80051,35.23026,0 36.75700,35.13100,0 36.73073,35.10275,0 36.70524,35.07404,0 36.68053,35.04489,0 36.65660,35.01528,0 36.63345,34.98521,0 36.61109,34.95470,0 36.58951,34.92373,0 36.56870,34.89232,0 36.54868,34.86044,0 36.52944,34.82812,0 36.51098,34.79534,0 36.49330,34.76212,0 36.47641,34.72843,0 36.46029,34.69430,0 36.44496,34.65971,0 36.43040,34.62468,0 36.41663,34.58919,0 36.40364,34.55324,0 36.39143,34.51685,0 36.38000,34.48000,0 36.32272,34.41611,0 36.26720,34.35124,0 36.21343,34.28540,0 36.16142,34.21858,0 36.11116,34.15079,0 36.06266,34.08202,0 36.01592,34.01229,0 35.97093,33.94157,0 35.92770,33.86988,0 35.88622,33.79722,0 35.84650,33.72358,0 35.80853,33.64897,0 35.77232,33.57339,0 35.73786,33.49682,0 35.70517,33.41929,0 35.67422,33.34078,0 35.64503,33.26130,0 35.61760,33.18084,0 35.59192,33.09941,0 35.56800,33.01700,0 35.53725,32.95885,0 35.50798,32.90029,0 35.48020,32.84134,0 35.45391,32.78199,0 35.42910,32.72224,0 35.40578,32.66209,0 35.38395,32.60154,0 35.36360,32.54060,0 35.34474,32.47925,0 35.32737,32.41751,0 35.31148,32.35536,0 35.29708,32.29282,0 35.28417,32.22987,0 35.27274,32.16653,0 35.26280,32.10279,0 35.25435,32.03865,0 35.24738,31.97411,0 35.24190,31.90917,0 35.23791,31.84384,0 35.23540,31.77810,0</coordinates></LineString><Polygon><outerBoundaryIs><LinearRing><coordinates>35.23540,31.77810,0 35.25068,31.80022,0 35.22237,31.80124,0 35.23540,31.77810,0</coordinates></LinearRing></outerBoundaryIs></Polygon></MultiGeometry></Placemark>
<Placemark><name>14 → 예루살렘 → 왕의 동산(두 성벽 사이 문) → 베다니 길(감람산 동편) → 아라바 길(광야)</name><description>유다 군대의 야간 도주 — 시드기야도 함께</description><styleUrl>#lFF4D4D</styleUrl><MultiGeometry><LineString><tessellate>1</tessellate><coordinates>35.23540,31.77810,0 35.23548,31.77767,0 35.23555,31.77723,0 35.23560,31.77680,0 35.23565,31.77636,0 35.23569,31.77593,0 35.23571,31.77550,0 35.23573,31.77507,0 35.23574,31.77464,0 35.23573,31.77421,0 35.23572,31.77378,0 35.23569,31.77335,0 35.23566,31.77292,0 35.23561,31.77249,0 35.23555,31.77206,0 35.23549,31.77163,0 35.23541,31.77120,0 35.23532,31.77078,0 35.23523,31.77035,0 35.23512,31.76993,0 35.23500,31.76950,0 35.23633,31.76988,0 35.23767,31.77023,0 35.23900,31.77055,0 35.24034,31.77084,0 35.24168,31.77109,0 35.24302,31.77131,0 35.24437,31.77150,0 35.24571,31.77166,0 35.24706,31.77178,0 35.24841,31.77187,0 35.24976,31.77193,0 35.25111,31.77196,0 35.25247,31.77195,0 35.25382,31.77191,0 35.25518,31.77184,0 35.25654,31.77174,0 35.25790,31.77160,0 35.25927,31.77143,0 35.26063,31.77123,0 35.26200,31.77100,0 35.26546,31.77384,0 35.26896,31.77658,0 35.27251,31.77924,0 35.27610,31.78180,0 35.27974,31.78426,0 35.28343,31.78663,0 35.28717,31.78891,0 35.29095,31.79109,0 35.29478,31.79318,0 35.29866,31.79518,0 35.30258,31.79708,0 35.30655,31.79889,0 35.31057,31.80061,0 35.31463,31.80223,0 35.31875,31.80376,0 35.32290,31.80520,0 35.32711,31.80654,0 35.33136,31.80778,0 35.33566,31.80894,0 35.34000,31.81000,0</coordinates></LineString><Polygon><outerBoundaryIs><LinearRing><coordinates>35.34000,31.81000,0 35.32615,31.81233,0 35.32998,31.80155,0 35.34000,31.81000,0</coordinates></LinearRing></outerBoundaryIs></Polygon></MultiGeometry></Placemark>
<Placemark><name>15 → 아라바 길(광야) → 여리고 평지</name><description>여리고 평지에서 시드기야 생포</description><styleUrl>#lFF4D4D</styleUrl><MultiGeometry><LineString><tessellate>1</tessellate><coordinates>35.34000,31.81000,0 35.34859,31.80962,0 35.35715,31.80944,0 35.36567,31.80945,0 35.37415,31.80966,0 35.38260,31.81007,0 35.39101,31.81068,0 35.39939,31.81149,0 35.40773,31.81250,0 35.41603,31.81370,0 35.42430,31.81510,0 35.43253,31.81670,0 35.44073,31.81850,0 35.44889,31.82049,0 35.45701,31.82268,0 35.46510,31.82507,0 35.47315,31.82766,0 35.48117,31.83045,0 35.48915,31.83344,0 35.49709,31.83662,0 35.50500,31.84000,0</coordinates></LineString><Polygon><outerBoundaryIs><LinearRing><coordinates>35.50500,31.84000,0 35.49088,31.84042,0 35.49669,31.83029,0 35.50500,31.84000,0</coordinates></LinearRing></outerBoundaryIs></Polygon></MultiGeometry></Placemark>
<Placemark><name>16 → 여리고 평지 → 벧산 → 하솔 → 립나</name><description>립나의 심판 — 아들들의 죽음, 두 눈이 뽑힘</description><styleUrl>#lFF4D4D</styleUrl><MultiGeometry><LineString><tessellate>1</tessellate><coordinates>35.50500,31.84000,0 35.49741,31.87283,0 35.49061,31.90566,0 35.48460,31.93849,0 35.47937,31.97132,0 35.47494,32.00416,0 35.47129,32.03700,0 35.46843,32.06984,0 35.46636,32.10268,0 35.46507,32.13553,0 35.46458,32.16838,0 35.46487,32.20123,0 35.46596,32.23408,0 35.46783,32.26694,0 35.47049,32.29980,0 35.47393,32.33266,0 35.47817,32.36552,0 35.48320,32.39839,0 35.48901,32.43126,0 35.49561,32.46413,0 35.50300,32.49700,0 35.50032,32.52374,0 35.49827,32.55040,0 35.49684,32.57699,0 35.49603,32.60350,0 35.49585,32.62993,0 35.49629,32.65628,0 35.49736,32.68255,0 35.49905,32.70874,0 35.50136,32.73486,0 35.50430,32.76090,0 35.50786,32.78686,0 35.51205,32.81274,0 35.51686,32.83855,0 35.52229,32.86428,0 35.52835,32.88993,0 35.53503,32.91550,0 35.54234,32.94099,0 35.55027,32.96640,0 35.55882,32.99174,0 35.56800,33.01700,0 35.59192,33.09941,0 35.61760,33.18084,0 35.64503,33.26130,0 35.67422,33.34078,0 35.70517,33.41929,0 35.73786,33.49682,0 35.77232,33.57339,0 35.80853,33.64897,0 35.84650,33.72358,0 35.88622,33.79722,0 35.92770,33.86988,0 35.97093,33.94157,0 36.01592,34.01229,0 36.06266,34.08202,0 36.11116,34.15079,0 36.16142,34.21858,0 36.21343,34.28540,0 36.26720,34.35124,0 36.32272,34.41611,0 36.38000,34.48000,0</coordinates></LineString><Polygon><outerBoundaryIs><LinearRing><coordinates>36.38000,34.48000,0 36.34356,34.46524,0 36.37447,34.44685,0 36.38000,34.48000,0</coordinates></LinearRing></outerBoundaryIs></Polygon></MultiGeometry></Placemark>
<Placemark><name>16 → 립나 → 하맛 → 갈그미스 → 마리(유프라테스) → 바벨론</name><description>시드기야, 바벨론 감옥에서 죽을 때까지</description><styleUrl>#lFF4D4D</styleUrl><MultiGeometry><LineString><tessellate>1</tessellate><coordinates>36.38000,34.48000,0 36.40627,34.50825,0 36.43176,34.53696,0 36.45647,34.56611,0 36.48040,34.59572,0 36.50354,34.62579,0 36.52591,34.65630,0 36.54749,34.68727,0 36.56830,34.71868,0 36.58832,34.75056,0 36.60756,34.78288,0 36.62602,34.81566,0 36.64370,34.84888,0 36.66059,34.88257,0 36.67671,34.91670,0 36.69205,34.95128,0 36.70660,34.98632,0 36.72037,35.02181,0 36.73336,35.05776,0 36.74557,35.09415,0 36.75700,35.13100,0 36.83923,35.20160,0 36.91943,35.27370,0 36.99759,35.34731,0 37.07371,35.42244,0 37.14779,35.49907,0 37.21983,35.57721,0 37.28983,35.65686,0 37.35780,35.73801,0 37.42373,35.82068,0 37.48762,35.90486,0 37.54947,35.99054,0 37.60928,36.07773,0 37.66705,36.16644,0 37.72279,36.25665,0 37.77649,36.34837,0 37.82815,36.44160,0 37.87777,36.53633,0 37.92535,36.63258,0 37.97089,36.73034,0 38.01440,36.82960,0 38.13213,36.68280,0 38.25260,36.53945,0 38.37580,36.39955,0 38.50174,36.26310,0 38.63042,36.13009,0 38.76184,36.00054,0 38.89599,35.87444,0 39.03288,35.75178,0 39.17250,35.63258,0 39.31486,35.51682,0 39.45996,35.40452,0 39.60780,35.29566,0 39.75837,35.19026,0 39.91168,35.08830,0 40.06772,34.98979,0 40.22650,34.89474,0 40.38802,34.80313,0 40.55228,34.71497,0 40.71927,34.63026,0 40.88900,34.54900,0 41.04265,34.40811,0 41.19872,34.27145,0 41.35720,34.13903,0 41.51810,34.01086,0 41.68141,33.88691,0 41.84713,33.76721,0 42.01528,33.65175,0 42.18583,33.54052,0 42.35881,33.43354,0 42.53419,33.33079,0 42.71200,33.23228,0 42.89221,33.13800,0 43.07485,33.04797,0 43.25989,32.96217,0 43.44736,32.88061,0 43.63724,32.80330,0 43.82953,32.73021,0 44.02424,32.66137,0 44.22136,32.59677,0 44.42090,32.53640,0</coordinates></LineString><Polygon><outerBoundaryIs><LinearRing><coordinates>44.42090,32.53640,0 44.37373,32.58133,0 44.35034,32.52856,0 44.42090,32.53640,0</coordinates></LinearRing></outerBoundaryIs></Polygon></MultiGeometry></Placemark>
<Placemark><name>17 → 립나 → 하솔 → 예루살렘</name><description>★ 성전이 불타던 날</description><styleUrl>#lFF4D4D</styleUrl><MultiGeometry><LineString><tessellate>1</tessellate><coordinates>36.38000,34.48000,0 36.35608,34.39759,0 36.33040,34.31616,0 36.30297,34.23570,0 36.27378,34.15622,0 36.24283,34.07771,0 36.21014,34.00018,0 36.17568,33.92361,0 36.13947,33.84803,0 36.10150,33.77342,0 36.06178,33.69978,0 36.02030,33.62712,0 35.97707,33.55543,0 35.93208,33.48471,0 35.88534,33.41498,0 35.83683,33.34621,0 35.78658,33.27842,0 35.73457,33.21160,0 35.68080,33.14576,0 35.62528,33.08089,0 35.56800,33.01700,0 35.56549,32.95126,0 35.56150,32.88593,0 35.55602,32.82099,0 35.54905,32.75645,0 35.54060,32.69231,0 35.53066,32.62857,0 35.51923,32.56523,0 35.50632,32.50228,0 35.49192,32.43974,0 35.47603,32.37759,0 35.45866,32.31585,0 35.43980,32.25450,0 35.41945,32.19356,0 35.39762,32.13301,0 35.37430,32.07286,0 35.34949,32.01311,0 35.32320,31.95376,0 35.29542,31.89481,0 35.26615,31.83625,0 35.23540,31.77810,0</coordinates></LineString><Polygon><outerBoundaryIs><LinearRing><coordinates>35.23540,31.77810,0 35.25906,31.79403,0 35.23309,31.80368,0 35.23540,31.77810,0</coordinates></LinearRing></outerBoundaryIs></Polygon></MultiGeometry></Placemark>
<Placemark><name>19 → 예루살렘 → 라마 → 하솔 → 립나 → 하맛 → 갈그미스 → 마리(유프라테스) → 바벨론</name><description>남은 백성 포로 — 가장 가난한 자만 남음</description><styleUrl>#lFF4D4D</styleUrl><MultiGeometry><LineString><tessellate>1</tessellate><coordinates>35.23540,31.77810,0 35.23288,31.78146,0 35.23044,31.78487,0 35.22810,31.78831,0 35.22584,31.79180,0 35.22368,31.79532,0 35.22161,31.79889,0 35.21962,31.80249,0 35.21773,31.80614,0 35.21592,31.80982,0 35.21421,31.81355,0 35.21258,31.81731,0 35.21105,31.82112,0 35.20960,31.82496,0 35.20825,31.82885,0 35.20698,31.83277,0 35.20580,31.83674,0 35.20472,31.84074,0 35.20372,31.84479,0 35.20282,31.84887,0 35.20200,31.85300,0 35.20703,31.91537,0 35.21346,31.97731,0 35.22128,32.03880,0 35.23050,32.09985,0 35.24112,32.16047,0 35.25313,32.22065,0 35.26655,32.28038,0 35.28135,32.33968,0 35.29756,32.39854,0 35.31516,32.45696,0 35.33416,32.51494,0 35.35455,32.57248,0 35.37635,32.62958,0 35.39953,32.68625,0 35.42412,32.74247,0 35.45010,32.79825,0 35.47748,32.85360,0 35.50626,32.90851,0 35.53643,32.96297,0 35.56800,33.01700,0 35.59192,33.09941,0 35.61760,33.18084,0 35.64503,33.26130,0 35.67422,33.34078,0 35.70517,33.41929,0 35.73786,33.49682,0 35.77232,33.57339,0 35.80853,33.64897,0 35.84650,33.72358,0 35.88622,33.79722,0 35.92770,33.86988,0 35.97093,33.94157,0 36.01592,34.01229,0 36.06266,34.08202,0 36.11116,34.15079,0 36.16142,34.21858,0 36.21343,34.28540,0 36.26720,34.35124,0 36.32272,34.41611,0 36.38000,34.48000,0 36.39143,34.51685,0 36.40364,34.55324,0 36.41663,34.58919,0 36.43040,34.62468,0 36.44496,34.65971,0 36.46029,34.69430,0 36.47641,34.72843,0 36.49330,34.76212,0 36.51098,34.79534,0 36.52944,34.82812,0 36.54868,34.86044,0 36.56870,34.89232,0 36.58951,34.92373,0 36.61109,34.95470,0 36.63345,34.98521,0 36.65660,35.01528,0 36.68053,35.04489,0 36.70524,35.07404,0 36.73073,35.10275,0 36.75700,35.13100,0 36.80051,35.23026,0 36.84605,35.32802,0 36.89363,35.42427,0 36.94325,35.51900,0 36.99491,35.61223,0 37.04861,35.70395,0 37.10435,35.79416,0 37.16212,35.88287,0 37.22193,35.97006,0 37.28378,36.05574,0 37.34767,36.13992,0 37.41360,36.22259,0 37.48157,36.30374,0 37.55157,36.38339,0 37.62361,36.46153,0 37.69769,36.53816,0 37.77381,36.61329,0 37.85197,36.68690,0 37.93217,36.75900,0 38.01440,36.82960,0 38.18413,36.74834,0 38.35112,36.66363,0 38.51538,36.57547,0 38.67690,36.48386,0 38.83568,36.38881,0 38.99172,36.29030,0 39.14503,36.18834,0 39.29560,36.08294,0 39.44344,35.97408,0 39.58854,35.86178,0 39.73090,35.74602,0 39.87052,35.62682,0 40.00741,35.50416,0 40.14156,35.37806,0 40.27298,35.24851,0 40.40166,35.11550,0 40.52760,34.97905,0 40.65080,34.83915,0 40.77127,34.69580,0 40.88900,34.54900,0 41.08854,34.48863,0 41.28566,34.42403,0 41.48037,34.35519,0 41.67266,34.28210,0 41.86254,34.20479,0 42.05001,34.12323,0 42.23505,34.03743,0 42.41769,33.94740,0 42.59790,33.85312,0 42.77571,33.75461,0 42.95109,33.65186,0 43.12407,33.54488,0 43.29462,33.43365,0 43.46277,33.31819,0 43.62849,33.19849,0 43.79180,33.07454,0 43.95270,32.94637,0 44.11118,32.81395,0 44.26725,32.67729,0 44.42090,32.53640,0</coordinates></LineString><Polygon><outerBoundaryIs><LinearRing><coordinates>44.42090,32.53640,0 44.40218,32.59429,0 44.35351,32.55568,0 44.42090,32.53640,0</coordinates></LinearRing></outerBoundaryIs></Polygon></MultiGeometry></Placemark>
<Placemark><name>22 → 예루살렘 → 하솔 → 립나</name><description>지도자들 처형 — '유다가 본토에서 떠났더라'</description><styleUrl>#lFF4D4D</styleUrl><MultiGeometry><LineString><tessellate>1</tessellate><coordinates>35.23540,31.77810,0 35.26615,31.83625,0 35.29542,31.89481,0 35.32320,31.95376,0 35.34949,32.01311,0 35.37430,32.07286,0 35.39762,32.13301,0 35.41945,32.19356,0 35.43980,32.25450,0 35.45866,32.31585,0 35.47603,32.37759,0 35.49192,32.43974,0 35.50632,32.50228,0 35.51923,32.56523,0 35.53066,32.62857,0 35.54060,32.69231,0 35.54905,32.75645,0 35.55602,32.82099,0 35.56150,32.88593,0 35.56549,32.95126,0 35.56800,33.01700,0 35.62528,33.08089,0 35.68080,33.14576,0 35.73457,33.21160,0 35.78658,33.27842,0 35.83684,33.34621,0 35.88534,33.41498,0 35.93208,33.48471,0 35.97707,33.55543,0 36.02030,33.62712,0 36.06178,33.69978,0 36.10150,33.77342,0 36.13947,33.84803,0 36.17568,33.92361,0 36.21014,34.00018,0 36.24283,34.07771,0 36.27378,34.15622,0 36.30297,34.23570,0 36.33040,34.31616,0 36.35608,34.39759,0 36.38000,34.48000,0</coordinates></LineString><Polygon><outerBoundaryIs><LinearRing><coordinates>36.38000,34.48000,0 36.35283,34.45514,0 36.38981,34.44753,0 36.38000,34.48000,0</coordinates></LinearRing></outerBoundaryIs></Polygon></MultiGeometry></Placemark>
</Folder>
<Folder><name>예레미야·에벳멜렉</name>
<Placemark><name>12. 감옥의 예레미야, 에벳멜렉 구원 약속</name><description>BC 588~586 (포위 중) · 포위가 이어지던 중, 궁중 감옥 뜰에 갇힌 예레미야에게 하나님이 구스 사람 에벳멜렉을 위한 말씀을 주셨다. 그는 진흙 구덩이에서 예레미야를 건져낸 사람이었다. '네가 나를 신뢰하였으니 칼에 죽지 않고 살리라.' (렘 39:15-18; 38:7-13) / 📍 예루살렘: 성전산(모리아산) 기준 — 같은 곳의 여러 사건은 조금씩 흩어 표시</description><styleUrl>#pC78BE8</styleUrl><Point><coordinates>35.25954,31.72655,0</coordinates></Point></Placemark>
<Placemark><name>20. 예레미야, 궁중 감옥에서 풀려남 · 에벳멜렉 구원</name><description>BC 586.8월 · 느부갓네살이 예레미야를 잘 돌보라고 명령했고, 바벨론 대신들이 그를 궁중 감옥에서 꺼내 그달랴에게 맡겼다. 에벳멜렉에게 하신 구원의 약속도 이루어졌다. (렘 39:11-14) / 📍 예루살렘: 성전산(모리아산) 기준 — 같은 곳의 여러 사건은 조금씩 흩어 표시</description><styleUrl>#pC78BE8</styleUrl><Point><coordinates>35.29879,31.76420,0</coordinates></Point></Placemark>
<Placemark><name>21. 라마에서 쇠사슬이 풀림 → 미스바로</name><description>BC 586.8월 · 예레미야는 다시 포로 행렬에 섞여 쇠사슬에 묶인 채 라마까지 끌려갔다. 느부사라단이 그를 풀어 주며 '네 하나님이 말씀하신 대로 행하셨다'고 말하고, 양식과 선물을 주어 보냈다. 예레미야는 미스바의 그달랴에게 갔다. (렘 40:1-6) / 📍 미스바: 텔 엔-나스베 유적 기준 — 통설(네비 삼윌설도 있음)</description><styleUrl>#pC78BE8</styleUrl><Point><coordinates>35.21700,31.88700,0</coordinates></Point></Placemark>
<Placemark><name>32. 기도 요청 — '무슨 말씀이든 순종하겠습니다'</name><description>BC 586 말 · 지휘관들과 온 백성이 예레미야에게 와서 '하나님 말씀이 좋든 싫든 그대로 순종하겠다'고 맹세하며 기도를 부탁했다. (렘 42:1-6) / 📍 게룻김함: 위치 불명 — '베들레헴 근처'(렘 41:17), 베들레헴 북쪽으로 임의 표시</description><styleUrl>#pC78BE8</styleUrl><Point><coordinates>35.20173,31.74216,0</coordinates></Point></Placemark>
<Placemark><name>33. 하나님의 응답 — '이 땅에 머물라'</name><description>10일 후 · 열흘 뒤 하나님의 응답이 왔다. '이 땅에 머물면 내가 너희를 세우고 헐지 않으리라. 바벨론 왕을 두려워 말라. 그러나 애굽으로 가면 너희가 두려워하는 칼과 기근이 거기까지 따라가리라.' (렘 42:7-22) / 📍 게룻김함: 위치 불명 — '베들레헴 근처'(렘 41:17), 베들레헴 북쪽으로 임의 표시</description><styleUrl>#pC78BE8</styleUrl><Point><coordinates>35.21723,31.70464,0</coordinates></Point></Placemark>
<Placemark><name>35. 바로 궁 입구에 돌을 묻는 예언</name><description>다바네스에서 · 다바네스에서 예레미야는 사람들이 보는 앞에서 바로 궁 입구 벽돌 바닥에 큰 돌들을 묻었다. '바벨론 왕이 와서 이 돌 위에 보좌를 놓으리라.' (렘 43:8-10) / 📍 다바네스: 텔 데펜네(나일 삼각주 동부) 기준 — 통설</description><styleUrl>#pC78BE8</styleUrl><Point><coordinates>32.18673,30.98416,0</coordinates></Point></Placemark>
<Placemark><name>35. 헬리오폴리스의 주상이 깨지리라</name><description>다바네스에서 · '그가 애굽 신전들을 불사르고 헬리오폴리스(벧세메스)의 주상들을 깨뜨리리라.' (렘 43:11-13) / 📍 헬리오폴리스: 헬리오폴리스(온·벧세메스, 현 카이로 마타리야 오벨리스크) 기준 — 확실</description><styleUrl>#pC78BE8</styleUrl><Point><coordinates>31.30700,30.12900,0</coordinates></Point></Placemark>
<Placemark><name>21 → 라마 → 미스바</name><description>라마에서 쇠사슬이 풀림 → 미스바로</description><styleUrl>#lC78BE8</styleUrl><MultiGeometry><LineString><tessellate>1</tessellate><coordinates>35.20200,31.85300,0 35.20236,31.85487,0 35.20277,31.85672,0 35.20321,31.85856,0 35.20369,31.86038,0 35.20422,31.86218,0 35.20479,31.86396,0 35.20539,31.86572,0 35.20604,31.86746,0 35.20673,31.86919,0 35.20746,31.87090,0 35.20823,31.87259,0 35.20904,31.87426,0 35.20989,31.87592,0 35.21079,31.87756,0 35.21172,31.87918,0 35.21269,31.88078,0 35.21371,31.88236,0 35.21477,31.88392,0 35.21586,31.88547,0 35.21700,31.88700,0</coordinates></LineString><Polygon><outerBoundaryIs><LinearRing><coordinates>35.21700,31.88700,0 35.20480,31.88094,0 35.21610,31.87502,0 35.21700,31.88700,0</coordinates></LinearRing></outerBoundaryIs></Polygon></MultiGeometry></Placemark>
<Placemark><name>35 → 다바네스 → 헬리오폴리스</name><description>헬리오폴리스의 주상이 깨지리라</description><styleUrl>#lC78BE8</styleUrl><MultiGeometry><LineString><tessellate>1</tessellate><coordinates>32.20000,30.97200,0 32.16496,30.91967,0 32.12891,30.86841,0 32.09185,30.81822,0 32.05377,30.76911,0 32.01469,30.72106,0 31.97459,30.67409,0 31.93348,30.62819,0 31.89136,30.58336,0 31.84822,30.53961,0 31.80408,30.49692,0 31.75892,30.45531,0 31.71276,30.41476,0 31.66558,30.37529,0 31.61739,30.33689,0 31.56818,30.29957,0 31.51797,30.26331,0 31.46675,30.22812,0 31.41451,30.19401,0 31.36126,30.16097,0 31.30700,30.12900,0</coordinates></LineString><Polygon><outerBoundaryIs><LinearRing><coordinates>31.30700,30.12900,0 31.33519,30.13198,0 31.31991,30.15088,0 31.30700,30.12900,0</coordinates></LinearRing></outerBoundaryIs></Polygon></MultiGeometry></Placemark>
</Folder>
<Folder><name>그달랴와 남은 자들</name>
<Placemark><name>23. 그달랴, 유다 총독이 됨</name><description>BC 586 · 느부갓네살이 사반의 손자, 아히감의 아들 그달랴를 총독으로 세워 남은 사람들을 다스리게 했다. 그의 집안은 예레미야를 보호했던 가문이었다(렘 26:24). (왕하 25:22; 렘 40:5) / 📍 미스바: 텔 엔-나스베 유적 기준 — 통설(네비 삼윌설도 있음)</description><styleUrl>#p5CC98A</styleUrl><Point><coordinates>35.20373,31.89916,0</coordinates></Point></Placemark>
<Placemark><name>24. 지휘관들이 모임 — 그달랴의 맹세</name><description>BC 586 여름~가을 · 들에 숨어 있던 지휘관들—이스마엘, 요하난, 스라야, 야아사냐—이 미스바로 왔다. 그달랴는 '바벨론 왕을 섬기면 무사할 것이니 이 땅에 정착해 포도주와 여름 과일과 기름을 거두라'고 맹세했다. (왕하 25:23-24; 렘 40:7-10) / 📍 미스바: 텔 엔-나스베 유적 기준 — 통설(네비 삼윌설도 있음)</description><styleUrl>#p5CC98A</styleUrl><Point><coordinates>35.21923,31.86164,0</coordinates></Point></Placemark>
<Placemark><name>25. 흩어진 유대인들의 귀환과 풍성한 수확 (모압)</name><description>BC 586 가을 · 모압·암몬·에돔 등 각지로 흩어졌던 유대인들이 그달랴 소식을 듣고 돌아왔다. 그해 그들은 포도주와 여름 과일을 아주 많이 거두었다—심판 뒤에 주어진 짧은 회복의 계절이었다. (렘 40:11-12) / 📍 미스바: 텔 엔-나스베 유적 기준 — 통설(네비 삼윌설도 있음)</description><styleUrl>#p5CC98A</styleUrl><Point><coordinates>35.23597,31.91174,0</coordinates></Point></Placemark>
<Placemark><name>25. 암몬에서 돌아옴</name><description>BC 586 가을 · 암몬 땅에 피했던 유대인들도 돌아왔다. (렘 40:11) / 📍 미스바: 텔 엔-나스베 유적 기준 — 통설(네비 삼윌설도 있음)</description><styleUrl>#p5CC98A</styleUrl><Point><coordinates>35.18155,31.88072,0</coordinates></Point></Placemark>
<Placemark><name>25. 에돔에서 돌아옴</name><description>BC 586 가을 · 에돔 땅에 피했던 유대인들도 돌아왔다. (렘 40:11) / 📍 미스바: 텔 엔-나스베 유적 기준 — 통설(네비 삼윌설도 있음)</description><styleUrl>#p5CC98A</styleUrl><Point><coordinates>35.25096,31.86540,0</coordinates></Point></Placemark>
<Placemark><name>26. 요하난의 경고, 믿지 않은 그달랴</name><description>BC 586 가을 · 요하난이 '암몬 왕 바알리스가 당신을 죽이려고 이스마엘을 보냈다'고 경고하며 몰래 이스마엘을 죽이겠다고 했지만, 그달랴는 믿지 않고 막았다. (렘 40:13-16) / 📍 미스바: 텔 엔-나스베 유적 기준 — 통설(네비 삼윌설도 있음)</description><styleUrl>#p5CC98A</styleUrl><Point><coordinates>35.20554,31.92958,0</coordinates></Point></Placemark>
<Placemark><name>27. 그달랴 암살</name><description>BC 586.10월경 (식사 중 · 582년설도) · 그해 일곱째 달(티쉬리월), 왕족 이스마엘이 부하 10명과 함께 미스바에서 그달랴와 식사하던 중 일어나 그를 칼로 죽이고, 함께 있던 유대인과 바벨론 군인들까지 죽였다. 유대인은 지금도 티쉬리월 3일을 '그달랴 금식일'로 지킨다. BC 582년으로 보는 학자들도 있다. (왕하 25:25; 렘 41:1-3) / 📍 미스바: 텔 엔-나스베 유적 기준 — 통설(네비 삼윌설도 있음)</description><styleUrl>#p5CC98A</styleUrl><Point><coordinates>35.19506,31.84473,0</coordinates></Point></Placemark>
<Placemark><name>28. 성전으로 가던 순례자 80명 학살 (세겜)</name><description>다음 날 · 다음 날, 수염을 깎고 옷을 찢은 채 소제물과 향을 들고 무너진 성전으로 가던 80명이 세겜·실로·사마리아에서 왔다. 이스마엘은 울며 맞으러 나가 그들을 성 안으로 끌어들여 죽이고 아사 왕이 판 구덩이에 던졌다. 숨겨 둔 곡식이 있다고 한 10명만 살려 주었다. (렘 41:4-9) / 📍 미스바: 텔 엔-나스베 유적 기준 — 통설(네비 삼윌설도 있음)</description><styleUrl>#p5CC98A</styleUrl><Point><coordinates>35.26482,31.90448,0</coordinates></Point></Placemark>
<Placemark><name>28. 실로에서 온 순례자들</name><description>다음 날 · 실로에서 온 순례자들도 함께였다. (렘 41:5) / 📍 미스바: 텔 엔-나스베 유적 기준 — 통설(네비 삼윌설도 있음)</description><styleUrl>#p5CC98A</styleUrl><Point><coordinates>35.16708,31.90759,0</coordinates></Point></Placemark>
<Placemark><name>28. 사마리아에서 온 순례자들</name><description>다음 날 · 사마리아에서 온 순례자들도 함께였다. (렘 41:5) / 📍 미스바: 텔 엔-나스베 유적 기준 — 통설(네비 삼윌설도 있음)</description><styleUrl>#p5CC98A</styleUrl><Point><coordinates>35.24114,31.83545,0</coordinates></Point></Placemark>
<Placemark><name>29. 이스마엘, 백성을 사로잡아 암몬으로</name><description>직후 · 이스마엘이 왕의 딸들과 미스바에 남은 백성을 모두 사로잡아 암몬 땅으로 떠났다. (렘 41:10) / 📍 기브온: 엘-지브 유적 기준 — '기브온 큰 못'(바위 우물) 발굴로 확인</description><styleUrl>#p5CC98A</styleUrl><Point><coordinates>35.18500,31.84700,0</coordinates></Point></Placemark>
<Placemark><name>30. 기브온 큰 못가의 구출</name><description>직후 · 요하난과 지휘관들이 뒤쫓아 기브온 큰 못가에서 이스마엘을 따라잡았다. 끌려가던 백성들이 요하난을 보고 기뻐하며 달려갔다. 기브온 큰 못은 발굴로 확인된 거대한 바위 우물이다. (렘 41:11-14) / 📍 기브온: 엘-지브 유적 기준 — '기브온 큰 못'(바위 우물) 발굴로 확인</description><styleUrl>#p5CC98A</styleUrl><Point><coordinates>35.17173,31.85916,0</coordinates></Point></Placemark>
<Placemark><name>30. 이스마엘과 8명, 암몬으로 도주</name><description>직후 · 이스마엘은 부하 8명과 함께 요하난을 피해 암몬으로 도망쳤다. (렘 41:15) / 📍 암몬(랍바): 랍바(현 요르단 암만 성채) — 암몬 수도</description><styleUrl>#p5CC98A</styleUrl><Point><coordinates>35.93400,31.95400,0</coordinates></Point></Placemark>
<Placemark><name>31. 베들레헴 근처 게룻김함에 머묾</name><description>BC 586 말 · 요하난 일행은 바벨론의 보복이 두려워 애굽으로 가려고 베들레헴 근처 게룻김함에 머물렀다. (렘 41:16-18) / 📍 게룻김함: 위치 불명 — '베들레헴 근처'(렘 41:17), 베들레헴 북쪽으로 임의 표시</description><styleUrl>#p5CC98A</styleUrl><Point><coordinates>35.21500,31.73000,0</coordinates></Point></Placemark>
<Placemark><name>34. 말씀을 거부하고 애굽 다바네스로</name><description>BC 586 말 (또는 582) · 그들은 '당신은 거짓말을 한다, 바룩이 선동했다'며 말씀을 거부하고 예레미야와 바룩까지 데리고 애굽 다바네스로 내려갔다. 출애굽으로 나왔던 그 땅으로 스스로 돌아간 것이다. (렘 43:1-7) / 📍 다바네스: 텔 데펜네(나일 삼각주 동부) 기준 — 통설</description><styleUrl>#p5CC98A</styleUrl><Point><coordinates>32.20000,30.97200,0</coordinates></Point></Placemark>
<Placemark><name>25 → 모압 → 여리고 → 미스바</name><description>흩어진 유대인들의 귀환과 풍성한 수확 (모압)</description><styleUrl>#l5CC98A</styleUrl><MultiGeometry><LineString><tessellate>1</tessellate><coordinates>35.70000,31.18000,0 35.67932,31.21164,0 35.65947,31.24358,0 35.64045,31.27583,0 35.62226,31.30839,0 35.60490,31.34126,0 35.58837,31.37443,0 35.57267,31.40791,0 35.55779,31.44169,0 35.54375,31.47579,0 35.53053,31.51019,0 35.51815,31.54490,0 35.50659,31.57991,0 35.49587,31.61524,0 35.48597,31.65087,0 35.47690,31.68680,0 35.46866,31.72305,0 35.46125,31.75960,0 35.45467,31.79646,0 35.44892,31.83363,0 35.44400,31.87110,0 35.43247,31.86931,0 35.42096,31.86779,0 35.40946,31.86654,0 35.39799,31.86556,0 35.38653,31.86486,0 35.37510,31.86443,0 35.36368,31.86427,0 35.35228,31.86438,0 35.34091,31.86477,0 35.32955,31.86543,0 35.31821,31.86636,0 35.30688,31.86756,0 35.29558,31.86904,0 35.28430,31.87079,0 35.27303,31.87281,0 35.26179,31.87510,0 35.25056,31.87767,0 35.23936,31.88051,0 35.22817,31.88362,0 35.21700,31.88700,0</coordinates></LineString><Polygon><outerBoundaryIs><LinearRing><coordinates>35.21700,31.88700,0 35.22666,31.87824,0 35.23095,31.88890,0 35.21700,31.88700,0</coordinates></LinearRing></outerBoundaryIs></Polygon></MultiGeometry></Placemark>
<Placemark><name>25 → 암몬(랍바) → 여리고 → 미스바</name><description>암몬에서 돌아옴</description><styleUrl>#l5CC98A</styleUrl><MultiGeometry><LineString><tessellate>1</tessellate><coordinates>35.93400,31.95400,0 35.90855,31.95544,0 35.88321,31.95629,0 35.85796,31.95656,0 35.83282,31.95624,0 35.80777,31.95532,0 35.78282,31.95383,0 35.75797,31.95174,0 35.73322,31.94906,0 35.70858,31.94580,0 35.68403,31.94195,0 35.65958,31.93751,0 35.63522,31.93248,0 35.61097,31.92687,0 35.58682,31.92067,0 35.56277,31.91387,0 35.53882,31.90650,0 35.51496,31.89853,0 35.49121,31.88997,0 35.46755,31.88083,0 35.44400,31.87110,0 35.43283,31.87448,0 35.42164,31.87759,0 35.41044,31.88043,0 35.39921,31.88300,0 35.38797,31.88529,0 35.37670,31.88731,0 35.36542,31.88906,0 35.35412,31.89054,0 35.34279,31.89174,0 35.33145,31.89267,0 35.32009,31.89333,0 35.30872,31.89372,0 35.29732,31.89383,0 35.28590,31.89367,0 35.27447,31.89324,0 35.26301,31.89254,0 35.25154,31.89156,0 35.24004,31.89031,0 35.22853,31.88879,0 35.21700,31.88700,0</coordinates></LineString><Polygon><outerBoundaryIs><LinearRing><coordinates>35.21700,31.88700,0 35.23041,31.88321,0 35.22820,31.89432,0 35.21700,31.88700,0</coordinates></LinearRing></outerBoundaryIs></Polygon></MultiGeometry></Placemark>
<Placemark><name>25 → 에돔(보스라) → 헤브론 → 미스바</name><description>에돔에서 돌아옴</description><styleUrl>#l5CC98A</styleUrl><MultiGeometry><LineString><tessellate>1</tessellate><coordinates>35.60600,30.73000,0 35.57154,30.76436,0 35.53804,30.79933,0 35.50551,30.83490,0 35.47394,30.87108,0 35.44333,30.90787,0 35.41369,30.94527,0 35.38501,30.98327,0 35.35729,31.02188,0 35.33054,31.06110,0 35.30474,31.10093,0 35.27992,31.14136,0 35.25605,31.18240,0 35.23315,31.22405,0 35.21121,31.26631,0 35.19023,31.30917,0 35.17022,31.35264,0 35.15117,31.39672,0 35.13308,31.44141,0 35.11596,31.48670,0 35.09980,31.53260,0 35.10162,31.55166,0 35.10386,31.57057,0 35.10654,31.58935,0 35.10963,31.60798,0 35.11315,31.62647,0 35.11710,31.64483,0 35.12147,31.66304,0 35.12627,31.68111,0 35.13149,31.69904,0 35.13714,31.71683,0 35.14321,31.73448,0 35.14971,31.75199,0 35.15663,31.76936,0 35.16398,31.78659,0 35.17175,31.80367,0 35.17995,31.82062,0 35.18858,31.83743,0 35.19762,31.85409,0 35.20710,31.87062,0 35.21700,31.88700,0</coordinates></LineString><Polygon><outerBoundaryIs><LinearRing><coordinates>35.21700,31.88700,0 35.20549,31.88004,0 35.21735,31.87500,0 35.21700,31.88700,0</coordinates></LinearRing></outerBoundaryIs></Polygon></MultiGeometry></Placemark>
<Placemark><name>27 → 암몬(랍바) → 여리고 → 미스바</name><description>그달랴 암살</description><styleUrl>#l5CC98A</styleUrl><MultiGeometry><LineString><tessellate>1</tessellate><coordinates>35.93400,31.95400,0 35.91045,31.94427,0 35.88679,31.93513,0 35.86304,31.92657,0 35.83918,31.91860,0 35.81523,31.91123,0 35.79118,31.90443,0 35.76703,31.89823,0 35.74278,31.89262,0 35.71842,31.88759,0 35.69397,31.88315,0 35.66942,31.87930,0 35.64478,31.87604,0 35.62003,31.87336,0 35.59518,31.87127,0 35.57023,31.86978,0 35.54518,31.86886,0 35.52004,31.86854,0 35.49479,31.86881,0 35.46945,31.86966,0 35.44400,31.87110,0 35.43247,31.86931,0 35.42096,31.86779,0 35.40946,31.86654,0 35.39799,31.86556,0 35.38653,31.86486,0 35.37510,31.86443,0 35.36368,31.86427,0 35.35228,31.86438,0 35.34091,31.86477,0 35.32955,31.86543,0 35.31821,31.86636,0 35.30688,31.86756,0 35.29558,31.86904,0 35.28430,31.87079,0 35.27303,31.87281,0 35.26179,31.87510,0 35.25056,31.87767,0 35.23936,31.88051,0 35.22817,31.88362,0 35.21700,31.88700,0</coordinates></LineString><Polygon><outerBoundaryIs><LinearRing><coordinates>35.21700,31.88700,0 35.22666,31.87824,0 35.23095,31.88890,0 35.21700,31.88700,0</coordinates></LinearRing></outerBoundaryIs></Polygon></MultiGeometry></Placemark>
<Placemark><name>28 → 세겜 → 미스바</name><description>성전으로 가던 순례자 80명 학살 (세겜)</description><styleUrl>#l5CC98A</styleUrl><MultiGeometry><LineString><tessellate>1</tessellate><coordinates>35.28200,32.21370,0 35.27503,32.19811,0 35.26844,32.18243,0 35.26225,32.16668,0 35.25645,32.15086,0 35.25105,32.13495,0 35.24603,32.11897,0 35.24141,32.10290,0 35.23718,32.08676,0 35.23334,32.07055,0 35.22990,32.05425,0 35.22684,32.03788,0 35.22418,32.02142,0 35.22191,32.00489,0 35.22003,31.98829,0 35.21855,31.97160,0 35.21745,31.95484,0 35.21675,31.93799,0 35.21644,31.92107,0 35.21653,31.90408,0 35.21700,31.88700,0</coordinates></LineString><Polygon><outerBoundaryIs><LinearRing><coordinates>35.21700,31.88700,0 35.22346,31.89767,0 35.21019,31.89752,0 35.21700,31.88700,0</coordinates></LinearRing></outerBoundaryIs></Polygon></MultiGeometry></Placemark>
<Placemark><name>28 → 실로 → 미스바</name><description>실로에서 온 순례자들</description><styleUrl>#l5CC98A</styleUrl><MultiGeometry><LineString><tessellate>1</tessellate><coordinates>35.28970,32.05560,0 35.28799,32.04634,0 35.28607,32.03717,0 35.28395,32.02809,0 35.28163,32.01909,0 35.27911,32.01018,0 35.27639,32.00136,0 35.27346,31.99262,0 35.27033,31.98397,0 35.26700,31.97541,0 35.26347,31.96694,0 35.25973,31.95855,0 35.25579,31.95025,0 35.25165,31.94204,0 35.24731,31.93392,0 35.24276,31.92588,0 35.23801,31.91793,0 35.23306,31.91007,0 35.22791,31.90229,0 35.22256,31.89460,0 35.21700,31.88700,0</coordinates></LineString><Polygon><outerBoundaryIs><LinearRing><coordinates>35.21700,31.88700,0 35.22914,31.89314,0 35.21779,31.89898,0 35.21700,31.88700,0</coordinates></LinearRing></outerBoundaryIs></Polygon></MultiGeometry></Placemark>
<Placemark><name>28 → 사마리아 → 미스바</name><description>사마리아에서 온 순례자들</description><styleUrl>#l5CC98A</styleUrl><MultiGeometry><LineString><tessellate>1</tessellate><coordinates>35.19700,32.27600,0 35.19357,32.25632,0 35.19060,32.23667,0 35.18810,32.21704,0 35.18606,32.19743,0 35.18449,32.17785,0 35.18339,32.15829,0 35.18276,32.13876,0 35.18259,32.11925,0 35.18289,32.09976,0 35.18366,32.08030,0 35.18489,32.06086,0 35.18659,32.04145,0 35.18876,32.02206,0 35.19139,32.00269,0 35.19449,31.98335,0 35.19806,31.96403,0 35.20210,31.94474,0 35.20660,31.92547,0 35.21157,31.90622,0 35.21700,31.88700,0</coordinates></LineString><Polygon><outerBoundaryIs><LinearRing><coordinates>35.21700,31.88700,0 35.22067,31.89859,0 35.20774,31.89607,0 35.21700,31.88700,0</coordinates></LinearRing></outerBoundaryIs></Polygon></MultiGeometry></Placemark>
<Placemark><name>29 → 미스바 → 기브온</name><description>이스마엘, 백성을 사로잡아 암몬으로</description><styleUrl>#l5CC98A</styleUrl><MultiGeometry><LineString><tessellate>1</tessellate><coordinates>35.21700,31.88700,0 35.21586,31.88464,0 35.21466,31.88231,0 35.21342,31.88002,0 35.21214,31.87777,0 35.21080,31.87556,0 35.20942,31.87339,0 35.20798,31.87125,0 35.20650,31.86916,0 35.20498,31.86710,0 35.20340,31.86508,0 35.20178,31.86310,0 35.20010,31.86116,0 35.19838,31.85925,0 35.19662,31.85739,0 35.19480,31.85556,0 35.19294,31.85377,0 35.19102,31.85202,0 35.18906,31.85031,0 35.18706,31.84864,0 35.18500,31.84700,0</coordinates></LineString><Polygon><outerBoundaryIs><LinearRing><coordinates>35.18500,31.84700,0 35.19859,31.85026,0 35.18942,31.85840,0 35.18500,31.84700,0</coordinates></LinearRing></outerBoundaryIs></Polygon></MultiGeometry></Placemark>
<Placemark><name>30 → 기브온 → 여리고 → 암몬(랍바)</name><description>이스마엘과 8명, 암몬으로 도주</description><styleUrl>#l5CC98A</styleUrl><MultiGeometry><LineString><tessellate>1</tessellate><coordinates>35.18500,31.84700,0 35.19768,31.85116,0 35.21038,31.85500,0 35.22311,31.85854,0 35.23587,31.86177,0 35.24867,31.86468,0 35.26149,31.86728,0 35.27433,31.86958,0 35.28721,31.87156,0 35.30012,31.87323,0 35.31305,31.87459,0 35.32602,31.87564,0 35.33901,31.87638,0 35.35203,31.87681,0 35.36509,31.87692,0 35.37817,31.87673,0 35.39127,31.87623,0 35.40441,31.87541,0 35.41758,31.87428,0 35.43078,31.87285,0 35.44400,31.87110,0 35.46755,31.88083,0 35.49121,31.88997,0 35.51496,31.89853,0 35.53882,31.90650,0 35.56277,31.91388,0 35.58682,31.92067,0 35.61097,31.92687,0 35.63522,31.93248,0 35.65958,31.93751,0 35.68403,31.94195,0 35.70858,31.94580,0 35.73322,31.94906,0 35.75797,31.95174,0 35.78282,31.95383,0 35.80777,31.95532,0 35.83282,31.95624,0 35.85796,31.95656,0 35.88321,31.95629,0 35.90855,31.95544,0 35.93400,31.95400,0</coordinates></LineString><Polygon><outerBoundaryIs><LinearRing><coordinates>35.93400,31.95400,0 35.92188,31.96019,0 35.92118,31.94894,0 35.93400,31.95400,0</coordinates></LinearRing></outerBoundaryIs></Polygon></MultiGeometry></Placemark>
<Placemark><name>31 → 기브온 → 게룻김함</name><description>베들레헴 근처 게룻김함에 머묾</description><styleUrl>#l5CC98A</styleUrl><MultiGeometry><LineString><tessellate>1</tessellate><coordinates>35.18500,31.84700,0 35.18517,31.84081,0 35.18547,31.83465,0 35.18592,31.82853,0 35.18651,31.82245,0 35.18724,31.81640,0 35.18810,31.81039,0 35.18911,31.80441,0 35.19026,31.79847,0 35.19155,31.79257,0 35.19298,31.78670,0 35.19455,31.78087,0 35.19626,31.77507,0 35.19811,31.76931,0 35.20010,31.76359,0 35.20224,31.75790,0 35.20451,31.75225,0 35.20692,31.74663,0 35.20947,31.74105,0 35.21217,31.73551,0 35.21500,31.73000,0</coordinates></LineString><Polygon><outerBoundaryIs><LinearRing><coordinates>35.21500,31.73000,0 35.21622,31.74196,0 35.20403,31.73754,0 35.21500,31.73000,0</coordinates></LinearRing></outerBoundaryIs></Polygon></MultiGeometry></Placemark>
<Placemark><name>34 → 게룻김함 → 헤브론 → 브엘세바 → 다바네스</name><description>말씀을 거부하고 애굽 다바네스로</description><styleUrl>#l5CC98A</styleUrl><MultiGeometry><LineString><tessellate>1</tessellate><coordinates>35.21500,31.73000,0 35.21149,31.71882,0 35.20774,31.70777,0 35.20376,31.69686,0 35.19954,31.68610,0 35.19508,31.67547,0 35.19039,31.66497,0 35.18546,31.65462,0 35.18029,31.64440,0 35.17489,31.63433,0 35.16924,31.62439,0 35.16337,31.61459,0 35.15725,31.60492,0 35.15090,31.59540,0 35.14431,31.58601,0 35.13748,31.57677,0 35.13042,31.56766,0 35.12312,31.55868,0 35.11558,31.54985,0 35.10781,31.54116,0 35.09980,31.53260,0 35.09009,31.51526,0 35.08003,31.49823,0 35.06963,31.48151,0 35.05888,31.46510,0 35.04779,31.44901,0 35.03636,31.43323,0 35.02457,31.41775,0 35.01245,31.40260,0 34.99997,31.38775,0 34.98716,31.37321,0 34.97399,31.35899,0 34.96049,31.34508,0 34.94663,31.33147,0 34.93244,31.31819,0 34.91789,31.30521,0 34.90300,31.29254,0 34.88777,31.28019,0 34.87219,31.26815,0 34.85627,31.25642,0 34.84000,31.24500,0 34.71111,31.20125,0 34.58190,31.16068,0 34.45235,31.12327,0 34.32248,31.08902,0 34.19229,31.05795,0 34.06176,31.03004,0 33.93091,31.00531,0 33.79972,30.98374,0 33.66822,30.96533,0 33.53638,30.95010,0 33.40422,30.93803,0 33.27172,30.92914,0 33.13891,30.92341,0 33.00576,30.92084,0 32.87229,30.92145,0 32.73848,30.92522,0 32.60435,30.93217,0 32.46990,30.94228,0 32.33511,30.95555,0 32.20000,30.97200,0</coordinates></LineString><Polygon><outerBoundaryIs><LinearRing><coordinates>32.20000,30.97200,0 32.25051,30.94131,0 32.25792,30.99075,0 32.20000,30.97200,0</coordinates></LinearRing></outerBoundaryIs></Polygon></MultiGeometry></Placemark>
</Folder>
</Document></kml>